{"type":"FeatureCollection","features":[{"type":"Feature","properties":{"nmEng":"","length_ft":0,"nmTsEng":"Pinlebu","sev":"watch"},"geometry":{"type":"Point","coordinates":[95.293,24.0326]}},{"type":"Feature","properties":{"nmEng":"Kywe Kaw Gyi Bridge","length_ft":300,"nmTsEng":"Banmauk","sev":"watch"},"geometry":{"type":"Point","coordinates":[95.9215,24.3755]}},{"type":"Feature","properties":{"nmEng":"Nam Sa Lein Bridge","length_ft":250,"nmTsEng":"Hkamti","sev":"none"},"geometry":{"type":"Point","coordinates":[95.2572,25.9557]}},{"type":"Feature","properties":{"nmEng":"Nat Ei Zu Bridge","length_ft":300,"nmTsEng":"Hkamti","sev":"none"},"geometry":{"type":"Point","coordinates":[95.4044,25.5255]}},{"type":"Feature","properties":{"nmEng":"Nam Pi Lin Bridge","length_ft":300,"nmTsEng":"Hkamti","sev":"none"},"geometry":{"type":"Point","coordinates":[95.5279,25.7781]}},{"type":"Feature","properties":{"nmEng":"Chin Dwin Bridge","length_ft":1470,"nmTsEng":"Hkamti","sev":"none"},"geometry":{"type":"Point","coordinates":[95.6566,26.0105]}},{"type":"Feature","properties":{"nmEng":"","length_ft":0,"nmTsEng":"Hkamti","sev":"none"},"geometry":{"type":"Point","coordinates":[95.6766,26.0229]}},{"type":"Feature","properties":{"nmEng":"Mya Kyun Tha Bridge","length_ft":250,"nmTsEng":"Hkamti","sev":"none"},"geometry":{"type":"Point","coordinates":[95.8311,25.8753]}},{"type":"Feature","properties":{"nmEng":"Shwe Pyi Tha Bridge","length_ft":230,"nmTsEng":"Hkamti","sev":"none"},"geometry":{"type":"Point","coordinates":[95.8585,25.864]}},{"type":"Feature","properties":{"nmEng":"Nan Si Pun Bridge","length_ft":180,"nmTsEng":"Hkamti","sev":"none"},"geometry":{"type":"Point","coordinates":[95.9146,25.9447]}},{"type":"Feature","properties":{"nmEng":"Chin Dwin Bridge","length_ft":990,"nmTsEng":"Homalin","sev":"watch"},"geometry":{"type":"Point","coordinates":[94.8911,24.8623]}},{"type":"Feature","properties":{"nmEng":"U Yu Bridge","length_ft":1090,"nmTsEng":"Homalin","sev":"watch"},"geometry":{"type":"Point","coordinates":[95.0651,24.8271]}},{"type":"Feature","properties":{"nmEng":"Nam Pa Gun Bridge","length_ft":709,"nmTsEng":"Homalin","sev":"watch"},"geometry":{"type":"Point","coordinates":[95.3786,25.3898]}},{"type":"Feature","properties":{"nmEng":"Nan Sa Hpi Bridge","length_ft":420,"nmTsEng":"Homalin","sev":"watch"},"geometry":{"type":"Point","coordinates":[95.3436,25.3575]}},{"type":"Feature","properties":{"nmEng":"","length_ft":0,"nmTsEng":"Homalin","sev":"watch"},"geometry":{"type":"Point","coordinates":[95.3973,25.4165]}},{"type":"Feature","properties":{"nmEng":"","length_ft":0,"nmTsEng":"Homalin","sev":"watch"},"geometry":{"type":"Point","coordinates":[95.7477,25.2805]}},{"type":"Feature","properties":{"nmEng":"","length_ft":0,"nmTsEng":"Homalin","sev":"watch"},"geometry":{"type":"Point","coordinates":[95.957,25.3208]}},{"type":"Feature","properties":{"nmEng":"Me Za Bridge (Pein Hne Kone)","length_ft":410,"nmTsEng":"Indaw","sev":"moderate"},"geometry":{"type":"Point","coordinates":[96.0415,23.9304]}},{"type":"Feature","properties":{"nmEng":"","length_ft":0,"nmTsEng":"Indaw","sev":"moderate"},"geometry":{"type":"Point","coordinates":[95.9977,24.1053]}},{"type":"Feature","properties":{"nmEng":"Khon Nan Chaung Bridge","length_ft":300,"nmTsEng":"Indaw","sev":"moderate"},"geometry":{"type":"Point","coordinates":[96.0917,24.1832]}},{"type":"Feature","properties":{"nmEng":"","length_ft":0,"nmTsEng":"Indaw","sev":"moderate"},"geometry":{"type":"Point","coordinates":[96.1386,24.2114]}},{"type":"Feature","properties":{"nmEng":"Nat Ma Hoke Chaung Bridge","length_ft":420,"nmTsEng":"Indaw","sev":"moderate"},"geometry":{"type":"Point","coordinates":[96.1127,24.1882]}},{"type":"Feature","properties":{"nmEng":"Hpar Pant Bridge","length_ft":240,"nmTsEng":"Indaw","sev":"moderate"},"geometry":{"type":"Point","coordinates":[96.1953,24.3762]}},{"type":"Feature","properties":{"nmEng":"","length_ft":0,"nmTsEng":"Indaw","sev":"moderate"},"geometry":{"type":"Point","coordinates":[96.1507,24.4491]}},{"type":"Feature","properties":{"nmEng":"Nat Da Rant Bridge","length_ft":280,"nmTsEng":"Indaw","sev":"moderate"},"geometry":{"type":"Point","coordinates":[96.1846,24.4312]}},{"type":"Feature","properties":{"nmEng":"Nant Thar Bridge","length_ft":360,"nmTsEng":"Indaw","sev":"moderate"},"geometry":{"type":"Point","coordinates":[96.0691,24.2854]}},{"type":"Feature","properties":{"nmEng":"Ton Si Bridge","length_ft":250,"nmTsEng":"Indaw","sev":"moderate"},"geometry":{"type":"Point","coordinates":[96.0304,24.3266]}},{"type":"Feature","properties":{"nmEng":"Let Pan Kone Bride","length_ft":180,"nmTsEng":"Indaw","sev":"moderate"},"geometry":{"type":"Point","coordinates":[96.1349,24.2388]}},{"type":"Feature","properties":{"nmEng":"Me Zar Bridge","length_ft":700,"nmTsEng":"Indaw","sev":"moderate"},"geometry":{"type":"Point","coordinates":[96.0237,24.1327]}},{"type":"Feature","properties":{"nmEng":"","length_ft":0,"nmTsEng":"Indaw","sev":"moderate"},"geometry":{"type":"Point","coordinates":[96.1591,24.2298]}},{"type":"Feature","properties":{"nmEng":"","length_ft":0,"nmTsEng":"Indaw","sev":"moderate"},"geometry":{"type":"Point","coordinates":[96.1407,24.225]}},{"type":"Feature","properties":{"nmEng":"Na Bar Bridge","length_ft":200,"nmTsEng":"Indaw","sev":"moderate"},"geometry":{"type":"Point","coordinates":[96.1895,24.2534]}},{"type":"Feature","properties":{"nmEng":"Kann Parr Ni Bridge","length_ft":595,"nmTsEng":"Kale","sev":"none"},"geometry":{"type":"Point","coordinates":[93.984,22.8074]}},{"type":"Feature","properties":{"nmEng":"Myaung Chaung Bridge","length_ft":185,"nmTsEng":"Kale","sev":"none"},"geometry":{"type":"Point","coordinates":[93.9898,22.8238]}},{"type":"Feature","properties":{"nmEng":"Pan Mun Chaung Bridge","length_ft":220,"nmTsEng":"Kale","sev":"none"},"geometry":{"type":"Point","coordinates":[94.0241,22.9884]}},{"type":"Feature","properties":{"nmEng":"Zin Ka Le Bridge","length_ft":230,"nmTsEng":"Kale","sev":"none"},"geometry":{"type":"Point","coordinates":[94.0379,23.1373]}},{"type":"Feature","properties":{"nmEng":"Yae Nan Chaung Bridge","length_ft":190,"nmTsEng":"Kale","sev":"none"},"geometry":{"type":"Point","coordinates":[94.1827,23.2375]}},{"type":"Feature","properties":{"nmEng":"Bon Chaung Brdige","length_ft":295,"nmTsEng":"Kale","sev":"none"},"geometry":{"type":"Point","coordinates":[94.1748,23.2469]}},{"type":"Feature","properties":{"nmEng":"Neyinzaya Bridge","length_ft":260,"nmTsEng":"Kale","sev":"none"},"geometry":{"type":"Point","coordinates":[94.0981,23.2213]}},{"type":"Feature","properties":{"nmEng":"War Ye Bridge","length_ft":290,"nmTsEng":"Kalewa","sev":"watch"},"geometry":{"type":"Point","coordinates":[94.2491,23.1985]}},{"type":"Feature","properties":{"nmEng":"Myit Tha Bridge","length_ft":1320,"nmTsEng":"Kalewa","sev":"watch"},"geometry":{"type":"Point","coordinates":[94.2914,23.1965]}},{"type":"Feature","properties":{"nmEng":"Nan Za Lein Bridge","length_ft":200,"nmTsEng":"Kalewa","sev":"watch"},"geometry":{"type":"Point","coordinates":[94.3585,23.4817]}},{"type":"Feature","properties":{"nmEng":"Se Gyi Bridge","length_ft":240,"nmTsEng":"Kalewa","sev":"watch"},"geometry":{"type":"Point","coordinates":[94.3826,23.3893]}},{"type":"Feature","properties":{"nmEng":"Ma Sein Bridge","length_ft":260,"nmTsEng":"Kalewa","sev":"watch"},"geometry":{"type":"Point","coordinates":[94.3512,23.3813]}},{"type":"Feature","properties":{"nmEng":"Chin Dwin Bridge","length_ft":2805,"nmTsEng":"Kalewa","sev":"watch"},"geometry":{"type":"Point","coordinates":[94.3056,23.2072]}},{"type":"Feature","properties":{"nmEng":"La Bin Bridge","length_ft":220,"nmTsEng":"Kalewa","sev":"watch"},"geometry":{"type":"Point","coordinates":[94.2991,23.1063]}},{"type":"Feature","properties":{"nmEng":"Ye Wa Chaung Bridge","length_ft":1440,"nmTsEng":"Kani","sev":"none"},"geometry":{"type":"Point","coordinates":[94.8516,22.4231]}},{"type":"Feature","properties":{"nmEng":"","length_ft":0,"nmTsEng":"Kyunhla","sev":"critical"},"geometry":{"type":"Point","coordinates":[95.1033,23.7175]}},{"type":"Feature","properties":{"nmEng":"","length_ft":0,"nmTsEng":"Kyunhla","sev":"critical"},"geometry":{"type":"Point","coordinates":[95.3152,23.6546]}},{"type":"Feature","properties":{"nmEng":"","length_ft":0,"nmTsEng":"Kyunhla","sev":"critical"},"geometry":{"type":"Point","coordinates":[95.3285,23.6444]}},{"type":"Feature","properties":{"nmEng":"","length_ft":0,"nmTsEng":"Kyunhla","sev":"critical"},"geometry":{"type":"Point","coordinates":[95.2184,23.3355]}},{"type":"Feature","properties":{"nmEng":"","length_ft":0,"nmTsEng":"Kyunhla","sev":"critical"},"geometry":{"type":"Point","coordinates":[95.5175,23.32]}},{"type":"Feature","properties":{"nmEng":"","length_ft":0,"nmTsEng":"Kyunhla","sev":"critical"},"geometry":{"type":"Point","coordinates":[95.5163,23.3064]}},{"type":"Feature","properties":{"nmEng":"Nam Sa Lein Bridge","length_ft":200,"nmTsEng":"Lahe","sev":"none"},"geometry":{"type":"Point","coordinates":[95.5375,26.1271]}},{"type":"Feature","properties":{"nmEng":"","length_ft":0,"nmTsEng":"Lahe","sev":"none"},"geometry":{"type":"Point","coordinates":[95.3471,26.0043]}},{"type":"Feature","properties":{"nmEng":"","length_ft":0,"nmTsEng":"Lahe","sev":"none"},"geometry":{"type":"Point","coordinates":[95.4569,26.2292]}},{"type":"Feature","properties":{"nmEng":"Maw Laik Kyi Bridge","length_ft":200,"nmTsEng":"Mawlaik","sev":"watch"},"geometry":{"type":"Point","coordinates":[94.4044,23.6208]}},{"type":"Feature","properties":{"nmEng":"","length_ft":0,"nmTsEng":"Mawlaik","sev":"watch"},"geometry":{"type":"Point","coordinates":[94.3437,23.6385]}},{"type":"Feature","properties":{"nmEng":"","length_ft":0,"nmTsEng":"Mawlaik","sev":"watch"},"geometry":{"type":"Point","coordinates":[94.4981,23.6025]}},{"type":"Feature","properties":{"nmEng":"","length_ft":0,"nmTsEng":"Mawlaik","sev":"watch"},"geometry":{"type":"Point","coordinates":[94.4849,23.7569]}},{"type":"Feature","properties":{"nmEng":"","length_ft":0,"nmTsEng":"Mawlaik","sev":"watch"},"geometry":{"type":"Point","coordinates":[94.4909,23.7709]}},{"type":"Feature","properties":{"nmEng":"","length_ft":0,"nmTsEng":"Mawlaik","sev":"watch"},"geometry":{"type":"Point","coordinates":[94.5508,23.7909]}},{"type":"Feature","properties":{"nmEng":"","length_ft":0,"nmTsEng":"Mawlaik","sev":"watch"},"geometry":{"type":"Point","coordinates":[94.568,23.8354]}},{"type":"Feature","properties":{"nmEng":"","length_ft":0,"nmTsEng":"Mawlaik","sev":"watch"},"geometry":{"type":"Point","coordinates":[94.6016,23.8841]}},{"type":"Feature","properties":{"nmEng":"","length_ft":0,"nmTsEng":"Mawlaik","sev":"watch"},"geometry":{"type":"Point","coordinates":[94.4702,23.6859]}},{"type":"Feature","properties":{"nmEng":"","length_ft":0,"nmTsEng":"Mawlaik","sev":"watch"},"geometry":{"type":"Point","coordinates":[94.4,23.6699]}},{"type":"Feature","properties":{"nmEng":"","length_ft":0,"nmTsEng":"Mawlaik","sev":"watch"},"geometry":{"type":"Point","coordinates":[94.4202,23.5871]}},{"type":"Feature","properties":{"nmEng":"","length_ft":0,"nmTsEng":"Mawlaik","sev":"watch"},"geometry":{"type":"Point","coordinates":[94.4196,23.5886]}},{"type":"Feature","properties":{"nmEng":"","length_ft":0,"nmTsEng":"Mawlaik","sev":"watch"},"geometry":{"type":"Point","coordinates":[94.4186,23.5966]}},{"type":"Feature","properties":{"nmEng":"","length_ft":0,"nmTsEng":"Mawlaik","sev":"watch"},"geometry":{"type":"Point","coordinates":[94.4177,23.5998]}},{"type":"Feature","properties":{"nmEng":"","length_ft":0,"nmTsEng":"Mawlaik","sev":"watch"},"geometry":{"type":"Point","coordinates":[94.4165,23.6052]}},{"type":"Feature","properties":{"nmEng":"","length_ft":0,"nmTsEng":"Mawlaik","sev":"watch"},"geometry":{"type":"Point","coordinates":[94.4124,23.6088]}},{"type":"Feature","properties":{"nmEng":"Pa Lu Za Wa Bridge","length_ft":300,"nmTsEng":"Mawlaik","sev":"watch"},"geometry":{"type":"Point","coordinates":[94.3384,23.456]}},{"type":"Feature","properties":{"nmEng":"Yaw Su Chaung Bridge","length_ft":180,"nmTsEng":"Mawlaik","sev":"watch"},"geometry":{"type":"Point","coordinates":[94.3095,23.3177]}},{"type":"Feature","properties":{"nmEng":"Pu Htoe Lone Bridge","length_ft":600,"nmTsEng":"Mingin","sev":"watch"},"geometry":{"type":"Point","coordinates":[94.5411,22.8456]}},{"type":"Feature","properties":{"nmEng":"Thin Baw Chaung Ku Bridge","length_ft":200,"nmTsEng":"Mingin","sev":"watch"},"geometry":{"type":"Point","coordinates":[94.3996,22.9237]}},{"type":"Feature","properties":{"nmEng":"Myo Ma Bridge","length_ft":540,"nmTsEng":"Mingin","sev":"watch"},"geometry":{"type":"Point","coordinates":[94.3235,22.9156]}},{"type":"Feature","properties":{"nmEng":"Nyaung Kaing Bridge","length_ft":600,"nmTsEng":"Mingin","sev":"watch"},"geometry":{"type":"Point","coordinates":[94.4849,22.7728]}},{"type":"Feature","properties":{"nmEng":"Kyauk Oe Chaung Ku Bridge","length_ft":200,"nmTsEng":"Mingin","sev":"watch"},"geometry":{"type":"Point","coordinates":[94.4609,22.8664]}},{"type":"Feature","properties":{"nmEng":"Chindwin Bridge","length_ft":4730,"nmTsEng":"Monywa","sev":"moderate"},"geometry":{"type":"Point","coordinates":[95.0795,22.189]}},{"type":"Feature","properties":{"nmEng":"Ooh Bo Taung Bridge","length_ft":300,"nmTsEng":"Monywa","sev":"moderate"},"geometry":{"type":"Point","coordinates":[95.0992,22.1849]}},{"type":"Feature","properties":{"nmEng":"Don Hee Chaung Son Bridge","length_ft":300,"nmTsEng":"Nanyun","sev":"none"},"geometry":{"type":"Point","coordinates":[95.8157,26.7847]}},{"type":"Feature","properties":{"nmEng":"Naung Yan Bridge","length_ft":180,"nmTsEng":"Nanyun","sev":"none"},"geometry":{"type":"Point","coordinates":[96.1892,27.2087]}},{"type":"Feature","properties":{"nmEng":"","length_ft":0,"nmTsEng":"Nanyun","sev":"none"},"geometry":{"type":"Point","coordinates":[96.1649,26.9834]}},{"type":"Feature","properties":{"nmEng":"","length_ft":0,"nmTsEng":"Nanyun","sev":"none"},"geometry":{"type":"Point","coordinates":[96.1428,26.9951]}},{"type":"Feature","properties":{"nmEng":"","length_ft":0,"nmTsEng":"Nanyun","sev":"none"},"geometry":{"type":"Point","coordinates":[96.1197,26.997]}},{"type":"Feature","properties":{"nmEng":"","length_ft":0,"nmTsEng":"Nanyun","sev":"none"},"geometry":{"type":"Point","coordinates":[96.1892,26.9562]}},{"type":"Feature","properties":{"nmEng":"Naung Ka Lu - Nam Lit Bridge","length_ft":180,"nmTsEng":"Nanyun","sev":"none"},"geometry":{"type":"Point","coordinates":[96.3714,27.1087]}},{"type":"Feature","properties":{"nmEng":"","length_ft":0,"nmTsEng":"Nanyun","sev":"none"},"geometry":{"type":"Point","coordinates":[96.079,27.1748]}},{"type":"Feature","properties":{"nmEng":"","length_ft":0,"nmTsEng":"Nanyun","sev":"none"},"geometry":{"type":"Point","coordinates":[95.5539,26.5164]}},{"type":"Feature","properties":{"nmEng":"","length_ft":0,"nmTsEng":"Nanyun","sev":"none"},"geometry":{"type":"Point","coordinates":[95.757,26.7037]}},{"type":"Feature","properties":{"nmEng":"","length_ft":0,"nmTsEng":"Nanyun","sev":"none"},"geometry":{"type":"Point","coordinates":[96.2539,27.1706]}},{"type":"Feature","properties":{"nmEng":"","length_ft":0,"nmTsEng":"Nanyun","sev":"none"},"geometry":{"type":"Point","coordinates":[95.5379,26.4788]}},{"type":"Feature","properties":{"nmEng":"Maing Chaung Bridge","length_ft":1000,"nmTsEng":"Paungbyin","sev":"watch"},"geometry":{"type":"Point","coordinates":[94.782,23.9829]}},{"type":"Feature","properties":{"nmEng":"Mu Chaung Bridge","length_ft":1330,"nmTsEng":"Paungbyin","sev":"watch"},"geometry":{"type":"Point","coordinates":[94.8061,24.0573]}},{"type":"Feature","properties":{"nmEng":"Nam Ma Kwin Chaung Bridge","length_ft":520,"nmTsEng":"Paungbyin","sev":"watch"},"geometry":{"type":"Point","coordinates":[94.8491,24.1666]}},{"type":"Feature","properties":{"nmEng":"","length_ft":0,"nmTsEng":"Paungbyin","sev":"watch"},"geometry":{"type":"Point","coordinates":[94.8099,24.209]}},{"type":"Feature","properties":{"nmEng":"","length_ft":0,"nmTsEng":"Paungbyin","sev":"watch"},"geometry":{"type":"Point","coordinates":[94.8283,24.268]}},{"type":"Feature","properties":{"nmEng":"","length_ft":0,"nmTsEng":"Paungbyin","sev":"watch"},"geometry":{"type":"Point","coordinates":[94.8627,24.3003]}},{"type":"Feature","properties":{"nmEng":"","length_ft":0,"nmTsEng":"Paungbyin","sev":"watch"},"geometry":{"type":"Point","coordinates":[94.8848,24.3335]}},{"type":"Feature","properties":{"nmEng":"Tha Yaung Chaung Bridge","length_ft":300,"nmTsEng":"Paungbyin","sev":"watch"},"geometry":{"type":"Point","coordinates":[94.8963,24.3606]}},{"type":"Feature","properties":{"nmEng":"","length_ft":0,"nmTsEng":"Paungbyin","sev":"watch"},"geometry":{"type":"Point","coordinates":[94.8985,24.3835]}},{"type":"Feature","properties":{"nmEng":"","length_ft":0,"nmTsEng":"Paungbyin","sev":"watch"},"geometry":{"type":"Point","coordinates":[94.9167,24.4114]}},{"type":"Feature","properties":{"nmEng":"","length_ft":0,"nmTsEng":"Paungbyin","sev":"watch"},"geometry":{"type":"Point","coordinates":[94.9175,24.4178]}},{"type":"Feature","properties":{"nmEng":"Chin The Chaung Bridge","length_ft":280,"nmTsEng":"Paungbyin","sev":"watch"},"geometry":{"type":"Point","coordinates":[94.9653,24.465]}},{"type":"Feature","properties":{"nmEng":"Haw Zaung Bridge","length_ft":200,"nmTsEng":"Paungbyin","sev":"watch"},"geometry":{"type":"Point","coordinates":[94.9714,24.1811]}},{"type":"Feature","properties":{"nmEng":"Nan Ma Chaung Bridge","length_ft":334,"nmTsEng":"Pinlebu","sev":"watch"},"geometry":{"type":"Point","coordinates":[95.3766,24.0883]}},{"type":"Feature","properties":{"nmEng":"Mu River Bridge","length_ft":660,"nmTsEng":"Pinlebu","sev":"watch"},"geometry":{"type":"Point","coordinates":[95.3545,24.0791]}},{"type":"Feature","properties":{"nmEng":"Thiri Mingalar Overpass","length_ft":485,"nmTsEng":"Sagaing","sev":"moderate"},"geometry":{"type":"Point","coordinates":[95.9762,21.893]}},{"type":"Feature","properties":{"nmEng":"","length_ft":0,"nmTsEng":"Sagaing","sev":"moderate"},"geometry":{"type":"Point","coordinates":[95.7381,22.2032]}},{"type":"Feature","properties":{"nmEng":"","length_ft":0,"nmTsEng":"Sagaing","sev":"moderate"},"geometry":{"type":"Point","coordinates":[95.7649,22.1508]}},{"type":"Feature","properties":{"nmEng":"","length_ft":0,"nmTsEng":"Sagaing","sev":"moderate"},"geometry":{"type":"Point","coordinates":[95.6945,22.1475]}},{"type":"Feature","properties":{"nmEng":"","length_ft":0,"nmTsEng":"Sagaing","sev":"moderate"},"geometry":{"type":"Point","coordinates":[95.6923,22.1186]}},{"type":"Feature","properties":{"nmEng":"","length_ft":0,"nmTsEng":"Salingyi","sev":"none"},"geometry":{"type":"Point","coordinates":[95.015,21.946]}},{"type":"Feature","properties":{"nmEng":"","length_ft":0,"nmTsEng":"Salingyi","sev":"none"},"geometry":{"type":"Point","coordinates":[95.0498,21.8923]}},{"type":"Feature","properties":{"nmEng":"","length_ft":0,"nmTsEng":"Salingyi","sev":"none"},"geometry":{"type":"Point","coordinates":[94.9473,21.8788]}},{"type":"Feature","properties":{"nmEng":"","length_ft":0,"nmTsEng":"Shwebo","sev":"severe"},"geometry":{"type":"Point","coordinates":[95.599,22.6261]}},{"type":"Feature","properties":{"nmEng":"","length_ft":0,"nmTsEng":"Shwebo","sev":"severe"},"geometry":{"type":"Point","coordinates":[95.6055,22.6175]}},{"type":"Feature","properties":{"nmEng":"","length_ft":0,"nmTsEng":"Shwebo","sev":"severe"},"geometry":{"type":"Point","coordinates":[95.6112,22.6119]}},{"type":"Feature","properties":{"nmEng":"","length_ft":0,"nmTsEng":"Shwebo","sev":"severe"},"geometry":{"type":"Point","coordinates":[95.568,22.6457]}},{"type":"Feature","properties":{"nmEng":"Pa Yan Pa Ka Chaung Bridge","length_ft":300,"nmTsEng":"Tabayin","sev":"critical"},"geometry":{"type":"Point","coordinates":[95.4422,22.4976]}},{"type":"Feature","properties":{"nmEng":"Kamma Gyi Bridge","length_ft":310,"nmTsEng":"Tamu","sev":"none"},"geometry":{"type":"Point","coordinates":[94.1477,23.8338]}},{"type":"Feature","properties":{"nmEng":"Twi Ban Bridge","length_ft":200,"nmTsEng":"Tamu","sev":"none"},"geometry":{"type":"Point","coordinates":[94.1975,23.9556]}},{"type":"Feature","properties":{"nmEng":"Tee Tein Yan Bridge","length_ft":190,"nmTsEng":"Tamu","sev":"none"},"geometry":{"type":"Point","coordinates":[94.2091,23.985]}},{"type":"Feature","properties":{"nmEng":"Nan Mun Tar Bridge","length_ft":240,"nmTsEng":"Tamu","sev":"none"},"geometry":{"type":"Point","coordinates":[94.2736,24.0795]}},{"type":"Feature","properties":{"nmEng":"Kan Gyi Wa Bridge","length_ft":360,"nmTsEng":"Tamu","sev":"none"},"geometry":{"type":"Point","coordinates":[94.3033,24.2354]}},{"type":"Feature","properties":{"nmEng":"Nan Tha Let Bridge","length_ft":241,"nmTsEng":"Tamu","sev":"none"},"geometry":{"type":"Point","coordinates":[94.4302,24.4329]}},{"type":"Feature","properties":{"nmEng":"Pa Hae Bridge","length_ft":558,"nmTsEng":"Tamu","sev":"none"},"geometry":{"type":"Point","coordinates":[94.3156,24.2275]}},{"type":"Feature","properties":{"nmEng":"Yu Chaung Bridge","length_ft":400,"nmTsEng":"Tamu","sev":"none"},"geometry":{"type":"Point","coordinates":[94.3738,24.1842]}},{"type":"Feature","properties":{"nmEng":"Hpai Lin Bridge","length_ft":420,"nmTsEng":"Tamu","sev":"none"},"geometry":{"type":"Point","coordinates":[94.5544,24.625]}},{"type":"Feature","properties":{"nmEng":"Kyauk Aik Bridge","length_ft":250,"nmTsEng":"Tigyaing","sev":"watch"},"geometry":{"type":"Point","coordinates":[96.1034,23.9541]}},{"type":"Feature","properties":{"nmEng":"Doe Pin (Me Za) Bridge","length_ft":269,"nmTsEng":"Tigyaing","sev":"watch"},"geometry":{"type":"Point","coordinates":[96.0768,23.7359]}},{"type":"Feature","properties":{"nmEng":"Kyet Thun Khin Bridge","length_ft":180,"nmTsEng":"Tigyaing","sev":"watch"},"geometry":{"type":"Point","coordinates":[96.1318,23.7513]}},{"type":"Feature","properties":{"nmEng":"Ayeyarwaddy Bridge (Tigyaing)","length_ft":7730,"nmTsEng":"Tigyaing","sev":"watch"},"geometry":{"type":"Point","coordinates":[96.1456,23.7399]}},{"type":"Feature","properties":{"nmEng":"Tha Ma Yoe Bridge","length_ft":720,"nmTsEng":"Wetlet","sev":"severe"},"geometry":{"type":"Point","coordinates":[95.5942,22.2971]}}]}