{"type":"FeatureCollection","features":[{"type":"Feature","properties":{"ST":"Chin","ST_PCODE":"MMR004"},"geometry":{"type":"Polygon","coordinates":[[[92.6792,21.2862],[92.6805,21.2964],[92.6645,21.318],[92.6523,21.3564],[92.6508,21.3856],[92.627,21.4644],[92.6088,21.5913],[92.6075,21.6889],[92.6021,21.701],[92.6109,21.7692],[92.6094,21.8171],[92.6202,21.8245],[92.6128,21.8492],[92.6197,21.8603],[92.6318,21.8629],[92.6338,21.8733],[92.6209,21.9215],[92.6112,21.9303],[92.6166,21.9404],[92.6053,21.9715],[92.6341,21.9845],[92.6536,22.0151],[92.6807,22.0122],[92.6859,22.0418],[92.6832,22.103],[92.6886,22.1042],[92.6918,22.0712],[92.6951,22.1539],[92.7125,22.147],[92.7269,22.15],[92.7358,22.1339],[92.8094,22.0943],[92.8189,22.0853],[92.8191,22.0748],[92.8332,22.0743],[92.8406,22.0627],[92.8524,22.0664],[92.8636,22.0605],[92.8687,22.054],[92.8633,22.0436],[92.8655,22.0263],[92.89,22.0122],[92.9058,21.9411],[92.9128,21.9764],[92.9334,22.0046],[92.9299,22.0143],[92.9519,22.0315],[92.957,22.032],[92.9774,21.9966],[92.9786,21.9814],[92.9988,21.9806],[93.005,21.9882],[93.0039,22.018],[92.9948,22.0406],[93.0106,22.0906],[93.0048,22.1067],[93.0577,22.0978],[93.0525,22.1258],[93.0375,22.1477],[93.0476,22.1716],[93.04,22.1863],[93.0431,22.1998],[93.1095,22.201],[93.1237,22.1748],[93.1485,22.1766],[93.1601,22.1977],[93.1416,22.2333],[93.1425,22.2464],[93.1791,22.2471],[93.1958,22.2561],[93.2008,22.266],[93.1907,22.3002],[93.1927,22.3294],[93.181,22.4137],[93.1854,22.4256],[93.1601,22.4516],[93.138,22.4564],[93.1309,22.4738],[93.1348,22.4927],[93.1228,22.5094],[93.1278,22.5233],[93.1075,22.5272],[93.1136,22.5611],[93.1392,22.5848],[93.1395,22.5914],[93.1265,22.6256],[93.1066,22.6392],[93.1067,22.6582],[93.0959,22.6762],[93.0981,22.6977],[93.092,22.7115],[93.105,22.7522],[93.096,22.8025],[93.1074,22.8186],[93.1187,22.8638],[93.1321,22.8877],[93.1306,22.9076],[93.1407,22.914],[93.1636,22.9113],[93.1487,22.9251],[93.1399,22.9527],[93.1351,22.9712],[93.1426,22.9738],[93.1396,22.9928],[93.1216,23.0033],[93.1254,23.0416],[93.136,23.0494],[93.1358,23.0612],[93.1569,23.0457],[93.1825,23.0596],[93.2018,23.0514],[93.2133,23.0414],[93.2155,23.0272],[93.2274,23.0231],[93.2286,23.0131],[93.292,23.0073],[93.3019,23.0186],[93.313,23.0195],[93.3344,23.0595],[93.3426,23.0644],[93.3404,23.077],[93.3449,23.0924],[93.3548,23.0999],[93.3549,23.117],[93.3855,23.1368],[93.3868,23.1444],[93.369,23.1452],[93.3726,23.1758],[93.3802,23.1872],[93.3778,23.2123],[93.3897,23.2189],[93.3695,23.2517],[93.3688,23.3255],[93.3571,23.3521],[93.3846,23.3636],[93.4005,23.3886],[93.3894,23.4197],[93.3882,23.4437],[93.3948,23.4524],[93.3954,23.5015],[93.4184,23.5381],[93.4114,23.5585],[93.4156,23.5706],[93.4231,23.5722],[93.4282,23.595],[93.4201,23.614],[93.4248,23.6294],[93.4169,23.6413],[93.4372,23.6824],[93.4089,23.7103],[93.4055,23.74],[93.3923,23.7555],[93.4036,23.8065],[93.392,23.8173],[93.3873,23.8496],[93.3933,23.9204],[93.3845,23.9321],[93.3646,23.9329],[93.333,23.9858],[93.3339,24.0363],[93.3257,24.053],[93.3359,24.0617],[93.3284,24.0805],[93.3374,24.0916],[93.354,24.0919],[93.3408,24.1051],[93.3514,24.1036],[93.3605,24.0926],[93.4092,24.0776],[93.4228,24.061],[93.4352,24.0196],[93.4573,24.0133],[93.4551,24.0043],[93.4639,23.994],[93.4599,23.9794],[93.4846,23.9569],[93.5061,23.947],[93.5214,23.9481],[93.5448,23.961],[93.5538,23.9771],[93.5822,23.9636],[93.595,23.9654],[93.6094,23.98],[93.6203,24.0095],[93.7269,23.9992],[93.7544,24.0047],[93.7609,24.0034],[93.7769,23.9668],[93.8105,23.9266],[93.8614,23.9326],[93.8945,23.9527],[93.9316,23.9514],[93.9676,23.9261],[93.9825,23.9298],[94.0042,23.9212],[94.0201,23.9242],[94.0428,23.9102],[94.0524,23.8868],[94.0977,23.8858],[94.1181,23.8403],[94.1422,23.8348],[94.1336,23.8183],[94.1373,23.7742],[94.1488,23.7614],[94.153,23.7391],[94.1373,23.7207],[94.1373,23.7039],[94.1497,23.6911],[94.1281,23.6652],[94.1321,23.6515],[94.1193,23.6129],[94.1181,23.557],[94.111,23.5433],[94.0884,23.5392],[94.093,23.5165],[94.0827,23.5158],[94.0692,23.5557],[94.04,23.5734],[94.0097,23.544],[94.0272,23.5249],[94.0328,23.4914],[94.0366,23.4321],[94.0284,23.4124],[94.0295,23.3848],[94.0207,23.366],[94.019,23.3775],[94.0037,23.3941],[93.955,23.4008],[94.0034,23.3713],[94.004,23.3119],[94.0105,23.2905],[94.0014,23.287],[94.0034,23.2711],[93.9995,23.2546],[93.9918,23.2516],[93.9904,23.2287],[93.9802,23.2344],[93.9574,23.2253],[93.9632,23.1861],[93.9462,23.1799],[93.9507,23.1684],[93.9641,23.1671],[93.9667,23.1613],[93.9618,23.1469],[93.9765,23.1288],[93.9718,23.1187],[93.977,23.0901],[93.9859,23.0837],[93.9938,23.086],[94.0025,23.0674],[94.0006,22.9825],[93.9896,22.9724],[94.0172,22.9688],[94.0184,22.9567],[94.0255,22.9514],[94.0067,22.9447],[93.9896,22.9467],[93.9949,22.9247],[94.0112,22.9101],[94.0033,22.8928],[94.0172,22.8527],[94.0126,22.836],[93.9873,22.8304],[94.0081,22.7715],[94.0029,22.7542],[94.0489,22.6057],[94.0166,22.5954],[94.0169,22.5675],[94.0478,22.4513],[94.0293,22.4486],[94.0177,22.4397],[94.0579,22.4368],[94.0184,22.3665],[94.038,22.2543],[94.0418,22.1556],[94.0065,22.0809],[94.0175,21.9958],[93.9849,21.933],[93.9822,21.9147],[94.0062,21.7204],[94.0422,21.6715],[94.1033,21.6353],[94.1037,21.6038],[94.1194,21.5791],[94.0926,21.5475],[94.0989,21.5282],[94.0769,21.4812],[94.0881,21.4613],[94.0462,21.3553],[94.0577,21.331],[94.0478,21.334],[94.006,21.2996],[94.0245,21.2812],[94.055,21.2849],[94.1046,21.273],[94.0944,21.213],[94.1072,21.2014],[94.1107,21.1726],[94.12,21.1679],[94.1123,21.1118],[94.101,21.1006],[94.0951,21.0827],[94.0852,21.0729],[94.053,21.0673],[94.054,21.0582],[94.0774,21.0346],[94.0443,21.0142],[94.0036,20.9601],[94.0141,20.9442],[94.0159,20.9215],[94.0313,20.8872],[94.0438,20.8847],[94.0472,20.8717],[94.0649,20.8566],[94.0393,20.8276],[94.0416,20.8078],[94.0808,20.7647],[94.0837,20.7496],[94.0455,20.6884],[94.0354,20.6914],[94.0203,20.684],[94.0108,20.6897],[94.0085,20.6834],[93.9897,20.6822],[93.9796,20.6687],[93.9547,20.6642],[93.9598,20.6575],[93.9435,20.6614],[93.932,20.6556],[93.9335,20.6471],[93.9234,20.6399],[93.9128,20.6508],[93.8861,20.6418],[93.8634,20.65],[93.8661,20.6633],[93.8407,20.6875],[93.8503,20.7118],[93.8438,20.7278],[93.8288,20.7334],[93.8231,20.7747],[93.8063,20.7787],[93.776,20.7647],[93.763,20.7648],[93.7664,20.7803],[93.7605,20.7983],[93.7467,20.8114],[93.7447,20.843],[93.7349,20.8605],[93.696,20.9053],[93.6958,20.9202],[93.6731,20.9188],[93.6603,20.9243],[93.6434,20.924],[93.629,20.9151],[93.6301,20.8674],[93.5989,20.8469],[93.6097,20.8188],[93.6009,20.7903],[93.6296,20.7528],[93.6308,20.7224],[93.5953,20.7224],[93.5637,20.7342],[93.5534,20.7253],[93.5502,20.7112],[93.5305,20.7074],[93.5187,20.71],[93.5026,20.7329],[93.4853,20.7433],[93.4611,20.7281],[93.4489,20.7404],[93.4335,20.7341],[93.4218,20.7433],[93.4054,20.7318],[93.3967,20.7392],[93.3976,20.7587],[93.3902,20.7712],[93.3567,20.7638],[93.3374,20.7693],[93.329,20.7584],[93.3175,20.7684],[93.318,20.7827],[93.3111,20.7909],[93.2785,20.7912],[93.2436,20.8098],[93.2538,20.8436],[93.2354,20.8346],[93.2085,20.8511],[93.1798,20.8333],[93.16,20.8435],[93.1531,20.8637],[93.1574,20.8793],[93.142,20.9028],[93.1449,20.9111],[93.1339,20.9293],[93.1313,20.9496],[93.1415,20.9698],[93.132,21.0117],[93.1356,21.026],[93.1223,21.0558],[93.1298,21.0883],[93.1083,21.082],[93.0799,21.0846],[93.077,21.0701],[93.0469,21.0615],[93.0348,21.0776],[93.0064,21.0708],[92.997,21.0802],[92.9892,21.0796],[92.984,21.0971],[92.9675,21.1026],[92.964,21.1134],[92.9495,21.1134],[92.9396,21.1038],[92.9192,21.1137],[92.8722,21.0786],[92.8692,21.0658],[92.8651,21.0727],[92.8563,21.0728],[92.8494,21.0897],[92.8533,21.0975],[92.8424,21.1054],[92.8389,21.0946],[92.8134,21.0957],[92.8065,21.1014],[92.7947,21.1255],[92.8012,21.1419],[92.7841,21.1587],[92.7837,21.1898],[92.7682,21.1928],[92.7637,21.2073],[92.7547,21.2071],[92.7488,21.1935],[92.7382,21.1984],[92.7109,21.2531],[92.6947,21.2565],[92.6864,21.2822],[92.6792,21.2862]]]}},{"type":"Feature","properties":{"ST":"Kachin","ST_PCODE":"MMR001"},"geometry":{"type":"Polygon","coordinates":[[[97.0666,27.0927],[97.0763,27.0987],[97.0967,27.0958],[97.1025,27.1069],[97.1383,27.0922],[97.1652,27.1349],[97.1464,27.1606],[97.1255,27.1741],[97.1207,27.1893],[97.0917,27.2127],[97.0879,27.2372],[97.054,27.2666],[97.0543,27.2759],[97.0419,27.2833],[97.0286,27.3059],[96.9991,27.3183],[96.9912,27.3444],[96.9809,27.3487],[96.9633,27.3768],[96.9623,27.4022],[96.9346,27.4179],[96.9315,27.4333],[96.9051,27.4516],[96.9106,27.4877],[96.9264,27.5084],[96.9134,27.5161],[96.9147,27.5354],[96.9067,27.5489],[96.9105,27.5596],[96.8942,27.5692],[96.9047,27.5849],[96.8896,27.6125],[96.9154,27.6213],[96.916,27.6305],[96.9258,27.6328],[96.9302,27.6595],[96.9644,27.6585],[96.9751,27.67],[96.9827,27.6695],[97.0188,27.7363],[97.0407,27.7439],[97.0474,27.74],[97.0619,27.7491],[97.0881,27.7382],[97.0956,27.7691],[97.1351,27.8059],[97.1563,27.8112],[97.1635,27.8256],[97.2348,27.8814],[97.2469,27.8993],[97.2757,27.9039],[97.2978,27.9153],[97.3215,27.8972],[97.32,27.8895],[97.3652,27.873],[97.3785,27.8924],[97.3731,27.9135],[97.388,27.9233],[97.3691,27.9319],[97.3775,27.9507],[97.3643,27.9602],[97.3649,27.9745],[97.3838,27.9849],[97.3848,28.0017],[97.3927,28.0138],[97.3513,28.0657],[97.3362,28.0582],[97.3128,28.0629],[97.3309,28.088],[97.3271,28.1009],[97.3341,28.1042],[97.3249,28.1155],[97.3261,28.1366],[97.3517,28.1506],[97.3582,28.1632],[97.3549,28.1796],[97.3626,28.1987],[97.3466,28.2132],[97.35,28.2392],[97.387,28.2368],[97.412,28.2495],[97.4021,28.2787],[97.418,28.2955],[97.4246,28.2973],[97.4347,28.2852],[97.4631,28.2707],[97.4803,28.2792],[97.4684,28.2941],[97.4708,28.3048],[97.4835,28.3147],[97.5037,28.315],[97.5197,28.3288],[97.4997,28.3418],[97.4827,28.3825],[97.502,28.3997],[97.5054,28.4318],[97.5229,28.445],[97.504,28.47],[97.5038,28.4984],[97.5217,28.4976],[97.5391,28.5218],[97.5736,28.5455],[97.5965,28.5337],[97.5925,28.5208],[97.6029,28.5172],[97.622,28.5223],[97.6301,28.5363],[97.6522,28.5328],[97.6601,28.5371],[97.6703,28.5256],[97.6879,28.5235],[97.6917,28.5061],[97.7222,28.4974],[97.7402,28.4604],[97.7387,28.3954],[97.7901,28.358],[97.7944,28.3337],[97.8437,28.3304],[97.8467,28.3519],[97.8684,28.366],[97.9085,28.368],[97.9416,28.3307],[97.9623,28.3208],[97.9565,28.3006],[97.992,28.291],[98.0105,28.274],[98.024,28.2459],[98.0148,28.2387],[98.0075,28.2156],[98.0114,28.2087],[98.0316,28.1893],[98.0522,28.1921],[98.0504,28.2019],[98.0776,28.2042],[98.0907,28.1935],[98.0944,28.1704],[98.1209,28.1639],[98.1416,28.1398],[98.1604,28.0988],[98.1499,28.0605],[98.138,28.0441],[98.1441,28.022],[98.1341,27.9923],[98.1372,27.963],[98.1523,27.9416],[98.1889,27.9391],[98.2017,27.9039],[98.2014,27.8755],[98.182,27.8738],[98.1699,27.8524],[98.1804,27.8304],[98.2055,27.8148],[98.2249,27.8113],[98.2192,27.7593],[98.247,27.7411],[98.2458,27.7349],[98.2271,27.7243],[98.2242,27.7114],[98.238,27.692],[98.2631,27.6732],[98.2674,27.6617],[98.2777,27.6641],[98.2849,27.6561],[98.2892,27.6359],[98.3018,27.6311],[98.3003,27.6083],[98.3095,27.5881],[98.3085,27.5454],[98.3186,27.5319],[98.3178,27.5227],[98.337,27.5103],[98.3488,27.5162],[98.3731,27.509],[98.3909,27.5188],[98.3993,27.5396],[98.4294,27.5527],[98.4341,27.5708],[98.4289,27.5964],[98.4377,27.635],[98.4301,27.6578],[98.437,27.6666],[98.4584,27.6567],[98.4708,27.6389],[98.504,27.6347],[98.5114,27.6246],[98.5296,27.6211],[98.5371,27.6231],[98.5381,27.6366],[98.552,27.6483],[98.5581,27.6463],[98.5854,27.5884],[98.5875,27.5682],[98.6096,27.5788],[98.6498,27.5673],[98.6555,27.5844],[98.6671,27.5885],[98.6866,27.5664],[98.7026,27.5637],[98.6988,27.5392],[98.7049,27.5211],[98.6902,27.5125],[98.6869,27.4867],[98.7011,27.4673],[98.7034,27.4517],[98.6892,27.4468],[98.6872,27.4243],[98.7028,27.4153],[98.7047,27.3921],[98.699,27.3818],[98.7065,27.3629],[98.735,27.3514],[98.7337,27.3381],[98.741,27.3265],[98.7316,27.2995],[98.7336,27.2883],[98.7169,27.2722],[98.716,27.2569],[98.7294,27.2488],[98.7182,27.2352],[98.7236,27.2239],[98.7011,27.216],[98.6935,27.2003],[98.7038,27.182],[98.7131,27.1411],[98.7089,27.1313],[98.7144,27.077],[98.7259,27.0697],[98.74,27.0747],[98.7659,27.0532],[98.7639,27.0214],[98.7446,27.0144],[98.7355,27.0027],[98.7457,26.9923],[98.7389,26.9621],[98.7543,26.9232],[98.7584,26.8846],[98.7327,26.8526],[98.7623,26.8],[98.7539,26.7338],[98.7434,26.7121],[98.7554,26.694],[98.7709,26.6903],[98.7681,26.6696],[98.762,26.6656],[98.7813,26.6227],[98.7773,26.611],[98.7814,26.6028],[98.7716,26.5779],[98.7554,26.5647],[98.7482,26.5098],[98.7568,26.4916],[98.7429,26.4362],[98.7505,26.4229],[98.7292,26.3758],[98.7277,26.3484],[98.6833,26.3078],[98.672,26.2419],[98.6881,26.2354],[98.706,26.2417],[98.7251,26.2109],[98.7349,26.1849],[98.7246,26.1599],[98.709,26.1566],[98.7163,26.1256],[98.6666,26.0895],[98.6567,26.0995],[98.6655,26.123],[98.6504,26.1438],[98.6282,26.148],[98.6037,26.1318],[98.5865,26.1441],[98.5826,26.1294],[98.5729,26.1208],[98.587,26.0895],[98.5806,26.075],[98.594,26.0744],[98.6005,26.0601],[98.6018,26.0319],[98.6167,25.9753],[98.642,25.9767],[98.6849,25.9379],[98.6926,25.9081],[98.7046,25.8967],[98.7053,25.852],[98.6876,25.8455],[98.6745,25.8189],[98.6639,25.8201],[98.6395,25.8008],[98.578,25.8275],[98.5758,25.8387],[98.5626,25.8475],[98.5329,25.8454],[98.5181,25.8352],[98.5205,25.8268],[98.4927,25.8076],[98.4894,25.7924],[98.4754,25.7804],[98.4805,25.7601],[98.4622,25.7352],[98.4681,25.7086],[98.459,25.6889],[98.4214,25.6738],[98.4113,25.6619],[98.403,25.5956],[98.3802,25.5965],[98.3723,25.5833],[98.3446,25.5769],[98.3137,25.548],[98.3037,25.5501],[98.2917,25.5765],[98.2544,25.6061],[98.1683,25.626],[98.1833,25.5922],[98.1844,25.562],[98.1647,25.5471],[98.1537,25.5277],[98.1276,25.522],[98.1253,25.515],[98.1576,25.4583],[98.1536,25.4383],[98.1443,25.4317],[98.1534,25.4172],[98.1404,25.3904],[98.1282,25.3863],[98.1018,25.3917],[98.0974,25.354],[98.0875,25.3381],[98.0753,25.3326],[98.0669,25.309],[98.0403,25.3038],[98.0202,25.3091],[98.0102,25.3036],[98.0062,25.2832],[97.9906,25.2597],[97.9363,25.2198],[97.9107,25.2147],[97.8749,25.2623],[97.8376,25.2695],[97.7773,25.1244],[97.7418,25.0821],[97.7217,25.084],[97.727,25.0453],[97.7181,24.9828],[97.7324,24.9497],[97.7309,24.9118],[97.7623,24.8823],[97.7708,24.886],[97.786,24.8809],[97.7919,24.8701],[97.7883,24.863],[97.7997,24.859],[97.8006,24.849],[97.7639,24.8259],[97.7325,24.8298],[97.7019,24.8463],[97.6936,24.8323],[97.6791,24.8282],[97.6506,24.7957],[97.5888,24.769],[97.5741,24.7711],[97.5506,24.7425],[97.5528,24.7304],[97.5656,24.7259],[97.5689,24.7183],[97.5694,24.6026],[97.5542,24.4895],[97.534,24.455],[97.5313,24.437],[97.6228,24.4413],[97.6711,24.4538],[97.6856,24.4118],[97.6816,24.4032],[97.6908,24.3873],[97.7152,24.3774],[97.7164,24.3605],[97.703,24.3442],[97.6655,24.3443],[97.6591,24.3252],[97.6676,24.2993],[97.6941,24.2945],[97.7224,24.298],[97.7695,24.2626],[97.7455,24.2479],[97.7293,24.2291],[97.728,24.188],[97.7455,24.1793],[97.7522,24.1687],[97.7405,24.1606],[97.7286,24.1148],[97.697,24.0971],[97.6753,24.0725],[97.6556,24.0647],[97.6433,24.0471],[97.6377,24.0498],[97.6335,24.0241],[97.6235,24.0157],[97.6278,24.0072],[97.5763,23.9863],[97.5628,23.9644],[97.5291,23.9436],[97.5286,23.9298],[97.6285,23.8847],[97.6406,23.8719],[97.6383,23.8632],[97.5997,23.8206],[97.5719,23.8155],[97.5465,23.8228],[97.5197,23.8113],[97.5098,23.8183],[97.4755,23.8186],[97.4532,23.7986],[97.4667,23.7809],[97.4635,23.7741],[97.4086,23.739],[97.3727,23.7454],[97.3457,23.7235],[97.3443,23.6945],[97.318,23.7198],[97.3036,23.6985],[97.2686,23.7125],[97.2672,23.7015],[97.2515,23.7017],[97.2329,23.6805],[97.2295,23.693],[97.219,23.6991],[97.2046,23.6827],[97.189,23.6875],[97.1786,23.6704],[97.1521,23.676],[97.14,23.6852],[97.1359,23.6796],[97.1455,23.6731],[97.141,23.6658],[97.1206,23.665],[97.1028,23.6419],[97.0842,23.6332],[97.0712,23.6403],[97.0147,23.644],[97.0051,23.6631],[97.0029,23.702],[96.9746,23.7162],[96.9104,23.7126],[96.8984,23.72],[96.8756,23.7146],[96.8563,23.7323],[96.7843,23.743],[96.7779,23.7497],[96.7817,23.7604],[96.7758,23.7654],[96.791,23.783],[96.8219,23.7769],[96.853,23.7853],[96.8828,23.8307],[96.8861,23.8472],[96.8768,23.875],[96.8687,23.8847],[96.8427,23.8893],[96.8392,23.895],[96.8452,23.9441],[96.8396,23.9559],[96.832,23.9562],[96.8592,24.0039],[96.8507,24.0207],[96.8394,24.0259],[96.7887,24.0146],[96.7553,23.994],[96.6789,23.9999],[96.6773,24.0061],[96.7031,24.0292],[96.6988,24.0673],[96.6767,24.0741],[96.6795,24.094],[96.6948,24.1059],[96.6904,24.1222],[96.6662,24.139],[96.6679,24.1531],[96.6587,24.1701],[96.6338,24.1906],[96.6155,24.1936],[96.6067,24.2124],[96.5763,24.225],[96.5786,24.2358],[96.5674,24.2422],[96.5961,24.2708],[96.6033,24.318],[96.5773,24.3128],[96.5623,24.3469],[96.5772,24.3625],[96.5969,24.3687],[96.5822,24.3957],[96.6057,24.3923],[96.6087,24.4072],[96.6119,24.402],[96.6363,24.4008],[96.6332,24.4141],[96.643,24.4193],[96.6397,24.4271],[96.6454,24.4298],[96.6433,24.4362],[96.6322,24.4307],[96.6361,24.4421],[96.63,24.4577],[96.6087,24.4666],[96.5923,24.4823],[96.5758,24.4684],[96.5731,24.4738],[96.5561,24.4719],[96.5522,24.4853],[96.5346,24.4971],[96.4986,24.4856],[96.4855,24.4951],[96.4799,24.5134],[96.4486,24.5202],[96.4454,24.5326],[96.4346,24.5375],[96.4401,24.5473],[96.4324,24.5411],[96.4238,24.5512],[96.4072,24.5277],[96.3774,24.5241],[96.3742,24.5152],[96.3362,24.5208],[96.325,24.5078],[96.3066,24.5061],[96.2745,24.522],[96.2269,24.5067],[96.2213,24.4931],[96.1999,24.4798],[96.1849,24.4798],[96.1934,24.5179],[96.2007,24.5209],[96.1968,24.5299],[96.204,24.5502],[96.1902,24.5486],[96.1973,24.5387],[96.1778,24.5291],[96.1152,24.5698],[96.091,24.607],[96.1043,24.6132],[96.1075,24.6262],[96.0878,24.6521],[96.0694,24.6525],[96.0848,24.6708],[96.0771,24.679],[96.0685,24.679],[96.0576,24.6906],[96.0599,24.6798],[96.0458,24.6792],[96.0373,24.6855],[96.0296,24.6811],[96.0269,24.6632],[96.002,24.6717],[95.9924,24.6675],[95.9903,24.6731],[95.9792,24.6665],[95.9772,24.6775],[95.9584,24.6889],[95.9568,24.7176],[95.9465,24.7091],[95.912,24.7056],[95.9016,24.7275],[95.9105,24.7488],[95.8922,24.7697],[95.8826,24.7997],[95.8846,24.816],[95.8693,24.826],[95.8802,24.8827],[95.8641,24.8957],[95.8655,24.9156],[95.8466,24.9199],[95.8249,24.9351],[95.8185,24.9426],[95.824,24.9458],[95.8201,24.9533],[95.8062,24.96],[95.814,24.9673],[95.876,24.9645],[95.895,24.9759],[95.8969,24.9815],[95.8907,24.9854],[95.9038,24.9945],[95.9613,24.996],[95.9673,25.0043],[95.9716,24.9989],[95.9931,25.0052],[96.0063,25.0207],[95.9951,25.031],[96.0037,25.047],[96.0026,25.0722],[96.0126,25.092],[96.0197,25.0813],[96.0251,25.0861],[96.0244,25.0805],[96.0395,25.073],[96.0472,25.0568],[96.0399,25.0448],[96.0407,25.0169],[96.0376,25.0226],[96.0269,25.015],[96.0227,25.0184],[96.0128,25.0051],[96.0079,24.9539],[96.0212,24.9486],[96.0434,24.9528],[96.059,24.9902],[96.0705,24.9982],[96.0667,25.0077],[96.0793,25.0509],[96.076,25.0876],[96.0535,25.0911],[96.0597,25.1187],[96.0481,25.1159],[96.0554,25.1335],[96.0466,25.135],[96.0451,25.1564],[96.0237,25.1701],[96.0172,25.1903],[95.9951,25.2159],[95.9901,25.2524],[95.9939,25.2736],[95.9849,25.2881],[95.9745,25.2905],[95.9722,25.3157],[95.9604,25.3353],[95.9647,25.5011],[95.9579,25.6118],[95.9706,25.6302],[95.9762,25.6299],[96.0502,25.5851],[96.0494,25.5785],[96.0611,25.5699],[96.0913,25.6207],[96.0998,25.6256],[96.1166,25.6148],[96.1385,25.6264],[96.1541,25.6261],[96.1649,25.6387],[96.1732,25.6351],[96.1818,25.6398],[96.2035,25.6651],[96.2163,25.6686],[96.2,25.6748],[96.1949,25.6864],[96.2074,25.6909],[96.2137,25.7066],[96.208,25.7173],[96.2157,25.7254],[96.2012,25.7391],[96.197,25.7521],[96.1768,25.7566],[96.1699,25.7521],[96.1488,25.7596],[96.1414,25.778],[96.12,25.7875],[96.1161,25.8039],[96.1271,25.8229],[96.1247,25.8435],[96.114,25.8577],[96.1093,25.8818],[96.0852,25.8976],[96.1122,25.919],[96.1212,25.9592],[96.1152,25.9764],[96.1229,26.0035],[96.1372,26.0088],[96.1592,26.006],[96.169,26.0207],[96.1783,26.0195],[96.1806,26.0279],[96.1726,26.0311],[96.1845,26.0591],[96.1679,26.0677],[96.1628,26.0757],[96.1699,26.0796],[96.1521,26.0951],[96.1604,26.0966],[96.1592,26.1043],[96.1527,26.1052],[96.1595,26.118],[96.1503,26.1266],[96.1622,26.1433],[96.1561,26.155],[96.1191,26.1718],[96.1259,26.1784],[96.1218,26.1864],[96.1363,26.1914],[96.1348,26.2075],[96.125,26.2149],[96.1226,26.2291],[96.106,26.2215],[96.1105,26.2304],[96.0923,26.2334],[96.1051,26.2393],[96.0942,26.2426],[96.0927,26.2373],[96.0843,26.2518],[96.0825,26.2381],[96.0751,26.2399],[96.0798,26.2575],[96.0739,26.2652],[96.0873,26.2753],[96.0975,26.2728],[96.092,26.2813],[96.1012,26.2813],[96.0881,26.2872],[96.1051,26.3155],[96.1006,26.3229],[96.1091,26.3283],[96.0931,26.3342],[96.0881,26.3292],[96.0804,26.3375],[96.0867,26.3476],[96.0713,26.3549],[96.0579,26.3571],[96.054,26.3513],[96.0462,26.3565],[96.0417,26.3518],[96.0301,26.3833],[96.001,26.3919],[95.9939,26.402],[96.001,26.4095],[96.0022,26.4249],[96.0203,26.4348],[96.004,26.4615],[96.0078,26.4853],[96.0426,26.4939],[96.0871,26.4909],[96.1113,26.4975],[96.1417,26.4925],[96.1763,26.505],[96.1832,26.5245],[96.1769,26.537],[96.161,26.5481],[96.1644,26.5613],[96.1547,26.5821],[96.1374,26.5946],[96.1283,26.6162],[96.1304,26.6356],[96.0826,26.652],[96.097,26.6716],[96.0915,26.6731],[96.0915,26.6842],[96.0745,26.6853],[96.1009,26.7056],[96.1034,26.7256],[96.16,26.7494],[96.1913,26.7533],[96.2096,26.7908],[96.2248,26.7893],[96.2483,26.8014],[96.2502,26.8279],[96.2315,26.8697],[96.2451,26.8889],[96.2698,26.874],[96.2826,26.8764],[96.2838,26.8994],[96.278,26.9096],[96.2928,26.926],[96.3144,26.9303],[96.317,26.9397],[96.3007,26.9579],[96.2839,26.951],[96.2549,26.951],[96.2508,26.9574],[96.242,26.9545],[96.2283,26.9693],[96.251,26.9826],[96.3037,26.9885],[96.3303,27.0194],[96.3509,27.0193],[96.3803,27.0057],[96.4054,27.0067],[96.408,26.9965],[96.4246,26.9841],[96.4493,26.9831],[96.4614,27.0043],[96.4841,26.9852],[96.4972,26.9963],[96.5166,26.9921],[96.5257,26.9963],[96.5696,26.9824],[96.5859,26.9982],[96.6467,27.0079],[96.6966,26.9929],[96.7193,27.0015],[96.741,27.0392],[96.7664,27.0393],[96.7881,27.0309],[96.8498,27.0472],[96.8929,27.0464],[96.9085,27.0354],[96.9423,27.0448],[96.9546,27.0329],[96.9859,27.0237],[97.0048,27.039],[97.0358,27.0362],[97.0367,27.0484],[97.0502,27.056],[97.0666,27.0927]]]}},{"type":"Feature","properties":{"ST":"Magway","ST_PCODE":"MMR009"},"geometry":{"type":"Polygon","coordinates":[[[93.8634,20.65],[93.8861,20.6418],[93.9128,20.6508],[93.9234,20.6399],[93.9335,20.6471],[93.932,20.6556],[93.9435,20.6614],[93.9598,20.6575],[93.9547,20.6642],[93.9796,20.6687],[93.9897,20.6822],[94.0085,20.6834],[94.0108,20.6897],[94.0203,20.684],[94.0354,20.6914],[94.0455,20.6884],[94.0854,20.7551],[94.0416,20.8078],[94.0393,20.8276],[94.0649,20.8566],[94.0472,20.8717],[94.0438,20.8847],[94.0313,20.8872],[94.0159,20.9215],[94.0141,20.9442],[94.0036,20.9601],[94.0443,21.0142],[94.0774,21.0346],[94.054,21.0582],[94.053,21.0673],[94.0852,21.0729],[94.0951,21.0827],[94.101,21.1006],[94.1123,21.1118],[94.12,21.1679],[94.1107,21.1726],[94.1072,21.2014],[94.0944,21.213],[94.1046,21.273],[94.055,21.2849],[94.0245,21.2812],[94.006,21.2996],[94.0478,21.334],[94.0577,21.331],[94.0462,21.3553],[94.0881,21.4613],[94.0769,21.4812],[94.0989,21.5282],[94.0926,21.5475],[94.1194,21.5791],[94.1037,21.6038],[94.1033,21.6353],[94.0422,21.6715],[94.0062,21.7204],[93.9812,21.9244],[94.0175,21.9958],[94.0065,22.0809],[94.0418,22.1556],[94.038,22.2543],[94.0184,22.3665],[94.0579,22.4368],[94.0177,22.4397],[94.0293,22.4486],[94.0478,22.4513],[94.0169,22.5675],[94.0166,22.5954],[94.0489,22.6057],[94.0079,22.7371],[94.0574,22.7309],[94.0752,22.7364],[94.0804,22.7492],[94.1093,22.7595],[94.1016,22.7706],[94.1152,22.7711],[94.1197,22.7349],[94.1045,22.7376],[94.0974,22.7322],[94.1157,22.7262],[94.1165,22.6985],[94.1315,22.6871],[94.1438,22.6959],[94.1728,22.6889],[94.1944,22.6617],[94.1939,22.6492],[94.214,22.6071],[94.2446,22.5655],[94.2587,22.5198],[94.2545,22.5079],[94.2759,22.489],[94.281,22.4403],[94.2757,22.4368],[94.2728,22.4089],[94.2609,22.3971],[94.2707,22.3665],[94.2609,22.3535],[94.2676,22.3149],[94.2583,22.3149],[94.2449,22.296],[94.2524,22.2861],[94.256,22.2531],[94.2665,22.2424],[94.262,22.2221],[94.2707,22.1904],[94.2928,22.1594],[94.2975,22.1366],[94.3111,22.1342],[94.3253,22.1442],[94.3605,22.117],[94.3703,22.1244],[94.3763,22.1183],[94.3896,22.1198],[94.4167,22.1366],[94.425,22.1082],[94.4218,22.0779],[94.4352,22.0597],[94.4354,22.0346],[94.4191,22.0263],[94.4085,22.0009],[94.4096,21.9878],[94.4252,21.9631],[94.42,21.9433],[94.4242,21.9321],[94.4096,21.8717],[94.4152,21.8628],[94.408,21.8419],[94.4142,21.8317],[94.4525,21.8231],[94.5052,21.7841],[94.5438,21.7918],[94.5405,21.8377],[94.5489,21.8454],[94.5636,21.8345],[94.5881,21.8379],[94.5956,21.833],[94.6006,21.8441],[94.6112,21.8476],[94.6111,21.8593],[94.6343,21.8605],[94.6607,21.8725],[94.7035,21.8536],[94.7117,21.8564],[94.7239,21.8448],[94.7375,21.8445],[94.7544,21.8275],[94.7703,21.8313],[94.7705,21.8417],[94.7778,21.8392],[94.7882,21.8477],[94.836,21.8545],[94.8577,21.8642],[94.8678,21.8639],[94.9054,21.8389],[94.976,21.8324],[94.9906,21.8249],[95.0152,21.8323],[95.0283,21.8293],[95.0335,21.8411],[95.0457,21.8299],[95.0484,21.8368],[95.0628,21.8358],[95.0817,21.8523],[95.1204,21.8558],[95.1339,21.8443],[95.1636,21.8345],[95.1607,21.8113],[95.201,21.766],[95.1996,21.7529],[95.2064,21.7395],[95.2435,21.7146],[95.243,21.6745],[95.2981,21.6536],[95.3069,21.6473],[95.3044,21.636],[95.3216,21.6275],[95.3301,21.5861],[95.342,21.5759],[95.3398,21.5525],[95.3199,21.5041],[95.3307,21.4763],[95.319,21.4543],[95.2733,21.4526],[95.2751,21.4218],[95.2376,21.396],[95.1845,21.345],[95.1705,21.3178],[95.1248,21.3257],[95.0193,21.2759],[94.9929,21.2358],[94.8538,21.1979],[94.8386,21.1526],[94.8396,21.1221],[94.8309,21.1037],[94.8381,21.021],[94.8316,21.0018],[94.8313,20.9405],[94.8408,20.9322],[94.85,20.9084],[94.875,20.905],[94.8807,20.8745],[94.9017,20.8771],[94.9421,20.8584],[94.9779,20.868],[95.0224,20.8647],[95.0232,20.8572],[95.0383,20.8466],[95.0407,20.7505],[95.0138,20.7434],[95.0101,20.7371],[95.0138,20.7205],[95.009,20.6957],[95.0176,20.6625],[95.0004,20.6662],[94.9918,20.6473],[95.0006,20.6184],[95.0317,20.6066],[95.0442,20.5911],[95.0221,20.5513],[95.0291,20.5427],[95.0797,20.5929],[95.08,20.6143],[95.1247,20.6182],[95.1587,20.6425],[95.1759,20.6459],[95.2193,20.6365],[95.2334,20.6573],[95.247,20.6601],[95.2758,20.6855],[95.2828,20.6945],[95.283,20.709],[95.3064,20.7144],[95.3181,20.6997],[95.3332,20.704],[95.3355,20.6933],[95.3502,20.6838],[95.3545,20.6925],[95.3695,20.6933],[95.3645,20.7048],[95.381,20.7069],[95.3971,20.6983],[95.4195,20.7204],[95.4284,20.7192],[95.4364,20.7289],[95.4316,20.737],[95.4413,20.7359],[95.4439,20.744],[95.44,20.7704],[95.4828,20.7538],[95.5228,20.7553],[95.5446,20.772],[95.5521,20.7455],[95.5707,20.7464],[95.5828,20.738],[95.5832,20.7244],[95.5985,20.6985],[95.5911,20.6887],[95.5861,20.6291],[95.5702,20.6253],[95.576,20.5866],[95.613,20.5613],[95.6348,20.5686],[95.6635,20.5571],[95.7121,20.5137],[95.7119,20.4951],[95.7302,20.4668],[95.721,20.4419],[95.7364,20.4231],[95.7555,20.3788],[95.7548,20.3633],[95.7412,20.3511],[95.7238,20.3488],[95.7431,20.2977],[95.7416,20.2764],[95.757,20.2745],[95.7704,20.2647],[95.7699,20.2296],[95.7793,20.2268],[95.7901,20.2044],[95.79,20.1764],[95.7976,20.1644],[95.8342,20.144],[95.8328,20.1287],[95.8013,20.0931],[95.8035,20.062],[95.7896,20.0621],[95.7769,20.0489],[95.7939,20.0237],[95.7834,20.0115],[95.7876,20.0047],[95.7667,19.9825],[95.7883,19.9651],[95.7882,19.9531],[95.7954,19.948],[95.7876,19.9086],[95.7993,19.901],[95.8105,19.8783],[95.8053,19.8582],[95.8219,19.8381],[95.8175,19.8166],[95.8066,19.8133],[95.7975,19.8191],[95.7844,19.7919],[95.7871,19.7779],[95.7737,19.7718],[95.7723,19.7593],[95.7636,19.7584],[95.765,19.7432],[95.7723,19.7422],[95.7806,19.723],[95.7698,19.7055],[95.7666,19.6794],[95.7517,19.6803],[95.7466,19.6598],[95.7316,19.6454],[95.7182,19.6448],[95.7127,19.6283],[95.7286,19.6155],[95.7348,19.5984],[95.727,19.5946],[95.7253,19.588],[95.7348,19.5786],[95.727,19.5751],[95.723,19.5615],[95.7428,19.5364],[95.7301,19.522],[95.7461,19.4908],[95.7568,19.4896],[95.7709,19.4725],[95.7949,19.4596],[95.814,19.4332],[95.8132,19.4104],[95.8216,19.3965],[95.8145,19.3848],[95.8564,19.3194],[95.8592,19.291],[95.8492,19.2834],[95.8577,19.2592],[95.8454,19.2444],[95.8555,19.2274],[95.8362,19.2222],[95.825,19.2023],[95.8264,19.1585],[95.8066,19.1543],[95.8006,19.167],[95.7831,19.1757],[95.7668,19.1695],[95.7288,19.1897],[95.7046,19.1914],[95.6828,19.1787],[95.68,19.1683],[95.6695,19.1651],[95.652,19.1706],[95.6282,19.1549],[95.6163,19.154],[95.5894,19.1718],[95.5819,19.169],[95.5746,19.1745],[95.5513,19.165],[95.5411,19.178],[95.5078,19.1855],[95.4888,19.1881],[95.4888,19.18],[95.4737,19.1668],[95.4541,19.1834],[95.4284,19.1801],[95.421,19.1667],[95.4109,19.1639],[95.4102,19.148],[95.3829,19.1219],[95.3788,19.1023],[95.3567,19.0886],[95.3449,19.0969],[95.3164,19.0991],[95.2727,19.0682],[95.2704,19.0513],[95.2855,19.0208],[95.2819,18.9967],[95.2558,18.9983],[95.2226,18.9829],[95.2138,18.9642],[95.177,18.9625],[95.1641,18.956],[95.1514,18.9317],[95.1448,18.9307],[95.1503,18.9088],[95.1427,18.9081],[95.1626,18.8839],[95.1508,18.8829],[95.1373,18.8661],[95.1182,18.8732],[95.1036,18.8609],[95.0816,18.8641],[95.074,18.844],[95.0573,18.832],[95.0253,18.8668],[95.0189,18.8959],[94.9891,18.9236],[94.9582,18.9393],[94.9261,18.9356],[94.9269,18.929],[94.924,18.9375],[94.9017,18.9396],[94.8963,18.956],[94.8744,18.9592],[94.8701,18.9673],[94.8335,18.9809],[94.8306,18.976],[94.8168,18.9777],[94.8126,18.9709],[94.7699,18.9696],[94.7631,18.9804],[94.7437,18.9775],[94.7325,18.9602],[94.718,18.9682],[94.7075,18.9684],[94.6972,18.9598],[94.6897,18.9639],[94.6916,18.972],[94.6676,19.0102],[94.6816,19.0153],[94.6875,19.0365],[94.6703,19.0522],[94.6547,19.0845],[94.6318,19.0969],[94.6211,19.1162],[94.6002,19.1279],[94.5928,19.1483],[94.5836,19.1551],[94.5693,19.1577],[94.5685,19.1478],[94.5581,19.1431],[94.5476,19.1489],[94.5362,19.1461],[94.5244,19.1766],[94.5048,19.186],[94.4789,19.2655],[94.487,19.2805],[94.5072,19.2812],[94.5156,19.2912],[94.526,19.2873],[94.5325,19.2916],[94.5272,19.3406],[94.5138,19.3494],[94.4993,19.3921],[94.4836,19.4056],[94.4704,19.4073],[94.4636,19.4284],[94.4467,19.4362],[94.4313,19.4781],[94.4177,19.4913],[94.3949,19.4989],[94.3733,19.5215],[94.3738,19.5366],[94.3637,19.5383],[94.344,19.5632],[94.3517,19.5842],[94.3457,19.5984],[94.3504,19.6182],[94.3377,19.6294],[94.3335,19.6521],[94.3393,19.6685],[94.3194,19.7096],[94.3216,19.722],[94.281,19.8229],[94.2898,19.8372],[94.3139,19.8487],[94.3038,19.8677],[94.3073,19.8801],[94.2971,19.9239],[94.2691,19.9312],[94.2472,19.9779],[94.2381,19.9781],[94.227,20.0271],[94.205,20.062],[94.213,20.0761],[94.2124,20.1057],[94.1718,20.1259],[94.1653,20.1643],[94.17,20.1696],[94.1366,20.2009],[94.1405,20.2074],[94.1293,20.2198],[94.1349,20.2437],[94.1245,20.2661],[94.1281,20.2788],[94.1048,20.2936],[94.1048,20.3018],[94.0812,20.3361],[94.0791,20.3734],[94.0559,20.3672],[94.0436,20.3723],[94.0476,20.3827],[94.0391,20.3999],[94.0206,20.4086],[94.0087,20.4283],[94.0091,20.4455],[94.0005,20.4486],[93.9985,20.4683],[93.9851,20.4848],[93.9882,20.498],[93.9695,20.5248],[93.9417,20.5303],[93.9398,20.5573],[93.9219,20.5665],[93.8915,20.5521],[93.8473,20.5563],[93.8603,20.5809],[93.8552,20.5883],[93.861,20.5953],[93.8455,20.6157],[93.8476,20.6318],[93.8521,20.6444],[93.8634,20.65]]]}},{"type":"Feature","properties":{"ST":"Mandalay","ST_PCODE":"MMR010"},"geometry":{"type":"Polygon","coordinates":[[[95.737,20.3108],[95.7238,20.3488],[95.7412,20.3511],[95.7563,20.3694],[95.7527,20.3899],[95.721,20.4419],[95.7281,20.4759],[95.7119,20.4951],[95.7121,20.5137],[95.6752,20.5489],[95.6348,20.5686],[95.613,20.5613],[95.576,20.5866],[95.5702,20.6253],[95.5861,20.6291],[95.5911,20.6887],[95.5985,20.6985],[95.5832,20.7244],[95.5828,20.738],[95.5707,20.7464],[95.5521,20.7455],[95.5446,20.772],[95.5228,20.7553],[95.4828,20.7538],[95.44,20.7704],[95.4439,20.744],[95.4413,20.7359],[95.4316,20.737],[95.4364,20.7289],[95.4284,20.7192],[95.4195,20.7204],[95.3971,20.6983],[95.381,20.7069],[95.3645,20.7048],[95.3695,20.6933],[95.3545,20.6925],[95.3502,20.6838],[95.3355,20.6933],[95.3332,20.704],[95.3181,20.6997],[95.3064,20.7144],[95.283,20.709],[95.2828,20.6945],[95.2758,20.6855],[95.247,20.6601],[95.2334,20.6573],[95.2193,20.6365],[95.1759,20.6459],[95.1587,20.6425],[95.1247,20.6182],[95.08,20.6143],[95.0797,20.5929],[95.064,20.582],[95.0382,20.5467],[95.0256,20.5448],[95.0221,20.5513],[95.0291,20.5589],[95.0299,20.5729],[95.0442,20.5911],[95.0317,20.6066],[95.0006,20.6184],[94.9918,20.6473],[95.0004,20.6662],[95.0176,20.6625],[95.009,20.6957],[95.0138,20.7205],[95.0101,20.7371],[95.0138,20.7434],[95.0407,20.7505],[95.0383,20.8466],[95.0232,20.8572],[95.0224,20.8647],[94.9779,20.868],[94.9421,20.8584],[94.9017,20.8771],[94.8807,20.8745],[94.875,20.905],[94.8461,20.9126],[94.8408,20.9322],[94.8313,20.9405],[94.8316,21.0018],[94.8381,21.021],[94.8309,21.1037],[94.8396,21.1221],[94.8386,21.1526],[94.8563,21.2009],[94.9929,21.2358],[95.0193,21.2759],[95.1248,21.3257],[95.1705,21.3178],[95.1845,21.345],[95.2376,21.396],[95.2751,21.4218],[95.2733,21.4526],[95.319,21.4543],[95.3307,21.4763],[95.3199,21.5041],[95.3398,21.5525],[95.3502,21.6223],[95.3653,21.645],[95.3693,21.7028],[95.3825,21.7222],[95.4106,21.7382],[95.4208,21.756],[95.403,21.7906],[95.4316,21.7996],[95.4358,21.8117],[95.4768,21.858],[95.4736,21.8628],[95.4801,21.8634],[95.5038,21.896],[95.5237,21.9068],[95.5679,21.9119],[95.5878,21.9216],[95.6733,21.9197],[95.7117,21.9298],[95.738,21.9184],[95.7836,21.9217],[95.8276,21.9057],[95.8723,21.9001],[95.8964,21.8841],[95.9125,21.8596],[95.9272,21.8515],[95.9915,21.8696],[96.0,21.8817],[96.0242,21.9694],[96.0137,22.0034],[96.0225,22.046],[96.0113,22.0835],[95.9941,22.1108],[95.9918,22.1405],[95.9977,22.1612],[95.9887,22.1807],[95.9952,22.1951],[95.9885,22.207],[95.9843,22.2774],[95.979,22.2856],[95.9858,22.2981],[96.0098,22.2964],[96.0101,22.3183],[95.9973,22.3284],[95.9641,22.379],[95.9578,22.4155],[95.9685,22.4372],[95.9608,22.4751],[95.9747,22.4927],[95.9767,22.5093],[95.9929,22.5176],[95.9957,22.5277],[95.982,22.5438],[95.9734,22.568],[95.9459,22.6011],[95.9354,22.6414],[95.9176,22.6523],[95.9047,22.6731],[95.9103,22.6899],[95.9001,22.7106],[95.9043,22.7225],[95.9671,22.7453],[95.9666,22.9276],[95.9791,22.9644],[95.9731,23.0127],[95.9808,23.0272],[95.9838,23.0651],[95.9746,23.0838],[95.995,23.1089],[95.9802,23.1593],[95.9592,23.1661],[95.9616,23.1797],[95.9532,23.1978],[95.9519,23.2214],[95.9579,23.2523],[95.951,23.2526],[95.9307,23.2746],[95.9311,23.2873],[95.9501,23.3113],[95.9502,23.3311],[95.9457,23.3376],[95.9301,23.337],[95.9029,23.3771],[95.907,23.4089],[95.9232,23.436],[95.9357,23.4353],[95.9502,23.4557],[95.9668,23.4606],[95.9635,23.5106],[95.9701,23.5329],[96.0099,23.5118],[96.0123,23.5447],[96.041,23.613],[96.0516,23.6188],[96.0619,23.6085],[96.0838,23.6241],[96.0934,23.6435],[96.0808,23.6576],[96.0924,23.6715],[96.1181,23.6838],[96.1365,23.6801],[96.1302,23.6622],[96.1342,23.6524],[96.1213,23.6377],[96.1422,23.6192],[96.1372,23.5905],[96.1445,23.569],[96.1692,23.5936],[96.2024,23.5921],[96.2113,23.6007],[96.2142,23.5893],[96.2281,23.5773],[96.2505,23.5758],[96.2615,23.6063],[96.2737,23.6146],[96.2665,23.6258],[96.2808,23.6307],[96.2944,23.6274],[96.3029,23.639],[96.3155,23.6421],[96.3248,23.6292],[96.3399,23.6347],[96.3513,23.6186],[96.3641,23.6163],[96.3722,23.6019],[96.3726,23.5837],[96.3926,23.5696],[96.3872,23.5618],[96.3575,23.5489],[96.3446,23.5331],[96.3389,23.5132],[96.31,23.4982],[96.3172,23.4766],[96.2959,23.4687],[96.2924,23.4573],[96.298,23.4463],[96.2936,23.4383],[96.3036,23.4282],[96.2467,23.4024],[96.2276,23.3681],[96.2337,23.3397],[96.2211,23.3397],[96.2148,23.3318],[96.1903,23.3566],[96.1831,23.3477],[96.1702,23.3457],[96.1674,23.3175],[96.1783,23.322],[96.1984,23.2984],[96.1828,23.2729],[96.1877,23.2258],[96.1804,23.2166],[96.1765,23.1898],[96.1702,23.1888],[96.171,23.1757],[96.1638,23.1632],[96.1521,23.1598],[96.1562,23.1405],[96.1522,23.1277],[96.1706,23.1055],[96.1941,23.0907],[96.2045,23.0679],[96.1937,23.0466],[96.1966,23.0386],[96.2125,23.0249],[96.2471,23.011],[96.2898,23.0035],[96.3116,23.0122],[96.3353,23.0042],[96.3904,23.0137],[96.4123,23.0244],[96.4367,23.0229],[96.4547,23.0335],[96.4704,23.0226],[96.4878,23.0433],[96.5152,23.0532],[96.5441,23.0203],[96.5689,23.0153],[96.5881,22.9968],[96.6135,22.993],[96.6239,22.9796],[96.6799,22.9855],[96.6925,22.9693],[96.7039,22.9698],[96.7135,22.9604],[96.7164,22.9443],[96.7157,22.9367],[96.7038,22.9325],[96.6723,22.8921],[96.6636,22.8687],[96.6651,22.8496],[96.6452,22.8353],[96.6403,22.8241],[96.6321,22.8219],[96.6327,22.829],[96.6251,22.8288],[96.6088,22.8156],[96.5397,22.8303],[96.5141,22.806],[96.4942,22.806],[96.486,22.7947],[96.4613,22.7904],[96.4576,22.7848],[96.4298,22.7882],[96.4175,22.8008],[96.395,22.8065],[96.3924,22.7919],[96.3818,22.8015],[96.3557,22.7781],[96.3066,22.7803],[96.302,22.7855],[96.2867,22.7801],[96.2728,22.7932],[96.2623,22.7798],[96.2444,22.7735],[96.2403,22.7636],[96.2223,22.7636],[96.2239,22.7591],[96.2044,22.7458],[96.2042,22.7375],[96.2238,22.7113],[96.2182,22.6928],[96.2417,22.7004],[96.2344,22.6932],[96.2332,22.6753],[96.2399,22.6393],[96.2588,22.6215],[96.2569,22.6129],[96.2675,22.6038],[96.2721,22.6062],[96.2793,22.5854],[96.2977,22.5731],[96.3025,22.5438],[96.2923,22.544],[96.2896,22.5288],[96.301,22.5168],[96.3142,22.5147],[96.3149,22.521],[96.3224,22.5204],[96.3187,22.5138],[96.3314,22.504],[96.3337,22.4672],[96.3201,22.4537],[96.3245,22.3753],[96.3376,22.3666],[96.3881,22.3714],[96.4093,22.364],[96.4219,22.3322],[96.4476,22.311],[96.4726,22.2563],[96.4735,22.2389],[96.4815,22.2288],[96.4801,22.1601],[96.4947,22.1428],[96.5119,22.143],[96.519,22.149],[96.5313,22.1379],[96.548,22.1396],[96.5579,22.1299],[96.5584,22.1103],[96.6385,22.1113],[96.6558,22.0895],[96.7161,22.0901],[96.7539,22.0709],[96.7505,22.0608],[96.7566,22.0465],[96.7505,22.0432],[96.7588,22.0218],[96.7547,22.007],[96.7814,21.9821],[96.8165,21.9319],[96.8119,21.9181],[96.857,21.8692],[96.8592,21.8597],[96.8483,21.8561],[96.8437,21.8463],[96.8589,21.8294],[96.8757,21.823],[96.8787,21.7932],[96.8917,21.7785],[96.896,21.7428],[96.8915,21.7343],[96.8492,21.7414],[96.807,21.7743],[96.8067,21.7448],[96.7893,21.7411],[96.7664,21.7158],[96.7496,21.7172],[96.7379,21.7046],[96.7223,21.7242],[96.704,21.7257],[96.6977,21.7137],[96.6831,21.7115],[96.6536,21.6729],[96.6309,21.6587],[96.6331,21.6409],[96.612,21.6225],[96.5934,21.6162],[96.5809,21.5953],[96.5602,21.5886],[96.5446,21.5989],[96.5297,21.5855],[96.4711,21.5666],[96.4657,21.5563],[96.4354,21.5613],[96.3776,21.5446],[96.3408,21.5508],[96.3329,21.5467],[96.3307,21.5384],[96.3206,21.5355],[96.3412,21.4876],[96.3203,21.4802],[96.3298,21.472],[96.3172,21.4713],[96.3178,21.4625],[96.3023,21.4688],[96.2871,21.4633],[96.2961,21.4366],[96.2918,21.4332],[96.2996,21.3924],[96.2963,21.3817],[96.3057,21.371],[96.2906,21.3571],[96.2952,21.3514],[96.3092,21.3562],[96.3132,21.351],[96.3238,21.309],[96.3206,21.2905],[96.3351,21.2645],[96.3364,21.2407],[96.3654,21.2154],[96.3586,21.2084],[96.371,21.1983],[96.3692,21.1881],[96.3774,21.1757],[96.3628,21.1596],[96.2936,21.1734],[96.2824,21.167],[96.2661,21.1679],[96.2324,21.151],[96.2177,21.1289],[96.232,21.0951],[96.2189,21.0784],[96.2036,21.071],[96.2151,21.0568],[96.2067,21.0438],[96.2142,21.0329],[96.2183,21.0052],[96.244,21.0018],[96.2458,20.9803],[96.2565,20.9794],[96.2675,20.9688],[96.2979,20.9676],[96.3429,20.9433],[96.3724,20.9452],[96.3891,20.9295],[96.4277,20.943],[96.4338,20.9181],[96.4679,20.9027],[96.4958,20.9212],[96.5075,20.9214],[96.523,20.8868],[96.5372,20.8859],[96.5497,20.8933],[96.5735,20.8714],[96.575,20.8395],[96.5594,20.8257],[96.5648,20.8205],[96.5639,20.7826],[96.5244,20.7752],[96.5118,20.7844],[96.4786,20.7693],[96.4831,20.7537],[96.4637,20.7438],[96.455,20.7307],[96.4643,20.7211],[96.4607,20.7034],[96.4393,20.6925],[96.4525,20.6538],[96.4664,20.6422],[96.4723,20.6239],[96.4843,20.6087],[96.5133,20.6019],[96.517,20.5793],[96.5271,20.5783],[96.5407,20.5973],[96.5528,20.5975],[96.5435,20.5658],[96.5436,20.5125],[96.5333,20.5066],[96.5097,20.5124],[96.4924,20.5083],[96.4886,20.4997],[96.4951,20.4795],[96.4735,20.4706],[96.4645,20.4509],[96.4712,20.4323],[96.4613,20.4267],[96.4746,20.3696],[96.4935,20.3543],[96.4943,20.3377],[96.5003,20.338],[96.4947,20.3195],[96.516,20.2854],[96.527,20.2779],[96.5216,20.2686],[96.532,20.2583],[96.5468,20.2219],[96.5335,20.2078],[96.5243,20.2105],[96.5048,20.1931],[96.4985,20.2069],[96.488,20.2029],[96.4887,20.2099],[96.4732,20.2139],[96.4777,20.2195],[96.4601,20.2224],[96.4423,20.2446],[96.4161,20.2594],[96.4075,20.2779],[96.3875,20.2838],[96.3622,20.3064],[96.3071,20.3158],[96.3065,20.3289],[96.2969,20.331],[96.2804,20.3266],[96.2651,20.3086],[96.231,20.3097],[96.2054,20.2985],[96.1935,20.285],[96.1836,20.2517],[96.178,20.2504],[96.1682,20.2663],[96.132,20.281],[96.0916,20.2872],[96.0786,20.2734],[96.0729,20.2902],[96.0524,20.2803],[96.0464,20.2894],[96.0059,20.2862],[96.0002,20.3015],[95.9832,20.2982],[95.9829,20.2903],[95.9551,20.2724],[95.9557,20.2607],[95.9472,20.2599],[95.9551,20.2437],[95.9388,20.235],[95.9458,20.2285],[95.9441,20.2129],[95.9182,20.2174],[95.9169,20.2283],[95.8982,20.2214],[95.8832,20.2373],[95.8631,20.2353],[95.8627,20.2502],[95.8356,20.2793],[95.8317,20.2998],[95.8202,20.3005],[95.8192,20.3081],[95.7919,20.2921],[95.7617,20.3067],[95.737,20.3108]]]}},{"type":"Feature","properties":{"ST":"Shan","ST_PCODE":"MMR222"},"geometry":{"type":"Polygon","coordinates":[[[97.6383,23.8632],[97.6478,23.844],[97.6595,23.8698],[97.6668,23.8551],[97.6704,23.8626],[97.6809,23.8631],[97.6849,23.8813],[97.6924,23.881],[97.6898,23.8744],[97.6999,23.8679],[97.7109,23.8666],[97.7158,23.8752],[97.7029,23.8817],[97.7192,23.8836],[97.7297,23.8992],[97.7489,23.9023],[97.7508,23.9105],[97.7645,23.9094],[97.7669,23.9319],[97.7921,23.9457],[97.7941,23.9569],[97.806,23.9539],[97.8122,23.9637],[97.8097,23.9502],[97.8156,23.9467],[97.8269,23.9614],[97.8201,23.9711],[97.8286,23.9714],[97.8367,23.9622],[97.8396,23.9731],[97.8483,23.9718],[97.8617,23.9834],[97.8778,23.9758],[97.8954,23.977],[97.8972,23.9842],[97.8834,23.9965],[97.8968,24.0154],[97.9761,24.0331],[98.0231,24.065],[98.085,24.083],[98.0873,24.0891],[98.1666,24.0991],[98.1667,24.1062],[98.1984,24.1018],[98.2204,24.1162],[98.2751,24.1116],[98.2954,24.1028],[98.3536,24.1043],[98.361,24.0996],[98.3641,24.1121],[98.3741,24.1158],[98.4414,24.1275],[98.4907,24.1249],[98.5456,24.1305],[98.5543,24.1132],[98.5911,24.0931],[98.5946,24.0825],[98.6467,24.1075],[98.6844,24.1033],[98.6996,24.1103],[98.7174,24.1307],[98.7588,24.1275],[98.8187,24.1364],[98.8381,24.1297],[98.8609,24.1383],[98.8781,24.1558],[98.8838,24.1531],[98.8921,24.1203],[98.8992,24.1133],[98.8906,24.0982],[98.872,24.0877],[98.8637,24.0657],[98.8191,24.0453],[98.8063,24.025],[98.7734,24.0266],[98.7646,24.0143],[98.7689,23.9959],[98.7608,23.995],[98.7527,23.9808],[98.7438,23.9816],[98.7355,23.9711],[98.726,23.9697],[98.7007,23.9868],[98.6776,23.9629],[98.6789,23.9546],[98.7006,23.9533],[98.7067,23.9374],[98.6953,23.9324],[98.6826,23.9117],[98.701,23.8698],[98.694,23.8478],[98.7046,23.8433],[98.6952,23.8152],[98.6736,23.809],[98.6997,23.7859],[98.7191,23.7934],[98.7606,23.7807],[98.7904,23.7821],[98.8076,23.7692],[98.8073,23.7581],[98.83,23.7258],[98.8202,23.7153],[98.8202,23.6964],[98.8385,23.6887],[98.8464,23.6404],[98.8909,23.6151],[98.8906,23.6044],[98.8775,23.5887],[98.8413,23.5763],[98.803,23.5392],[98.8234,23.4835],[98.8382,23.4777],[98.875,23.4863],[98.9194,23.4181],[98.911,23.3941],[98.9208,23.3777],[98.9186,23.3528],[98.9023,23.3564],[98.878,23.3305],[98.9065,23.3353],[98.923,23.3295],[98.9451,23.3096],[98.9367,23.2949],[98.926,23.2934],[98.9301,23.2698],[98.9123,23.2533],[98.9066,23.2267],[98.8904,23.2136],[98.8949,23.2082],[98.8861,23.182],[98.9239,23.1876],[99.0027,23.1634],[99.0357,23.1615],[99.0605,23.1719],[99.0496,23.1454],[99.0483,23.1233],[99.0941,23.1031],[99.1064,23.0917],[99.1144,23.0936],[99.1162,23.1043],[99.1288,23.1014],[99.1461,23.1086],[99.1671,23.1067],[99.175,23.0949],[99.2003,23.1132],[99.2171,23.0927],[99.2342,23.0941],[99.243,23.0815],[99.2599,23.0824],[99.2651,23.0839],[99.2609,23.0931],[99.2657,23.1015],[99.2738,23.0994],[99.2909,23.109],[99.3089,23.104],[99.3253,23.1146],[99.3218,23.1215],[99.3284,23.1355],[99.3449,23.1367],[99.361,23.1278],[99.3855,23.1005],[99.4145,23.0959],[99.437,23.0841],[99.5099,23.0836],[99.524,23.0755],[99.5327,23.0518],[99.5259,23.0474],[99.5268,23.0373],[99.518,23.033],[99.5227,23.0253],[99.5177,23.0218],[99.5213,22.9942],[99.5348,22.9751],[99.5338,22.9644],[99.551,22.9597],[99.5657,22.9323],[99.56,22.9076],[99.5337,22.8999],[99.4935,22.9116],[99.4421,22.9417],[99.4357,22.9124],[99.461,22.8457],[99.4442,22.8475],[99.4129,22.8282],[99.4001,22.8276],[99.3901,22.8142],[99.3836,22.7646],[99.3646,22.7658],[99.3555,22.758],[99.3264,22.7529],[99.3143,22.7381],[99.3387,22.7105],[99.3475,22.6731],[99.3591,22.6639],[99.371,22.6036],[99.3829,22.5805],[99.358,22.5346],[99.3596,22.5197],[99.3786,22.5069],[99.3799,22.495],[99.3334,22.4502],[99.3146,22.4418],[99.2993,22.4173],[99.2485,22.3925],[99.2519,22.3826],[99.2765,22.3614],[99.2774,22.35],[99.2585,22.3374],[99.2372,22.3071],[99.2294,22.2688],[99.2335,22.2495],[99.2178,22.2344],[99.2061,22.2341],[99.1942,22.2085],[99.1906,22.2111],[99.1765,22.1928],[99.1768,22.1767],[99.1958,22.1694],[99.1557,22.1627],[99.1682,22.1488],[99.2087,22.1254],[99.274,22.1001],[99.2884,22.1119],[99.3257,22.095],[99.3421,22.0993],[99.3599,22.0947],[99.3641,22.1065],[99.4103,22.099],[99.4147,22.1074],[99.4331,22.1046],[99.4484,22.1131],[99.4739,22.1352],[99.4957,22.1256],[99.4981,22.1156],[99.5218,22.0974],[99.5358,22.1084],[99.5551,22.1083],[99.562,22.1162],[99.5731,22.1009],[99.5924,22.1149],[99.6153,22.096],[99.6517,22.1053],[99.6502,22.0954],[99.6681,22.0774],[99.6955,22.0729],[99.6899,22.0455],[99.7014,22.0405],[99.7167,22.0415],[99.7221,22.0654],[99.7425,22.0725],[99.7582,22.0713],[99.7817,22.0558],[99.8089,22.0531],[99.8354,22.0386],[99.8322,22.0293],[99.8537,22.0242],[99.879,22.0399],[99.8619,22.0592],[99.8786,22.0692],[99.9047,22.0681],[99.9164,22.0575],[99.9366,22.061],[99.9562,22.052],[99.9713,22.0581],[99.9578,22.0398],[99.9612,22.0258],[99.9909,21.989],[99.9965,21.9736],[99.9802,21.9378],[99.9781,21.9174],[99.9597,21.9082],[99.962,21.8794],[99.9442,21.8609],[99.9455,21.815],[99.9573,21.7968],[99.9825,21.7172],[99.9915,21.7039],[100.0175,21.6936],[100.0322,21.6944],[100.0316,21.6761],[100.0505,21.6671],[100.0526,21.679],[100.0711,21.6926],[100.0866,21.6937],[100.0951,21.7066],[100.1025,21.7002],[100.1164,21.7056],[100.1358,21.6989],[100.1682,21.6657],[100.1712,21.6495],[100.1526,21.6504],[100.1355,21.631],[100.1313,21.6161],[100.1067,21.5934],[100.1214,21.5709],[100.1188,21.5508],[100.1259,21.5119],[100.1693,21.4851],[100.1793,21.5169],[100.1994,21.5155],[100.2306,21.4812],[100.2329,21.4701],[100.2476,21.467],[100.2697,21.4738],[100.2815,21.4862],[100.2968,21.4809],[100.3494,21.5315],[100.3787,21.5305],[100.3905,21.5232],[100.4316,21.5416],[100.4459,21.5143],[100.4595,21.509],[100.4628,21.4974],[100.458,21.4874],[100.4821,21.4581],[100.5154,21.4729],[100.5361,21.4729],[100.5523,21.4581],[100.5645,21.4585],[100.572,21.4512],[100.5863,21.4534],[100.5951,21.4636],[100.6103,21.4638],[100.6391,21.4827],[100.6734,21.4821],[100.6856,21.5043],[100.7,21.5147],[100.7225,21.5127],[100.7545,21.5555],[100.7684,21.5581],[100.772,21.5718],[100.793,21.5712],[100.8105,21.6197],[100.8459,21.638],[100.868,21.6738],[100.8848,21.6879],[100.9127,21.6835],[100.9102,21.69],[100.924,21.6889],[100.9399,21.6999],[100.9675,21.6988],[101.0122,21.7087],[101.0191,21.724],[101.0398,21.7343],[101.0418,21.7416],[101.0882,21.7766],[101.1001,21.7778],[101.1216,21.775],[101.11,21.7514],[101.1186,21.7171],[101.1154,21.6921],[101.1258,21.6901],[101.1349,21.6742],[101.1521,21.6717],[101.1513,21.652],[101.1621,21.6402],[101.1595,21.6273],[101.1695,21.5967],[101.1488,21.5903],[101.1382,21.5732],[101.1564,21.5524],[101.1634,21.5266],[101.1246,21.5005],[101.0913,21.4618],[101.0602,21.4561],[101.0001,21.3875],[100.9756,21.3886],[100.9529,21.3812],[100.919,21.3566],[100.8865,21.3493],[100.8729,21.3243],[100.8474,21.3038],[100.8107,21.2929],[100.7254,21.3137],[100.7167,21.2858],[100.718,21.2691],[100.6993,21.2187],[100.6966,21.1738],[100.6841,21.1655],[100.6734,21.1289],[100.645,21.1041],[100.638,21.0635],[100.6146,21.0522],[100.598,21.0301],[100.5732,21.0316],[100.5458,21.0248],[100.5525,21.0072],[100.5506,20.9887],[100.5252,20.9627],[100.5091,20.893],[100.5216,20.8754],[100.5443,20.871],[100.636,20.8993],[100.6464,20.8958],[100.6479,20.8801],[100.6076,20.84],[100.5695,20.8239],[100.4933,20.8155],[100.4216,20.8321],[100.3966,20.8333],[100.3637,20.8249],[100.3547,20.8082],[100.3306,20.7864],[100.3005,20.7817],[100.2545,20.751],[100.2388,20.7232],[100.2227,20.713],[100.2068,20.6916],[100.2042,20.6754],[100.1762,20.6383],[100.136,20.4929],[100.1274,20.4841],[100.1299,20.4673],[100.1171,20.4311],[100.1247,20.416],[100.122,20.4031],[100.0901,20.3708],[100.0846,20.3566],[100.0789,20.3618],[100.0854,20.3692],[100.0762,20.3748],[100.0781,20.3803],[100.0662,20.3754],[100.0716,20.3893],[100.0639,20.3854],[100.0575,20.3968],[100.0537,20.3879],[100.0114,20.4169],[100.0037,20.4124],[99.99,20.4181],[99.9948,20.4224],[99.987,20.4226],[99.9927,20.4268],[99.9843,20.4303],[99.9897,20.4353],[99.9738,20.4445],[99.9803,20.4507],[99.9665,20.4547],[99.97,20.4595],[99.9654,20.4574],[99.9604,20.4649],[99.9327,20.4567],[99.9213,20.4458],[99.9082,20.4499],[99.8932,20.4432],[99.8704,20.4434],[99.8407,20.4014],[99.8393,20.3737],[99.8109,20.3364],[99.7777,20.3349],[99.731,20.3507],[99.7193,20.344],[99.7112,20.3258],[99.6995,20.3275],[99.6811,20.3175],[99.6608,20.3269],[99.6442,20.3445],[99.6284,20.3354],[99.6145,20.3376],[99.6135,20.3321],[99.5575,20.3584],[99.5183,20.3616],[99.5004,20.3824],[99.4734,20.3945],[99.4573,20.3926],[99.4566,20.363],[99.4972,20.3399],[99.5098,20.3173],[99.5054,20.2931],[99.5178,20.267],[99.523,20.2333],[99.5343,20.2318],[99.5443,20.2175],[99.5554,20.2174],[99.5657,20.2064],[99.5528,20.1781],[99.5411,20.1719],[99.5392,20.1595],[99.5128,20.1522],[99.4975,20.1324],[99.4987,20.1173],[99.4832,20.1099],[99.4444,20.0991],[99.4349,20.0911],[99.4179,20.0933],[99.4002,20.0863],[99.3773,20.0899],[99.3296,20.0638],[99.2648,20.1039],[99.2601,20.1136],[99.2428,20.1147],[99.2311,20.126],[99.2223,20.1164],[99.2126,20.1313],[99.1899,20.1266],[99.1559,20.1304],[99.1266,20.1188],[99.1314,20.104],[99.1073,20.0974],[99.0962,20.1062],[99.0897,20.0973],[99.0785,20.1012],[99.0679,20.0878],[99.0681,20.0688],[99.0586,20.0641],[99.0438,20.0362],[99.0449,20.0148],[99.055,20.003],[99.0402,19.9939],[99.032,19.9758],[99.0442,19.9485],[99.0398,19.9297],[99.0245,19.9244],[99.0279,19.9088],[99.0228,19.9065],[99.0239,19.8988],[99.0331,19.8954],[99.0361,19.8646],[99.0314,19.8352],[99.0087,19.7885],[98.932,19.7642],[98.9164,19.7415],[98.8847,19.7807],[98.8575,19.7954],[98.8391,19.8145],[98.8327,19.8115],[98.8279,19.7931],[98.7979,19.7762],[98.7834,19.7528],[98.7534,19.7593],[98.7392,19.753],[98.7119,19.7693],[98.7015,19.7571],[98.6646,19.7484],[98.6597,19.7371],[98.6523,19.7405],[98.6252,19.7292],[98.6272,19.718],[98.6122,19.7084],[98.5911,19.7131],[98.572,19.7029],[98.5677,19.6715],[98.5086,19.7158],[98.505,19.7083],[98.4714,19.6931],[98.4397,19.6862],[98.4077,19.6931],[98.392,19.705],[98.3702,19.6893],[98.337,19.6993],[98.3333,19.692],[98.3252,19.6976],[98.2943,19.6811],[98.2721,19.6823],[98.252,19.6754],[98.2329,19.6961],[98.2385,19.7105],[98.2315,19.7262],[98.2203,19.724],[98.1924,19.7389],[98.1831,19.7609],[98.158,19.7709],[98.1388,19.7869],[98.1014,19.7723],[98.0924,19.7895],[98.0838,19.7932],[98.0835,19.8094],[98.0676,19.8101],[98.0631,19.803],[98.0483,19.8151],[98.0343,19.8046],[98.0402,19.799],[98.034,19.7869],[98.0358,19.7504],[98.0311,19.7257],[98.0252,19.7237],[98.0346,19.6996],[98.0328,19.6745],[98.0476,19.6532],[98.0248,19.6382],[98.0005,19.6342],[97.983,19.6398],[97.9722,19.6345],[97.9733,19.6009],[97.961,19.593],[97.9443,19.5964],[97.8945,19.5724],[97.8861,19.5779],[97.8633,19.5748],[97.8486,19.609],[97.8586,19.6354],[97.8524,19.6448],[97.8389,19.6469],[97.8307,19.6555],[97.7963,19.6471],[97.7467,19.6757],[97.7467,19.6624],[97.7359,19.6563],[97.7061,19.6588],[97.6932,19.6704],[97.676,19.6616],[97.6509,19.678],[97.6261,19.6751],[97.6059,19.687],[97.6051,19.7003],[97.5924,19.709],[97.5929,19.7162],[97.5787,19.7185],[97.5618,19.7322],[97.5621,19.7636],[97.5792,19.8137],[97.5925,19.831],[97.5469,19.8337],[97.5278,19.8654],[97.5405,19.8806],[97.5169,19.8974],[97.4991,19.9019],[97.4909,19.8887],[97.4429,19.8797],[97.4322,19.9031],[97.3999,19.9177],[97.3847,19.9623],[97.3681,19.9535],[97.3522,19.9556],[97.3462,19.9368],[97.3352,19.9312],[97.3377,19.9156],[97.3294,19.8976],[97.3148,19.9014],[97.2589,19.8918],[97.2218,19.9076],[97.2201,19.9559],[97.2093,19.9894],[97.1689,19.9967],[97.1471,19.9924],[97.1443,19.9869],[97.1571,19.9558],[97.1455,19.9381],[97.1508,19.9237],[97.1409,19.9031],[97.1494,19.8795],[97.1478,19.8652],[97.1617,19.8355],[97.1469,19.8329],[97.1341,19.7991],[97.1429,19.7836],[97.1521,19.7807],[97.1496,19.7726],[97.1593,19.7679],[97.1487,19.7614],[97.1393,19.7677],[97.1161,19.7507],[97.128,19.715],[97.1149,19.7105],[97.094,19.7145],[97.0613,19.6956],[97.0153,19.6907],[97.0089,19.6734],[97.0157,19.6497],[97.011,19.6511],[97.0059,19.6402],[96.9855,19.6408],[96.964,19.6283],[96.9448,19.5864],[96.926,19.572],[96.9127,19.5776],[96.9096,19.5649],[96.8987,19.5571],[96.9083,19.5309],[96.8945,19.5322],[96.8761,19.5224],[96.8736,19.5073],[96.91,19.4806],[96.9026,19.4715],[96.9062,19.463],[96.9247,19.4516],[96.9356,19.461],[96.9439,19.4574],[96.9659,19.4271],[96.9597,19.4168],[96.9219,19.4016],[96.9022,19.3799],[96.8887,19.3746],[96.8875,19.3653],[96.8748,19.3552],[96.8858,19.3377],[96.8633,19.3141],[96.8628,19.2993],[96.8367,19.3254],[96.8309,19.3536],[96.814,19.3733],[96.8012,19.4043],[96.7828,19.407],[96.7647,19.4322],[96.7278,19.4485],[96.6853,19.449],[96.6903,19.4695],[96.6817,19.4736],[96.6673,19.503],[96.6682,19.5144],[96.6755,19.5186],[96.6488,19.5763],[96.5966,19.5758],[96.5517,19.5923],[96.5455,19.6175],[96.5718,19.6308],[96.594,19.6562],[96.6439,19.6748],[96.6561,19.695],[96.633,19.726],[96.6074,19.7323],[96.597,19.7558],[96.5606,19.791],[96.5512,19.812],[96.5509,19.8328],[96.523,19.8569],[96.5038,19.8595],[96.4535,19.8504],[96.4438,19.8651],[96.4439,19.877],[96.4552,19.8946],[96.3937,19.9634],[96.3635,20.013],[96.3711,20.0243],[96.3952,20.0194],[96.4026,20.0305],[96.4284,20.0195],[96.4437,20.0327],[96.443,20.0519],[96.4678,20.056],[96.4758,20.07],[96.464,20.0855],[96.4528,20.0893],[96.456,20.0977],[96.4409,20.1364],[96.4578,20.1534],[96.4713,20.153],[96.4859,20.1628],[96.4888,20.1799],[96.5468,20.2219],[96.532,20.2583],[96.5216,20.2686],[96.527,20.2779],[96.516,20.2854],[96.4947,20.3195],[96.5003,20.338],[96.4943,20.3377],[96.4935,20.3543],[96.4746,20.3696],[96.4613,20.4267],[96.4712,20.4323],[96.4645,20.4509],[96.4735,20.4706],[96.4951,20.4795],[96.4886,20.4997],[96.4924,20.5083],[96.5097,20.5124],[96.5333,20.5066],[96.5436,20.5125],[96.5435,20.5658],[96.5528,20.5975],[96.5407,20.5973],[96.5271,20.5783],[96.517,20.5793],[96.5133,20.6019],[96.4843,20.6087],[96.4723,20.6239],[96.4664,20.6422],[96.4525,20.6538],[96.4393,20.6925],[96.4607,20.7034],[96.4643,20.7211],[96.455,20.7307],[96.4637,20.7438],[96.4831,20.7537],[96.4786,20.7693],[96.5118,20.7844],[96.5244,20.7752],[96.5639,20.7826],[96.5648,20.8205],[96.5594,20.8257],[96.575,20.8395],[96.5735,20.8714],[96.5497,20.8933],[96.5372,20.8859],[96.523,20.8868],[96.5075,20.9214],[96.4958,20.9212],[96.4679,20.9027],[96.4338,20.9181],[96.4277,20.943],[96.3891,20.9295],[96.3806,20.9426],[96.3429,20.9433],[96.2979,20.9676],[96.2719,20.9673],[96.2458,20.9803],[96.244,21.0018],[96.2183,21.0052],[96.2142,21.0329],[96.2067,21.0438],[96.2151,21.0568],[96.2036,21.071],[96.2302,21.0885],[96.2306,21.1026],[96.2177,21.1289],[96.2324,21.151],[96.2661,21.1679],[96.2824,21.167],[96.2936,21.1734],[96.3628,21.1596],[96.3774,21.1757],[96.3692,21.1881],[96.371,21.1983],[96.3586,21.2084],[96.3654,21.2154],[96.3364,21.2407],[96.3351,21.2645],[96.3206,21.2905],[96.3238,21.309],[96.3132,21.351],[96.3092,21.3562],[96.2952,21.3514],[96.2906,21.3571],[96.3057,21.371],[96.2963,21.3817],[96.2996,21.3924],[96.2918,21.4332],[96.2961,21.4366],[96.2871,21.4633],[96.3023,21.4688],[96.3178,21.4625],[96.3172,21.4713],[96.3298,21.472],[96.3203,21.4802],[96.3415,21.4888],[96.3206,21.5355],[96.3408,21.5508],[96.3776,21.5446],[96.4354,21.5613],[96.4657,21.5563],[96.4711,21.5666],[96.5297,21.5855],[96.5446,21.5989],[96.5602,21.5886],[96.5809,21.5953],[96.5934,21.6162],[96.612,21.6225],[96.6331,21.6409],[96.6309,21.6587],[96.6536,21.6729],[96.6831,21.7115],[96.6977,21.7137],[96.704,21.7257],[96.7223,21.7242],[96.7379,21.7046],[96.7496,21.7172],[96.7664,21.7158],[96.7893,21.7411],[96.8067,21.7448],[96.807,21.7743],[96.8492,21.7414],[96.8915,21.7343],[96.896,21.7428],[96.8917,21.7785],[96.8787,21.7932],[96.8757,21.823],[96.8589,21.8294],[96.8437,21.8463],[96.8483,21.8561],[96.8592,21.8597],[96.857,21.8692],[96.8119,21.9181],[96.8165,21.9319],[96.7814,21.9821],[96.7547,22.007],[96.7588,22.0218],[96.7505,22.0432],[96.7566,22.0465],[96.7505,22.0608],[96.7539,22.0709],[96.7161,22.0901],[96.6558,22.0895],[96.6385,22.1113],[96.5584,22.1103],[96.5579,22.1299],[96.548,22.1396],[96.5313,22.1379],[96.519,22.149],[96.5119,22.143],[96.4947,22.1428],[96.4801,22.1601],[96.4815,22.2288],[96.4735,22.2389],[96.4726,22.2563],[96.4476,22.311],[96.4219,22.3322],[96.4093,22.364],[96.3881,22.3714],[96.3293,22.3681],[96.3245,22.3753],[96.3201,22.4537],[96.3337,22.4672],[96.3314,22.504],[96.3187,22.5138],[96.3224,22.5204],[96.3149,22.521],[96.3142,22.5147],[96.301,22.5168],[96.2896,22.5288],[96.2923,22.544],[96.3025,22.5438],[96.2977,22.5731],[96.2793,22.5854],[96.2721,22.6062],[96.2675,22.6038],[96.2569,22.6129],[96.2588,22.6215],[96.2399,22.6393],[96.2332,22.6753],[96.2344,22.6932],[96.2417,22.7004],[96.2182,22.6928],[96.2238,22.7113],[96.2042,22.7375],[96.2044,22.7458],[96.2239,22.7591],[96.2223,22.7636],[96.2403,22.7636],[96.2444,22.7735],[96.2623,22.7798],[96.2728,22.7932],[96.2867,22.7801],[96.302,22.7855],[96.3066,22.7803],[96.3557,22.7781],[96.3818,22.8015],[96.3924,22.7919],[96.395,22.8065],[96.4175,22.8008],[96.4298,22.7882],[96.4576,22.7848],[96.4613,22.7904],[96.486,22.7947],[96.4942,22.806],[96.5141,22.806],[96.5397,22.8303],[96.6088,22.8156],[96.6251,22.8288],[96.6327,22.829],[96.6321,22.8219],[96.6403,22.8241],[96.6452,22.8353],[96.6651,22.8496],[96.6636,22.8687],[96.6723,22.8921],[96.7038,22.9325],[96.7157,22.9367],[96.7164,22.9443],[96.7135,22.9604],[96.7039,22.9698],[96.6925,22.9693],[96.6799,22.9855],[96.6239,22.9796],[96.6135,22.993],[96.5881,22.9968],[96.5689,23.0153],[96.5441,23.0203],[96.5152,23.0532],[96.4878,23.0433],[96.4704,23.0226],[96.4547,23.0335],[96.4367,23.0229],[96.4123,23.0244],[96.3904,23.0137],[96.3353,23.0042],[96.3116,23.0122],[96.2898,23.0035],[96.237,23.0136],[96.2125,23.0249],[96.193,23.0439],[96.2045,23.0679],[96.1941,23.0907],[96.1525,23.1241],[96.1521,23.1598],[96.1638,23.1632],[96.1702,23.1888],[96.1765,23.1898],[96.1883,23.2292],[96.1828,23.2729],[96.1984,23.2984],[96.1783,23.322],[96.1674,23.3175],[96.1654,23.3291],[96.1702,23.3457],[96.1831,23.3477],[96.1892,23.3565],[96.2148,23.3318],[96.2211,23.3397],[96.2337,23.3397],[96.2276,23.3681],[96.2467,23.4024],[96.3036,23.4282],[96.2936,23.4383],[96.298,23.4463],[96.2924,23.4573],[96.2959,23.4687],[96.3172,23.4766],[96.31,23.4982],[96.3389,23.5132],[96.3446,23.5331],[96.3575,23.5489],[96.3909,23.5651],[96.3962,23.5943],[96.4188,23.6105],[96.4193,23.6258],[96.4373,23.6345],[96.4319,23.67],[96.4393,23.6799],[96.4377,23.6951],[96.4539,23.703],[96.4715,23.726],[96.4884,23.7258],[96.5073,23.7421],[96.5351,23.8127],[96.5405,23.8198],[96.5593,23.8225],[96.5572,23.8558],[96.5451,23.8734],[96.5269,23.8822],[96.5281,23.9091],[96.509,23.9509],[96.5174,23.9697],[96.5073,24.0057],[96.4687,24.0168],[96.4327,23.9957],[96.4092,24.0059],[96.3901,24.0243],[96.4129,24.057],[96.4567,24.1008],[96.493,24.1113],[96.5192,24.1012],[96.5582,24.1549],[96.5775,24.1589],[96.6274,24.1457],[96.6536,24.1591],[96.6657,24.1564],[96.6662,24.139],[96.6868,24.1266],[96.6949,24.1087],[96.6892,24.0974],[96.6791,24.0933],[96.6767,24.0741],[96.6988,24.0673],[96.7031,24.0381],[96.7031,24.0292],[96.6773,24.0061],[96.6789,23.9999],[96.7452,23.9924],[96.8092,24.021],[96.8221,24.0186],[96.8394,24.0259],[96.8507,24.0207],[96.8593,24.0021],[96.832,23.9562],[96.8396,23.9559],[96.8452,23.9441],[96.8392,23.895],[96.8427,23.8893],[96.8687,23.8847],[96.8768,23.875],[96.8861,23.8472],[96.8842,23.8355],[96.853,23.7853],[96.8219,23.7769],[96.7937,23.7846],[96.7758,23.7654],[96.7817,23.7604],[96.7779,23.7497],[96.7843,23.743],[96.8563,23.7323],[96.8756,23.7146],[96.8984,23.72],[96.9104,23.7126],[96.9746,23.7162],[97.0029,23.702],[97.0051,23.6631],[97.0147,23.644],[97.0886,23.6341],[97.1028,23.6419],[97.1206,23.665],[97.141,23.6658],[97.1455,23.6731],[97.1359,23.6796],[97.1377,23.6847],[97.1786,23.6704],[97.189,23.6875],[97.2046,23.6827],[97.219,23.6991],[97.2295,23.693],[97.2329,23.6805],[97.2515,23.7017],[97.2672,23.7015],[97.2686,23.7125],[97.3036,23.6985],[97.3088,23.7126],[97.3207,23.7195],[97.3443,23.6945],[97.3457,23.7235],[97.3727,23.7454],[97.4086,23.739],[97.4635,23.7741],[97.4667,23.7809],[97.4532,23.7986],[97.4755,23.8186],[97.5098,23.8183],[97.5197,23.8113],[97.5465,23.8228],[97.5719,23.8155],[97.5997,23.8206],[97.6383,23.8632]]]}}]}