{"type":"FeatureCollection","features":[{"type":"Feature","properties":{"nmHsp_eng":"Sagaing General Hospital","lvlHsp_eng":"General","bedClass":"200","TS_en":"Sagaing","sev":"moderate"},"geometry":{"type":"Point","coordinates":[95.976,21.8732]}},{"type":"Feature","properties":{"nmHsp_eng":"Min Kun Station Hospital","lvlHsp_eng":"Station","bedClass":"16","TS_en":"Sagaing","sev":"moderate"},"geometry":{"type":"Point","coordinates":[96.019,22.0463]}},{"type":"Feature","properties":{"nmHsp_eng":"Ywar Thit Gyi Station Hospital","lvlHsp_eng":"Station","bedClass":"16","TS_en":"Sagaing","sev":"moderate"},"geometry":{"type":"Point","coordinates":[95.7778,21.9295]}},{"type":"Feature","properties":{"nmHsp_eng":"Pa Du Station Hospital","lvlHsp_eng":"Station","bedClass":"16","TS_en":"Sagaing","sev":"moderate"},"geometry":{"type":"Point","coordinates":[95.9309,22.0887]}},{"type":"Feature","properties":{"nmHsp_eng":"Sar Taung Station Hospital","lvlHsp_eng":"Station","bedClass":"16","TS_en":"Sagaing","sev":"moderate"},"geometry":{"type":"Point","coordinates":[95.7617,22.1564]}},{"type":"Feature","properties":{"nmHsp_eng":"Myinmu Township Hospital","lvlHsp_eng":"Township","bedClass":"50","TS_en":"Myinmu","sev":"moderate"},"geometry":{"type":"Point","coordinates":[95.5641,21.9308]}},{"type":"Feature","properties":{"nmHsp_eng":"Taw Chaung U Station Hospital","lvlHsp_eng":"Station","bedClass":"16","TS_en":"Myinmu","sev":"moderate"},"geometry":{"type":"Point","coordinates":[95.4117,22.0409]}},{"type":"Feature","properties":{"nmHsp_eng":"Khwet Khwin Station Hospital","lvlHsp_eng":"Station","bedClass":"16","TS_en":"Myinmu","sev":"moderate"},"geometry":{"type":"Point","coordinates":[95.5519,22.076]}},{"type":"Feature","properties":{"nmHsp_eng":"Myaung Township Hospital","lvlHsp_eng":"Township","bedClass":"50","TS_en":"Myaung","sev":"none"},"geometry":{"type":"Point","coordinates":[95.4242,21.8344]}},{"type":"Feature","properties":{"nmHsp_eng":"Kyauk Yit Station Hospital","lvlHsp_eng":"Station","bedClass":"16","TS_en":"Myaung","sev":"none"},"geometry":{"type":"Point","coordinates":[95.2965,21.7218]}},{"type":"Feature","properties":{"nmHsp_eng":"Ma Gyi Boke Station Hospital","lvlHsp_eng":"Station","bedClass":"16","TS_en":"Myaung","sev":"none"},"geometry":{"type":"Point","coordinates":[95.218,21.8072]}},{"type":"Feature","properties":{"nmHsp_eng":"Shwebo General Hospital","lvlHsp_eng":"General","bedClass":"200","TS_en":"Shwebo","sev":"severe"},"geometry":{"type":"Point","coordinates":[95.7007,22.5641]}},{"type":"Feature","properties":{"nmHsp_eng":"Seik Khun Station Hospital","lvlHsp_eng":"Station","bedClass":"16","TS_en":"Shwebo","sev":"severe"},"geometry":{"type":"Point","coordinates":[95.5852,22.5483]}},{"type":"Feature","properties":{"nmHsp_eng":"Sin In Station Hospital","lvlHsp_eng":"Station","bedClass":"16","TS_en":"Shwebo","sev":"severe"},"geometry":{"type":"Point","coordinates":[95.4867,22.6303]}},{"type":"Feature","properties":{"nmHsp_eng":"Kyauk Myaung Station Hospital","lvlHsp_eng":"Station","bedClass":"16","TS_en":"Shwebo","sev":"severe"},"geometry":{"type":"Point","coordinates":[95.936,22.597]}},{"type":"Feature","properties":{"nmHsp_eng":"Nyaung Pin Thar Station Hospital","lvlHsp_eng":"Station","bedClass":"16","TS_en":"Shwebo","sev":"severe"},"geometry":{"type":"Point","coordinates":[95.5455,22.6669]}},{"type":"Feature","properties":{"nmHsp_eng":"Khin-U Township Hospital","lvlHsp_eng":"Township","bedClass":"25","TS_en":"Khin-U","sev":"severe"},"geometry":{"type":"Point","coordinates":[95.6178,22.7687]}},{"type":"Feature","properties":{"nmHsp_eng":"Ywar Zin Station Hospital","lvlHsp_eng":"Station","bedClass":"16","TS_en":"Khin-U","sev":"severe"},"geometry":{"type":"Point","coordinates":[95.7678,22.7551]}},{"type":"Feature","properties":{"nmHsp_eng":"Nyaung Pin Gyi Su Station Hospital","lvlHsp_eng":"Station","bedClass":"16","TS_en":"Khin-U","sev":"severe"},"geometry":{"type":"Point","coordinates":[95.4747,22.6924]}},{"type":"Feature","properties":{"nmHsp_eng":"Wetlet Township Hospital","lvlHsp_eng":"Township","bedClass":"25","TS_en":"Wetlet","sev":"severe"},"geometry":{"type":"Point","coordinates":[95.792,22.3661]}},{"type":"Feature","properties":{"nmHsp_eng":"Shein Ma Kar Station Hospital","lvlHsp_eng":"Station","bedClass":"16","TS_en":"Wetlet","sev":"severe"},"geometry":{"type":"Point","coordinates":[95.9832,22.2771]}},{"type":"Feature","properties":{"nmHsp_eng":"Min Chi Station Hospital","lvlHsp_eng":"Station","bedClass":"16","TS_en":"Wetlet","sev":"severe"},"geometry":{"type":"Point","coordinates":[95.6194,22.4112]}},{"type":"Feature","properties":{"nmHsp_eng":"Shwe Pan Kone Station Hospital","lvlHsp_eng":"Station","bedClass":"16","TS_en":"Wetlet","sev":"severe"},"geometry":{"type":"Point","coordinates":[95.6295,22.3077]}},{"type":"Feature","properties":{"nmHsp_eng":"Kanbalu Township Hospital","lvlHsp_eng":"Township","bedClass":"100","TS_en":"Kanbalu","sev":"critical"},"geometry":{"type":"Point","coordinates":[95.5362,23.2028]}},{"type":"Feature","properties":{"nmHsp_eng":"Chat Thin Station Hospital","lvlHsp_eng":"Station","bedClass":"16","TS_en":"Kanbalu","sev":"critical"},"geometry":{"type":"Point","coordinates":[95.6729,23.5222]}},{"type":"Feature","properties":{"nmHsp_eng":"Ma Lel Station Hospital","lvlHsp_eng":"Station","bedClass":"16","TS_en":"Kanbalu","sev":"critical"},"geometry":{"type":"Point","coordinates":[95.9737,23.0335]}},{"type":"Feature","properties":{"nmHsp_eng":"Zee Kone Station Hospital","lvlHsp_eng":"Station","bedClass":"16","TS_en":"Kanbalu","sev":"critical"},"geometry":{"type":"Point","coordinates":[95.5667,22.9275]}},{"type":"Feature","properties":{"nmHsp_eng":"Kyunhla Township Hospital","lvlHsp_eng":"Township","bedClass":"50","TS_en":"Kyunhla","sev":"critical"},"geometry":{"type":"Point","coordinates":[95.539,23.3292]}},{"type":"Feature","properties":{"nmHsp_eng":"Ywar Kone Gyi Station Hospital","lvlHsp_eng":"Station","bedClass":"16","TS_en":"Kyunhla","sev":"critical"},"geometry":{"type":"Point","coordinates":[95.3356,23.6209]}},{"type":"Feature","properties":{"nmHsp_eng":"Pay Pin Chaung Station Hospital","lvlHsp_eng":"Station","bedClass":"16","TS_en":"Kyunhla","sev":"critical"},"geometry":{"type":"Point","coordinates":[95.1005,23.4729]}},{"type":"Feature","properties":{"nmHsp_eng":"Ka Ni Station Hospital","lvlHsp_eng":"Station","bedClass":"16","TS_en":"Kyunhla","sev":"critical"},"geometry":{"type":"Point","coordinates":[95.2834,23.2682]}},{"type":"Feature","properties":{"nmHsp_eng":"Yae Shin Station Hospital","lvlHsp_eng":"Station","bedClass":"16","TS_en":"Kyunhla","sev":"critical"},"geometry":{"type":"Point","coordinates":[95.1044,23.7195]}},{"type":"Feature","properties":{"nmHsp_eng":"Koku Station Hospital","lvlHsp_eng":"Station","bedClass":"16","TS_en":"Kyunhla","sev":"critical"},"geometry":{"type":"Point","coordinates":[95.5025,23.4424]}},{"type":"Feature","properties":{"nmHsp_eng":"Ye-U Township Hospital","lvlHsp_eng":"Township","bedClass":"100","TS_en":"Ye-U","sev":"severe"},"geometry":{"type":"Point","coordinates":[95.4293,22.7567]}},{"type":"Feature","properties":{"nmHsp_eng":"Ta Mar Taw Station Hospital","lvlHsp_eng":"Station","bedClass":"25","TS_en":"Ye-U","sev":"severe"},"geometry":{"type":"Point","coordinates":[95.2625,22.8429]}},{"type":"Feature","properties":{"nmHsp_eng":"Pa Lu Za Wa Station Hospital","lvlHsp_eng":"Station","bedClass":"25","TS_en":"Ye-U","sev":"severe"},"geometry":{"type":"Point","coordinates":[94.8533,22.8801]}},{"type":"Feature","properties":{"nmHsp_eng":"Tabayin Township Hospital","lvlHsp_eng":"Township","bedClass":"25","TS_en":"Tabayin","sev":"critical"},"geometry":{"type":"Point","coordinates":[95.3146,22.6797]}},{"type":"Feature","properties":{"nmHsp_eng":"Mukangyi Station Hospital","lvlHsp_eng":"Station","bedClass":"16","TS_en":"Tabayin","sev":"critical"},"geometry":{"type":"Point","coordinates":[95.4852,22.513]}},{"type":"Feature","properties":{"nmHsp_eng":"Saing Pyin Station Hospital","lvlHsp_eng":"Station","bedClass":"16","TS_en":"Tabayin","sev":"critical"},"geometry":{"type":"Point","coordinates":[95.2421,22.574]}},{"type":"Feature","properties":{"nmHsp_eng":"Nyaung Hla Station Hospital","lvlHsp_eng":"Station","bedClass":"16","TS_en":"Tabayin","sev":"critical"},"geometry":{"type":"Point","coordinates":[95.4171,22.6543]}},{"type":"Feature","properties":{"nmHsp_eng":"Sone Kone Station Hospital","lvlHsp_eng":"Station","bedClass":"16","TS_en":"Tabayin","sev":"critical"},"geometry":{"type":"Point","coordinates":[94.9713,22.7196]}},{"type":"Feature","properties":{"nmHsp_eng":"Taze Township Hospital","lvlHsp_eng":"Township","bedClass":"25","TS_en":"Taze","sev":"critical"},"geometry":{"type":"Point","coordinates":[95.3966,22.9454]}},{"type":"Feature","properties":{"nmHsp_eng":"Na Bet Gyi Station Hospital","lvlHsp_eng":"Station","bedClass":"16","TS_en":"Taze","sev":"critical"},"geometry":{"type":"Point","coordinates":[95.361,23.0146]}},{"type":"Feature","properties":{"nmHsp_eng":"Ywar Shey (North) Station Hospital","lvlHsp_eng":"Station","bedClass":"16","TS_en":"Taze","sev":"critical"},"geometry":{"type":"Point","coordinates":[95.3367,23.1074]}},{"type":"Feature","properties":{"nmHsp_eng":"Kan Htu Ma Station Hospital","lvlHsp_eng":"Station","bedClass":"16","TS_en":"Taze","sev":"critical"},"geometry":{"type":"Point","coordinates":[95.2293,22.9344]}},{"type":"Feature","properties":{"nmHsp_eng":"Sein Nan Station Hospital","lvlHsp_eng":"Station","bedClass":"16","TS_en":"Taze","sev":"critical"},"geometry":{"type":"Point","coordinates":[95.0294,23.2358]}},{"type":"Feature","properties":{"nmHsp_eng":"Monywa General Hospital","lvlHsp_eng":"General","bedClass":"500","TS_en":"Monywa","sev":"moderate"},"geometry":{"type":"Point","coordinates":[95.1304,22.12]}},{"type":"Feature","properties":{"nmHsp_eng":"Nyaung Gyi Inn Station Hospital","lvlHsp_eng":"Station","bedClass":"16","TS_en":"Monywa","sev":"moderate"},"geometry":{"type":"Point","coordinates":[95.1852,22.0067]}},{"type":"Feature","properties":{"nmHsp_eng":"TharSi Station Hospital","lvlHsp_eng":"Station","bedClass":"16","TS_en":"Monywa","sev":"moderate"},"geometry":{"type":"Point","coordinates":[95.2546,22.2206]}},{"type":"Feature","properties":{"nmHsp_eng":"Budalin Township Hospital","lvlHsp_eng":"Township","bedClass":"50","TS_en":"Budalin","sev":"none"},"geometry":{"type":"Point","coordinates":[95.1408,22.3861]}},{"type":"Feature","properties":{"nmHsp_eng":"Maung Htaung Station Hospital","lvlHsp_eng":"Station","bedClass":"16","TS_en":"Budalin","sev":"none"},"geometry":{"type":"Point","coordinates":[95.0699,22.4887]}},{"type":"Feature","properties":{"nmHsp_eng":"Tha Khut Ta Nei Station Hospital","lvlHsp_eng":"Station","bedClass":"16","TS_en":"Budalin","sev":"none"},"geometry":{"type":"Point","coordinates":[94.9726,22.4621]}},{"type":"Feature","properties":{"nmHsp_eng":"Ayadaw Township Hospital","lvlHsp_eng":"Township","bedClass":"25","TS_en":"Ayadaw","sev":"moderate"},"geometry":{"type":"Point","coordinates":[95.4473,22.2834]}},{"type":"Feature","properties":{"nmHsp_eng":"Naung Gyi Aing Station Hospital","lvlHsp_eng":"Station","bedClass":"16","TS_en":"Ayadaw","sev":"moderate"},"geometry":{"type":"Point","coordinates":[95.3747,22.4227]}},{"type":"Feature","properties":{"nmHsp_eng":"Ma Le Thar Station Hospital","lvlHsp_eng":"Station","bedClass":"16","TS_en":"Ayadaw","sev":"moderate"},"geometry":{"type":"Point","coordinates":[95.4515,22.1136]}},{"type":"Feature","properties":{"nmHsp_eng":"Chaung-U Township Hospital","lvlHsp_eng":"Township","bedClass":"25","TS_en":"Chaung-U","sev":"none"},"geometry":{"type":"Point","coordinates":[95.278,21.9581]}},{"type":"Feature","properties":{"nmHsp_eng":"Ah Myint Station Hospital","lvlHsp_eng":"Station","bedClass":"16","TS_en":"Chaung-U","sev":"none"},"geometry":{"type":"Point","coordinates":[95.1514,21.9228]}},{"type":"Feature","properties":{"nmHsp_eng":"Thone Pan Hla Station Hospital","lvlHsp_eng":"Station","bedClass":"16","TS_en":"Chaung-U","sev":"none"},"geometry":{"type":"Point","coordinates":[95.1783,21.8235]}},{"type":"Feature","properties":{"nmHsp_eng":"Yinmarbin Township Hospital","lvlHsp_eng":"Township","bedClass":"50","TS_en":"Yinmarbin","sev":"none"},"geometry":{"type":"Point","coordinates":[94.8985,22.0778]}},{"type":"Feature","properties":{"nmHsp_eng":"Ka Paing Station Hospital","lvlHsp_eng":"Station","bedClass":"16","TS_en":"Yinmarbin","sev":"none"},"geometry":{"type":"Point","coordinates":[94.6776,22.2117]}},{"type":"Feature","properties":{"nmHsp_eng":"Nyaung Kaing Station Hospital","lvlHsp_eng":"Station","bedClass":"16","TS_en":"Yinmarbin","sev":"none"},"geometry":{"type":"Point","coordinates":[94.7783,22.2109]}},{"type":"Feature","properties":{"nmHsp_eng":"Kani Township Hospital","lvlHsp_eng":"Township","bedClass":"25","TS_en":"Kani","sev":"none"},"geometry":{"type":"Point","coordinates":[94.8476,22.4345]}},{"type":"Feature","properties":{"nmHsp_eng":"Win Ma Nar Station Hospital","lvlHsp_eng":"Station","bedClass":"16","TS_en":"Kani","sev":"none"},"geometry":{"type":"Point","coordinates":[94.8726,22.5999]}},{"type":"Feature","properties":{"nmHsp_eng":"Kin Station Hospital","lvlHsp_eng":"Station","bedClass":"16","TS_en":"Kani","sev":"none"},"geometry":{"type":"Point","coordinates":[94.6921,22.7706]}},{"type":"Feature","properties":{"nmHsp_eng":"Thayet Pin Station Hospital","lvlHsp_eng":"Station","bedClass":"16","TS_en":"Kani","sev":"none"},"geometry":{"type":"Point","coordinates":[94.9587,22.3849]}},{"type":"Feature","properties":{"nmHsp_eng":"Salingyi Township Hospital","lvlHsp_eng":"Township","bedClass":"25","TS_en":"Salingyi","sev":"none"},"geometry":{"type":"Point","coordinates":[95.0806,21.9706]}},{"type":"Feature","properties":{"nmHsp_eng":"Kyar Tet Station Hospital","lvlHsp_eng":"Station","bedClass":"16","TS_en":"Salingyi","sev":"none"},"geometry":{"type":"Point","coordinates":[94.9382,21.8468]}},{"type":"Feature","properties":{"nmHsp_eng":"Kan Kone Station Hospital","lvlHsp_eng":"Station","bedClass":"16","TS_en":"Salingyi","sev":"none"},"geometry":{"type":"Point","coordinates":[95.0673,22.1288]}},{"type":"Feature","properties":{"nmHsp_eng":"Ma Taunt Ta Station Hospital","lvlHsp_eng":"Station","bedClass":"16","TS_en":"Salingyi","sev":"none"},"geometry":{"type":"Point","coordinates":[94.9525,22.0184]}},{"type":"Feature","properties":{"nmHsp_eng":"Pale Township Hospital","lvlHsp_eng":"Township","bedClass":"25","TS_en":"Pale","sev":"none"},"geometry":{"type":"Point","coordinates":[94.8785,21.933]}},{"type":"Feature","properties":{"nmHsp_eng":"Wet Kya Station Hospital","lvlHsp_eng":"Station","bedClass":"16","TS_en":"Pale","sev":"none"},"geometry":{"type":"Point","coordinates":[94.484,21.9787]}},{"type":"Feature","properties":{"nmHsp_eng":"Chin Pyit Kyin Station Hospital","lvlHsp_eng":"Station","bedClass":"16","TS_en":"Pale","sev":"none"},"geometry":{"type":"Point","coordinates":[94.6654,21.9551]}},{"type":"Feature","properties":{"nmHsp_eng":"Katha General Hospital","lvlHsp_eng":"General","bedClass":"100","TS_en":"Katha","sev":"watch"},"geometry":{"type":"Point","coordinates":[96.341,24.1817]}},{"type":"Feature","properties":{"nmHsp_eng":"Inn Station Hospital","lvlHsp_eng":"Station","bedClass":"16","TS_en":"Katha","sev":"watch"},"geometry":{"type":"Point","coordinates":[96.2884,23.9403]}},{"type":"Feature","properties":{"nmHsp_eng":"Moe Dar Lay Station Hospital","lvlHsp_eng":"Station","bedClass":"16","TS_en":"Katha","sev":"watch"},"geometry":{"type":"Point","coordinates":[96.5094,24.3104]}},{"type":"Feature","properties":{"nmHsp_eng":"Inn Gyi Station Hospital","lvlHsp_eng":"Station","bedClass":"16","TS_en":"Katha","sev":"watch"},"geometry":{"type":"Point","coordinates":[96.5244,23.7966]}},{"type":"Feature","properties":{"nmHsp_eng":"Wet Tu Station Hospital","lvlHsp_eng":"Station","bedClass":"16","TS_en":"Katha","sev":"watch"},"geometry":{"type":"Point","coordinates":[96.3748,23.971]}},{"type":"Feature","properties":{"nmHsp_eng":"Kyauk Htone Gyi Station Hospital","lvlHsp_eng":"Station","bedClass":"16","TS_en":"Katha","sev":"watch"},"geometry":{"type":"Point","coordinates":[96.4308,24.221]}},{"type":"Feature","properties":{"nmHsp_eng":"Indaw Township Hospital","lvlHsp_eng":"Township","bedClass":"25","TS_en":"Indaw","sev":"moderate"},"geometry":{"type":"Point","coordinates":[96.1362,24.2173]}},{"type":"Feature","properties":{"nmHsp_eng":"Mawlu Station Hospital","lvlHsp_eng":"Station","bedClass":"16","TS_en":"Indaw","sev":"moderate"},"geometry":{"type":"Point","coordinates":[96.1835,24.4736]}},{"type":"Feature","properties":{"nmHsp_eng":"Me Zar Station Hospital","lvlHsp_eng":"Station","bedClass":"15","TS_en":"Indaw","sev":"moderate"},"geometry":{"type":"Point","coordinates":[96.042,24.1329]}},{"type":"Feature","properties":{"nmHsp_eng":"Tigyaing Township Hospital","lvlHsp_eng":"Township","bedClass":"50","TS_en":"Tigyaing","sev":"watch"},"geometry":{"type":"Point","coordinates":[96.1502,23.7547]}},{"type":"Feature","properties":{"nmHsp_eng":"Ah Lel Taw Station Hospital","lvlHsp_eng":"Station","bedClass":"16","TS_en":"Tigyaing","sev":"watch"},"geometry":{"type":"Point","coordinates":[96.1154,23.8714]}},{"type":"Feature","properties":{"nmHsp_eng":"Mya Taung Station Hospital","lvlHsp_eng":"Station","bedClass":"25","TS_en":"Tigyaing","sev":"watch"},"geometry":{"type":"Point","coordinates":[96.159,23.7255]}},{"type":"Feature","properties":{"nmHsp_eng":"Nyaung Pin Thar Station Hospital","lvlHsp_eng":"Station","bedClass":"16","TS_en":"Tigyaing","sev":"watch"},"geometry":{"type":"Point","coordinates":[96.0831,23.6805]}},{"type":"Feature","properties":{"nmHsp_eng":"Kyet Ta Kaung Station Hospital","lvlHsp_eng":"Station","bedClass":"16","TS_en":"Tigyaing","sev":"watch"},"geometry":{"type":"Point","coordinates":[96.2792,23.8719]}},{"type":"Feature","properties":{"nmHsp_eng":"Kan Ni Station Hospital","lvlHsp_eng":"Station","bedClass":"16","TS_en":"Tigyaing","sev":"watch"},"geometry":{"type":"Point","coordinates":[96.2412,23.8155]}},{"type":"Feature","properties":{"nmHsp_eng":"Banmauk Township Hospital","lvlHsp_eng":"Township","bedClass":"25","TS_en":"Banmauk","sev":"watch"},"geometry":{"type":"Point","coordinates":[95.8562,24.4004]}},{"type":"Feature","properties":{"nmHsp_eng":"Kyaung Lel Station Hospital","lvlHsp_eng":"Station","bedClass":"16","TS_en":"Banmauk","sev":"watch"},"geometry":{"type":"Point","coordinates":[95.6442,24.5233]}},{"type":"Feature","properties":{"nmHsp_eng":"Man Si Gyi Station Hospital","lvlHsp_eng":"Station","bedClass":"16","TS_en":"Banmauk","sev":"watch"},"geometry":{"type":"Point","coordinates":[95.7291,24.6732]}},{"type":"Feature","properties":{"nmHsp_eng":"Kawlin Township Hospital","lvlHsp_eng":"Township","bedClass":"50","TS_en":"Kawlin","sev":"critical"},"geometry":{"type":"Point","coordinates":[95.6836,23.7931]}},{"type":"Feature","properties":{"nmHsp_eng":"Chaung Nar Station Hospital","lvlHsp_eng":"Station","bedClass":"16","TS_en":"Kawlin","sev":"critical"},"geometry":{"type":"Point","coordinates":[95.4365,23.6569]}},{"type":"Feature","properties":{"nmHsp_eng":"Khan Thar (Min Kone) Station Hospital","lvlHsp_eng":"Station","bedClass":"16","TS_en":"Kawlin","sev":"critical"},"geometry":{"type":"Point","coordinates":[95.8923,23.7825]}},{"type":"Feature","properties":{"nmHsp_eng":"Koke Ko Kone Station Hospital","lvlHsp_eng":"Station","bedClass":"16","TS_en":"Kawlin","sev":"critical"},"geometry":{"type":"Point","coordinates":[95.8528,23.6725]}},{"type":"Feature","properties":{"nmHsp_eng":"Wuntho Township Hospital","lvlHsp_eng":"Township","bedClass":"25","TS_en":"Wuntho","sev":"watch"},"geometry":{"type":"Point","coordinates":[95.6835,23.8998]}},{"type":"Feature","properties":{"nmHsp_eng":"Gyo Taung Station Hospital","lvlHsp_eng":"Station","bedClass":"16","TS_en":"Wuntho","sev":"watch"},"geometry":{"type":"Point","coordinates":[95.7995,23.9456]}},{"type":"Feature","properties":{"nmHsp_eng":"Nan Khan Station Hospital","lvlHsp_eng":"Station","bedClass":"16","TS_en":"Wuntho","sev":"watch"},"geometry":{"type":"Point","coordinates":[95.8938,23.9978]}},{"type":"Feature","properties":{"nmHsp_eng":"Pinlebu Township Hospital","lvlHsp_eng":"Township","bedClass":"25","TS_en":"Pinlebu","sev":"watch"},"geometry":{"type":"Point","coordinates":[95.3702,24.081]}},{"type":"Feature","properties":{"nmHsp_eng":"Mi Gaung In Station Hospital","lvlHsp_eng":"Station","bedClass":"16","TS_en":"Pinlebu","sev":"watch"},"geometry":{"type":"Point","coordinates":[95.3103,23.919]}},{"type":"Feature","properties":{"nmHsp_eng":"Man Si Lay Station Hospital","lvlHsp_eng":"Station","bedClass":"16","TS_en":"Pinlebu","sev":"watch"},"geometry":{"type":"Point","coordinates":[95.4822,24.1984]}},{"type":"Feature","properties":{"nmHsp_eng":"Kale General Hospital","lvlHsp_eng":"General","bedClass":"300","TS_en":"Kale","sev":"none"},"geometry":{"type":"Point","coordinates":[94.0637,23.1904]}},{"type":"Feature","properties":{"nmHsp_eng":"Nat Chaung Station Hospital","lvlHsp_eng":"Station","bedClass":"16","TS_en":"Kale","sev":"none"},"geometry":{"type":"Point","coordinates":[94.0261,22.9954]}},{"type":"Feature","properties":{"nmHsp_eng":"Tin Thar Station Hospital","lvlHsp_eng":"Station","bedClass":"16","TS_en":"Kale","sev":"none"},"geometry":{"type":"Point","coordinates":[94.0789,22.808]}},{"type":"Feature","properties":{"nmHsp_eng":"Yar Za Gyo Station Hospital","lvlHsp_eng":"Station","bedClass":"16","TS_en":"Kale","sev":"none"},"geometry":{"type":"Point","coordinates":[94.0863,23.5103]}},{"type":"Feature","properties":{"nmHsp_eng":"Kalewa Township Hospital","lvlHsp_eng":"Township","bedClass":"25","TS_en":"Kalewa","sev":"watch"},"geometry":{"type":"Point","coordinates":[94.299,23.2]}},{"type":"Feature","properties":{"nmHsp_eng":"Ma Sein Station Hospital","lvlHsp_eng":"Station","bedClass":"16","TS_en":"Kalewa","sev":"watch"},"geometry":{"type":"Point","coordinates":[94.346,23.3728]}},{"type":"Feature","properties":{"nmHsp_eng":"Mingin Township Hospital","lvlHsp_eng":"Township","bedClass":"50","TS_en":"Mingin","sev":"watch"},"geometry":{"type":"Point","coordinates":[94.4962,22.8785]}},{"type":"Feature","properties":{"nmHsp_eng":"Kyaw Pin Station Hospital","lvlHsp_eng":"Station","bedClass":"16","TS_en":"Mingin","sev":"watch"},"geometry":{"type":"Point","coordinates":[94.3553,22.8269]}},{"type":"Feature","properties":{"nmHsp_eng":"Pa Thay Station Hospital","lvlHsp_eng":"Station","bedClass":"16","TS_en":"Mingin","sev":"watch"},"geometry":{"type":"Point","coordinates":[94.499,22.7916]}},{"type":"Feature","properties":{"nmHsp_eng":"Kywe Station Hospital","lvlHsp_eng":"Station","bedClass":"16","TS_en":"Mingin","sev":"watch"},"geometry":{"type":"Point","coordinates":[94.4226,23.0653]}},{"type":"Feature","properties":{"nmHsp_eng":"Tone Station Hospital","lvlHsp_eng":"Station","bedClass":"16","TS_en":"Mingin","sev":"watch"},"geometry":{"type":"Point","coordinates":[94.7267,22.9632]}},{"type":"Feature","properties":{"nmHsp_eng":"Tamu General Hospital","lvlHsp_eng":"General","bedClass":"100","TS_en":"Tamu","sev":"none"},"geometry":{"type":"Point","coordinates":[94.3104,24.2183]}},{"type":"Feature","properties":{"nmHsp_eng":"Min Thar Station Hospital","lvlHsp_eng":"Station","bedClass":"16","TS_en":"Tamu","sev":"none"},"geometry":{"type":"Point","coordinates":[94.4295,24.4239]}},{"type":"Feature","properties":{"nmHsp_eng":"Khan Pat Station Hospital","lvlHsp_eng":"Station","bedClass":"25","TS_en":"Tamu","sev":"none"},"geometry":{"type":"Point","coordinates":[94.1431,23.7942]}},{"type":"Feature","properties":{"nmHsp_eng":"Myo Thit Station Hospital","lvlHsp_eng":"Station","bedClass":"16","TS_en":"Tamu","sev":"none"},"geometry":{"type":"Point","coordinates":[94.5181,24.5141]}},{"type":"Feature","properties":{"nmHsp_eng":"Boke Kan Station Hospital","lvlHsp_eng":"Station","bedClass":"16","TS_en":"Tamu","sev":"none"},"geometry":{"type":"Point","coordinates":[94.185,23.9158]}},{"type":"Feature","properties":{"nmHsp_eng":"Mawlaik General Hospital","lvlHsp_eng":"General","bedClass":"50","TS_en":"Mawlaik","sev":"watch"},"geometry":{"type":"Point","coordinates":[94.411,23.6365]}},{"type":"Feature","properties":{"nmHsp_eng":"Kyar Inn Station Hospital","lvlHsp_eng":"Station","bedClass":"16","TS_en":"Mawlaik","sev":"watch"},"geometry":{"type":"Point","coordinates":[94.4347,23.5843]}},{"type":"Feature","properties":{"nmHsp_eng":"Kin Tat Station Hospital","lvlHsp_eng":"Station","bedClass":"16","TS_en":"Mawlaik","sev":"watch"},"geometry":{"type":"Point","coordinates":[94.4305,23.7312]}},{"type":"Feature","properties":{"nmHsp_eng":"Paungbyin Township Hospital","lvlHsp_eng":"Township","bedClass":"50","TS_en":"Paungbyin","sev":"watch"},"geometry":{"type":"Point","coordinates":[94.8197,24.2664]}},{"type":"Feature","properties":{"nmHsp_eng":"Tha Ngar Station Hospital","lvlHsp_eng":"Station","bedClass":"16","TS_en":"Paungbyin","sev":"watch"},"geometry":{"type":"Point","coordinates":[94.6155,23.9671]}},{"type":"Feature","properties":{"nmHsp_eng":"Tha Yaung Station Hospital","lvlHsp_eng":"Station","bedClass":"16","TS_en":"Paungbyin","sev":"watch"},"geometry":{"type":"Point","coordinates":[94.8016,24.3544]}},{"type":"Feature","properties":{"nmHsp_eng":"Hkamti General Hospital","lvlHsp_eng":"General","bedClass":"100","TS_en":"Hkamti","sev":"none"},"geometry":{"type":"Point","coordinates":[95.6972,25.9936]}},{"type":"Feature","properties":{"nmHsp_eng":"Kaung Hein Station Hospital","lvlHsp_eng":"Station","bedClass":"16","TS_en":"Hkamti","sev":"none"},"geometry":{"type":"Point","coordinates":[95.4193,25.6774]}},{"type":"Feature","properties":{"nmHsp_eng":"Homalin Township Hospital","lvlHsp_eng":"Township","bedClass":"100","TS_en":"Homalin","sev":"watch"},"geometry":{"type":"Point","coordinates":[94.9176,24.8723]}},{"type":"Feature","properties":{"nmHsp_eng":"Hta Man Thi Station Hospital","lvlHsp_eng":"Station","bedClass":"16","TS_en":"Homalin","sev":"watch"},"geometry":{"type":"Point","coordinates":[95.2902,25.3311]}},{"type":"Feature","properties":{"nmHsp_eng":"Nan Taw Station Hospital","lvlHsp_eng":"Station","bedClass":"16","TS_en":"Homalin","sev":"watch"},"geometry":{"type":"Point","coordinates":[95.294,24.8129]}},{"type":"Feature","properties":{"nmHsp_eng":"Thaung Thut Station Hospital","lvlHsp_eng":"Station","bedClass":"16","TS_en":"Homalin","sev":"watch"},"geometry":{"type":"Point","coordinates":[94.7012,24.4228]}},{"type":"Feature","properties":{"nmHsp_eng":"Shwe Pyi Aye Station Hospital","lvlHsp_eng":"Station","bedClass":"16","TS_en":"Homalin","sev":"watch"},"geometry":{"type":"Point","coordinates":[94.7372,24.6774]}},{"type":"Feature","properties":{"nmHsp_eng":"Naung Po Aung Station Hospital","lvlHsp_eng":"Station","bedClass":"16","TS_en":"Homalin","sev":"watch"},"geometry":{"type":"Point","coordinates":[95.0607,24.8019]}},{"type":"Feature","properties":{"nmHsp_eng":"Maung Khan Station Hospital","lvlHsp_eng":"Station","bedClass":"16","TS_en":"Homalin","sev":"watch"},"geometry":{"type":"Point","coordinates":[95.0478,25.0886]}},{"type":"Feature","properties":{"nmHsp_eng":"Par Hoke Gyi Station Hospital","lvlHsp_eng":"Station","bedClass":"16","TS_en":"Homalin","sev":"watch"},"geometry":{"type":"Point","coordinates":[95.8626,25.3379]}},{"type":"Feature","properties":{"nmHsp_eng":"Lay Shi Township Hospital","lvlHsp_eng":"Township","bedClass":"25","TS_en":"Lay Shi","sev":"none"},"geometry":{"type":"Point","coordinates":[94.9547,25.4456]}},{"type":"Feature","properties":{"nmHsp_eng":"Somra Station Hospital","lvlHsp_eng":"Station","bedClass":"16","TS_en":"Lay Shi","sev":"none"},"geometry":{"type":"Point","coordinates":[94.6845,25.3671]}},{"type":"Feature","properties":{"nmHsp_eng":"Moe Bine Lutt Station Hospital","lvlHsp_eng":"Station","bedClass":"16","TS_en":"Lay Shi","sev":"none"},"geometry":{"type":"Point","coordinates":[94.9658,25.0894]}},{"type":"Feature","properties":{"nmHsp_eng":"Lahe Township Hospital","lvlHsp_eng":"Township","bedClass":"50","TS_en":"Lahe","sev":"none"},"geometry":{"type":"Point","coordinates":[95.4447,26.3234]}},{"type":"Feature","properties":{"nmHsp_eng":"Htan Par Khway Station Hospital","lvlHsp_eng":"Station","bedClass":"25","TS_en":"Lahe","sev":"none"},"geometry":{"type":"Point","coordinates":[95.2428,25.9697]}},{"type":"Feature","properties":{"nmHsp_eng":"Yan Kyein Station Hospital","lvlHsp_eng":"Station","bedClass":"16","TS_en":"Lahe","sev":"none"},"geometry":{"type":"Point","coordinates":[95.1654,26.5141]}},{"type":"Feature","properties":{"nmHsp_eng":"Nanyun Township Hospital","lvlHsp_eng":"Township","bedClass":"25","TS_en":"Nanyun","sev":"none"},"geometry":{"type":"Point","coordinates":[96.1683,26.9783]}},{"type":"Feature","properties":{"nmHsp_eng":"Pan Saung Station Hospital","lvlHsp_eng":"Station","bedClass":"16","TS_en":"Nanyun","sev":"none"},"geometry":{"type":"Point","coordinates":[96.1704,27.2359]}},{"type":"Feature","properties":{"nmHsp_eng":"Don Hee (Don Yee Sub-township) Station Hospital","lvlHsp_eng":"Station","bedClass":"16","TS_en":"Nanyun","sev":"none"},"geometry":{"type":"Point","coordinates":[95.793,26.7728]}}]}