{"type":"FeatureCollection","features":[{"type":"Feature","properties":{"ST":"Sagaing","ST_PCODE":"MMR005"},"geometry":{"type":"Polygon","coordinates":[[[94.1422,23.8348],[94.143,23.8421],[94.146,23.8492],[94.1468,23.8499],[94.1525,23.8496],[94.1561,23.8479],[94.1599,23.8623],[94.1697,23.9151],[94.1693,23.9277],[94.1763,23.9257],[94.1883,23.9308],[94.1993,23.9702],[94.2013,23.9811],[94.2122,23.9983],[94.2203,24.0058],[94.2368,24.0303],[94.2381,24.0349],[94.2293,24.0556],[94.233,24.0591],[94.2396,24.0526],[94.2551,24.0809],[94.2523,24.1249],[94.2607,24.1641],[94.2774,24.1717],[94.2824,24.193],[94.2871,24.228],[94.2897,24.2316],[94.296,24.2358],[94.3025,24.2376],[94.3078,24.2458],[94.3233,24.276],[94.3228,24.2921],[94.3235,24.327],[94.3507,24.3334],[94.3765,24.3712],[94.38,24.3778],[94.3661,24.3887],[94.3628,24.3925],[94.3971,24.4087],[94.4034,24.4245],[94.4099,24.4373],[94.3992,24.4523],[94.4003,24.4602],[94.3942,24.4832],[94.422,24.4831],[94.4263,24.4881],[94.4311,24.4949],[94.4392,24.5164],[94.4521,24.5597],[94.4561,24.5705],[94.4661,24.5732],[94.4759,24.5805],[94.5,24.5884],[94.5105,24.5933],[94.5247,24.6175],[94.5416,24.6426],[94.5493,24.6824],[94.5438,24.6972],[94.5439,24.705],[94.5481,24.7082],[94.5537,24.7108],[94.5631,24.7109],[94.5656,24.7075],[94.5685,24.7055],[94.5728,24.7095],[94.5726,24.7181],[94.5793,24.7251],[94.581,24.717],[94.5775,24.7106],[94.5868,24.7043],[94.5931,24.7085],[94.6033,24.7098],[94.6086,24.7152],[94.611,24.7306],[94.6162,24.7438],[94.6233,24.7484],[94.6281,24.7543],[94.6295,24.7597],[94.627,24.7671],[94.623,24.775],[94.621,24.7819],[94.6227,24.7921],[94.6279,24.8029],[94.6329,24.8211],[94.6342,24.836],[94.6377,24.8414],[94.6475,24.8505],[94.6502,24.8562],[94.6512,24.8635],[94.6551,24.8673],[94.6715,24.8744],[94.6837,24.8865],[94.6875,24.8922],[94.6926,24.9035],[94.6987,24.9196],[94.7035,24.9262],[94.7046,24.9297],[94.7101,24.9289],[94.7135,24.9312],[94.7152,24.935],[94.7108,24.9396],[94.7088,24.9453],[94.7091,24.9491],[94.7034,24.953],[94.6973,24.9618],[94.6987,24.9689],[94.7037,24.9826],[94.7093,24.9894],[94.717,24.9926],[94.7249,24.9984],[94.729,25.0043],[94.7302,25.0131],[94.7376,25.0222],[94.7388,25.0293],[94.7428,25.0337],[94.7434,25.0541],[94.7449,25.0614],[94.7394,25.0662],[94.7435,25.075],[94.7452,25.0811],[94.7402,25.0945],[94.7406,25.1025],[94.7376,25.1102],[94.738,25.1149],[94.7415,25.1205],[94.7421,25.1248],[94.7401,25.1296],[94.7367,25.1341],[94.7291,25.134],[94.7187,25.1377],[94.7117,25.1421],[94.705,25.1443],[94.7001,25.1522],[94.6949,25.1563],[94.6897,25.1576],[94.6873,25.1536],[94.6836,25.1503],[94.6802,25.1503],[94.6745,25.1559],[94.6659,25.161],[94.6467,25.1679],[94.6417,25.167],[94.6295,25.1755],[94.6202,25.1865],[94.6076,25.1817],[94.5931,25.1928],[94.5911,25.1983],[94.5855,25.2072],[94.5777,25.2137],[94.5853,25.2304],[94.5863,25.2428],[94.5892,25.2565],[94.5862,25.2653],[94.5894,25.2738],[94.5944,25.2864],[94.6028,25.3017],[94.608,25.3163],[94.6161,25.3264],[94.6221,25.3389],[94.6347,25.3593],[94.6349,25.3691],[94.6336,25.3826],[94.6353,25.3932],[94.638,25.397],[94.6513,25.4054],[94.6586,25.406],[94.664,25.4097],[94.6696,25.4163],[94.6746,25.4253],[94.6727,25.4357],[94.6742,25.4447],[94.6779,25.4468],[94.6842,25.4652],[94.6942,25.466],[94.714,25.471],[94.7201,25.4702],[94.7307,25.4788],[94.7444,25.4821],[94.7496,25.4901],[94.7528,25.4927],[94.7575,25.4914],[94.7627,25.4861],[94.7652,25.4814],[94.7733,25.4801],[94.7841,25.4808],[94.7914,25.4902],[94.7982,25.4899],[94.804,25.4917],[94.8072,25.495],[94.816,25.5152],[94.8203,25.5195],[94.8265,25.5234],[94.8265,25.5272],[94.8248,25.5332],[94.8263,25.5414],[94.8313,25.5444],[94.838,25.5543],[94.8471,25.5619],[94.8545,25.5637],[94.8625,25.5679],[94.8727,25.5644],[94.8811,25.5633],[94.8882,25.5665],[94.8973,25.5679],[94.8964,25.5686],[94.898,25.5702],[94.8917,25.5802],[94.8821,25.588],[94.8819,25.5934],[94.8825,25.5946],[94.888,25.5974],[94.8939,25.5987],[94.9015,25.5988],[94.9154,25.6097],[94.9197,25.6308],[94.9243,25.6457],[94.9287,25.6546],[94.9336,25.6617],[94.9361,25.6692],[94.946,25.675],[94.9548,25.6822],[94.9684,25.6905],[94.9874,25.7049],[94.9901,25.711],[94.9911,25.7191],[94.9943,25.7238],[95.0105,25.7314],[95.0208,25.7307],[95.0242,25.7323],[95.0262,25.7377],[95.0376,25.7406],[95.0466,25.7574],[95.0446,25.7688],[95.0451,25.7771],[95.0458,25.7859],[95.0494,25.7934],[95.0497,25.7975],[95.0327,25.8144],[95.0318,25.8248],[95.0289,25.8362],[95.0248,25.8432],[95.0175,25.8599],[95.01,25.8648],[95.008,25.8712],[95.0107,25.8769],[95.0161,25.8804],[95.0187,25.881],[95.0186,25.8855],[95.0117,25.8971],[95.0165,25.9027],[95.0184,25.9036],[95.0255,25.9132],[95.0312,25.9224],[95.0321,25.928],[95.0376,25.927],[95.0442,25.9285],[95.051,25.9365],[95.063,25.9415],[95.0712,25.9419],[95.0901,25.9517],[95.1063,25.97],[95.1127,25.9739],[95.1177,25.9835],[95.1244,25.9872],[95.1325,25.9966],[95.1423,26.0106],[95.1589,26.0264],[95.1661,26.0524],[95.1758,26.0645],[95.1844,26.0686],[95.1853,26.0741],[95.1708,26.0881],[95.1648,26.0915],[95.1555,26.0907],[95.1483,26.0883],[95.1387,26.096],[95.1324,26.0956],[95.1253,26.0967],[95.1193,26.1004],[95.1166,26.1104],[95.1189,26.118],[95.1252,26.1318],[95.1217,26.1383],[95.1202,26.1433],[95.1224,26.1482],[95.1182,26.1606],[95.1194,26.167],[95.1243,26.1747],[95.1257,26.1802],[95.1221,26.1852],[95.1233,26.1918],[95.1426,26.2119],[95.141,26.2148],[95.1344,26.2151],[95.1173,26.2299],[95.1139,26.2345],[95.1172,26.2411],[95.1235,26.2469],[95.1259,26.2521],[95.1216,26.2605],[95.1219,26.2728],[95.1287,26.2956],[95.1268,26.3037],[95.1237,26.309],[95.1256,26.3218],[95.1231,26.3287],[95.1275,26.3355],[95.1276,26.3414],[95.1241,26.3488],[95.1245,26.3557],[95.1262,26.3633],[95.1304,26.3732],[95.1301,26.3817],[95.1249,26.387],[95.1196,26.3885],[95.1139,26.3924],[95.1081,26.3942],[95.1022,26.3945],[95.0965,26.401],[95.1007,26.4105],[95.1033,26.4199],[95.093,26.4372],[95.0819,26.449],[95.08,26.4488],[95.0768,26.446],[95.0713,26.4466],[95.0652,26.4429],[95.0634,26.4494],[95.0655,26.4584],[95.0709,26.4659],[95.0751,26.475],[95.0876,26.4886],[95.0951,26.4942],[95.1006,26.5045],[95.1088,26.512],[95.1142,26.5197],[95.1138,26.5293],[95.1116,26.5365],[95.1064,26.5413],[95.1223,26.5522],[95.1253,26.5581],[95.1311,26.5582],[95.1356,26.557],[95.1376,26.5617],[95.148,26.5783],[95.1529,26.5835],[95.1483,26.5907],[95.1467,26.6014],[95.1476,26.6071],[95.1472,26.612],[95.1507,26.616],[95.1614,26.6213],[95.1658,26.6252],[95.1676,26.6352],[95.1818,26.6432],[95.1993,26.6427],[95.2123,26.6517],[95.2137,26.6574],[95.2205,26.6642],[95.2342,26.6812],[95.2477,26.6822],[95.2543,26.679],[95.2585,26.6744],[95.2583,26.6554],[95.2666,26.6574],[95.2785,26.6574],[95.2838,26.655],[95.2927,26.6529],[95.3026,26.6525],[95.318,26.6648],[95.3262,26.6665],[95.3378,26.6744],[95.349,26.6737],[95.3598,26.6704],[95.3655,26.6751],[95.372,26.6825],[95.3983,26.6846],[95.4041,26.6933],[95.4182,26.6949],[95.4327,26.7013],[95.4335,26.7115],[95.4364,26.7186],[95.4447,26.7231],[95.4491,26.7295],[95.4551,26.7353],[95.4574,26.7412],[95.4619,26.743],[95.4689,26.7428],[95.4726,26.741],[95.4768,26.7419],[95.4825,26.7468],[95.4855,26.7595],[95.4908,26.7684],[95.4953,26.7788],[95.5025,26.7898],[95.5066,26.808],[95.5163,26.8092],[95.5239,26.8162],[95.5256,26.8235],[95.5348,26.8281],[95.5421,26.8341],[95.5503,26.8332],[95.5574,26.8295],[95.5636,26.8201],[95.5677,26.8163],[95.5869,26.8159],[95.5948,26.8148],[95.6035,26.812],[95.607,26.8124],[95.6109,26.8213],[95.6197,26.8306],[95.6259,26.8443],[95.6288,26.8556],[95.6276,26.8606],[95.6283,26.866],[95.6306,26.8719],[95.6427,26.8757],[95.645,26.8819],[95.6683,26.9026],[95.6928,26.8907],[95.7037,26.8817],[95.714,26.8793],[95.7207,26.8806],[95.7292,26.8904],[95.7421,26.8958],[95.748,26.9052],[95.75,26.9106],[95.7452,26.9195],[95.7452,26.9209],[95.757,26.9346],[95.7604,26.9431],[95.7551,26.9527],[95.7588,26.9616],[95.7641,26.9717],[95.779,26.9785],[95.7813,26.9863],[95.7896,26.9956],[95.7963,26.997],[95.7983,27.0007],[95.8002,27.0135],[95.8084,27.0128],[95.8254,27.0082],[95.8321,27.0079],[95.8419,27.0124],[95.8746,27.0128],[95.8795,27.0233],[95.8908,27.024],[95.8957,27.0263],[95.9002,27.0331],[95.9043,27.0372],[95.9122,27.0364],[95.9329,27.0477],[95.946,27.0507],[95.9528,27.0665],[95.9547,27.0759],[95.9633,27.0857],[95.9652,27.0921],[95.9693,27.1],[95.9795,27.1067],[95.993,27.124],[96.0007,27.1363],[96.0047,27.1391],[96.0148,27.1565],[96.0183,27.1657],[96.019,27.1731],[96.0268,27.1822],[96.0463,27.1906],[96.0637,27.2034],[96.0756,27.2094],[96.0899,27.2229],[96.1098,27.2305],[96.1203,27.2317],[96.1333,27.2389],[96.1429,27.2415],[96.1541,27.247],[96.1731,27.2478],[96.1861,27.2497],[96.1935,27.2586],[96.1969,27.2605],[96.2076,27.2595],[96.2119,27.2619],[96.2283,27.2774],[96.2702,27.2715],[96.2768,27.2842],[96.3002,27.2916],[96.3082,27.2929],[96.3308,27.2851],[96.3418,27.2848],[96.347,27.2879],[96.3503,27.2936],[96.3562,27.2927],[96.3637,27.2877],[96.3693,27.2873],[96.3765,27.2829],[96.385,27.2837],[96.4022,27.291],[96.4067,27.2889],[96.4142,27.294],[96.4163,27.2992],[96.4249,27.3025],[96.4323,27.302],[96.4374,27.3034],[96.445,27.3019],[96.4515,27.302],[96.4564,27.3059],[96.4866,27.2976],[96.4901,27.3007],[96.5075,27.2978],[96.5132,27.2908],[96.5196,27.2854],[96.5204,27.2856],[96.5248,27.2885],[96.5295,27.2949],[96.5421,27.3006],[96.5415,27.3077],[96.5496,27.3135],[96.5525,27.3179],[96.5622,27.3187],[96.5705,27.323],[96.5844,27.3331],[96.5944,27.3339],[96.5942,27.3386],[96.5919,27.3442],[96.5915,27.348],[96.5964,27.3521],[96.5994,27.3576],[96.6044,27.3637],[96.6144,27.3654],[96.6268,27.3651],[96.6495,27.3594],[96.6649,27.3615],[96.6893,27.3578],[96.6967,27.3576],[96.7001,27.3636],[96.7026,27.372],[96.7124,27.3688],[96.7282,27.3603],[96.746,27.3572],[96.7537,27.353],[96.7674,27.3564],[96.778,27.3513],[96.7992,27.3444],[96.8065,27.3286],[96.8236,27.3073],[96.8377,27.2991],[96.8466,27.2896],[96.8508,27.2791],[96.8485,27.2702],[96.8547,27.264],[96.867,27.2581],[96.8842,27.2586],[96.8878,27.2477],[96.8876,27.2436],[96.883,27.2413],[96.8854,27.2296],[96.8803,27.2228],[96.8692,27.2181],[96.8631,27.2129],[96.8554,27.2101],[96.8549,27.1978],[96.8591,27.1902],[96.8957,27.1703],[96.9306,27.1625],[96.9546,27.1625],[96.9625,27.1607],[96.9724,27.1557],[96.9845,27.1536],[96.9947,27.1407],[97.0088,27.139],[97.0333,27.1266],[97.0342,27.1205],[97.0427,27.1143],[97.0467,27.1081],[97.0512,27.1067],[97.0572,27.1015],[97.0639,27.0938],[97.0666,27.0927],[97.0669,27.0914],[97.0569,27.0717],[97.055,27.0662],[97.0525,27.0656],[97.0502,27.056],[97.0419,27.0553],[97.0367,27.0484],[97.0336,27.0423],[97.0358,27.0362],[97.0306,27.0359],[97.0256,27.0376],[97.0111,27.0365],[97.0048,27.039],[96.9976,27.0356],[96.9926,27.0293],[96.9859,27.0237],[96.9546,27.0329],[96.9543,27.0367],[96.9423,27.0448],[96.9332,27.0443],[96.9285,27.0412],[96.9263,27.0423],[96.9199,27.0417],[96.9172,27.0406],[96.9169,27.0412],[96.9085,27.0354],[96.9041,27.0365],[96.8929,27.0464],[96.89,27.0432],[96.8865,27.0432],[96.8848,27.0438],[96.8819,27.0473],[96.8739,27.0462],[96.8628,27.0478],[96.8585,27.0453],[96.8561,27.0452],[96.8498,27.0472],[96.8412,27.0413],[96.8281,27.0447],[96.8067,27.0366],[96.8015,27.0354],[96.7996,27.0358],[96.7945,27.0315],[96.7881,27.0309],[96.774,27.0379],[96.7664,27.0393],[96.7624,27.0374],[96.7557,27.04],[96.7534,27.0397],[96.7488,27.0384],[96.748,27.0369],[96.741,27.0392],[96.7346,27.0326],[96.7288,27.0234],[96.7252,27.0123],[96.7193,27.0015],[96.7105,27.001],[96.6966,26.9929],[96.6811,26.9996],[96.673,26.999],[96.6714,27.004],[96.6531,27.0079],[96.6467,27.0079],[96.6289,27.0026],[96.6111,27.0023],[96.6078,26.9999],[96.5948,26.9976],[96.5859,26.9982],[96.582,26.9954],[96.579,26.9899],[96.5696,26.9824],[96.5662,26.9849],[96.5618,26.9843],[96.5549,26.9885],[96.5496,26.9896],[96.5393,26.9899],[96.5345,26.9952],[96.5257,26.9963],[96.5216,26.9951],[96.5166,26.9921],[96.4972,26.9963],[96.4924,26.9918],[96.4877,26.9907],[96.4841,26.9852],[96.4797,26.9865],[96.4694,26.9946],[96.4694,26.9971],[96.4661,27.0032],[96.4614,27.0043],[96.4553,26.9976],[96.4493,26.9831],[96.4443,26.9823],[96.4301,26.9858],[96.4246,26.9841],[96.4162,26.9943],[96.408,26.9965],[96.4092,27.0027],[96.4054,27.0067],[96.3997,27.0067],[96.3961,27.005],[96.3863,27.0061],[96.3803,27.0057],[96.3751,27.011],[96.3564,27.0132],[96.3509,27.0193],[96.3303,27.0194],[96.3241,27.0088],[96.3065,26.9951],[96.3037,26.9885],[96.2846,26.9854],[96.2705,26.9873],[96.251,26.9826],[96.2362,26.9699],[96.2283,26.9693],[96.2354,26.9604],[96.242,26.9545],[96.2508,26.9574],[96.2549,26.951],[96.2675,26.9505],[96.2759,26.9519],[96.2839,26.951],[96.2996,26.9581],[96.3046,26.9556],[96.3068,26.9555],[96.3147,26.9471],[96.317,26.9397],[96.3144,26.9303],[96.2928,26.926],[96.2893,26.9178],[96.283,26.915],[96.278,26.9096],[96.2838,26.8994],[96.2826,26.8764],[96.2787,26.874],[96.2698,26.874],[96.2573,26.8826],[96.2518,26.8889],[96.2451,26.8889],[96.2315,26.8697],[96.2334,26.8607],[96.2405,26.8557],[96.2455,26.8432],[96.2502,26.8279],[96.2506,26.8111],[96.2483,26.8014],[96.2451,26.7982],[96.2362,26.7959],[96.2248,26.7893],[96.2178,26.7912],[96.2096,26.7908],[96.2061,26.7826],[96.2053,26.7752],[96.1969,26.7569],[96.1942,26.7559],[96.1913,26.7533],[96.1867,26.7533],[96.178,26.7486],[96.16,26.7494],[96.1518,26.7443],[96.1311,26.735],[96.1135,26.7322],[96.1034,26.7256],[96.1006,26.7143],[96.0979,26.7111],[96.1009,26.7056],[96.0896,26.6979],[96.0811,26.689],[96.0745,26.6853],[96.0819,26.6834],[96.0915,26.6842],[96.0915,26.6731],[96.097,26.6716],[96.0949,26.6644],[96.0893,26.6616],[96.0896,26.6575],[96.0811,26.655],[96.0826,26.652],[96.1007,26.645],[96.1304,26.6356],[96.1283,26.6162],[96.136,26.6009],[96.1374,26.5946],[96.1547,26.5821],[96.1644,26.5613],[96.161,26.5481],[96.1769,26.537],[96.1832,26.5245],[96.1763,26.505],[96.1655,26.497],[96.1584,26.4977],[96.152,26.4969],[96.1496,26.4935],[96.1417,26.4925],[96.1342,26.4925],[96.1277,26.496],[96.1226,26.4957],[96.1191,26.4939],[96.1113,26.4975],[96.0997,26.493],[96.0938,26.493],[96.0871,26.4909],[96.0587,26.4907],[96.0548,26.4897],[96.0426,26.4939],[96.0361,26.4919],[96.0174,26.4892],[96.0078,26.4853],[96.0043,26.48],[96.004,26.4746],[96.0055,26.4669],[96.004,26.4615],[96.0099,26.4582],[96.0159,26.4484],[96.0153,26.4463],[96.0114,26.4425],[96.0144,26.4416],[96.0153,26.4389],[96.018,26.4386],[96.0203,26.4348],[96.016,26.4332],[96.0121,26.4259],[96.0099,26.4264],[96.0022,26.4249],[96.0019,26.4205],[96.0004,26.4163],[96.001,26.4095],[95.9992,26.4077],[95.9974,26.4077],[95.9945,26.4056],[95.9939,26.402],[96.001,26.3919],[96.0081,26.3901],[96.0136,26.3922],[96.0161,26.39],[96.0184,26.3899],[96.018,26.3866],[96.0188,26.3857],[96.0257,26.3857],[96.0301,26.3833],[96.0333,26.3779],[96.0298,26.3729],[96.031,26.3711],[96.0355,26.3705],[96.04,26.3669],[96.042,26.3586],[96.0403,26.3559],[96.0417,26.3518],[96.0453,26.35],[96.0462,26.3565],[96.0523,26.3538],[96.054,26.3513],[96.0579,26.3571],[96.062,26.3539],[96.0658,26.3529],[96.0691,26.3555],[96.0713,26.3549],[96.075,26.3519],[96.0799,26.3514],[96.0867,26.3476],[96.0855,26.3428],[96.0804,26.3375],[96.0831,26.3354],[96.0864,26.3354],[96.0884,26.3321],[96.0881,26.3292],[96.0923,26.3283],[96.0931,26.3342],[96.0946,26.3339],[96.0964,26.3294],[96.1017,26.3309],[96.1091,26.3283],[96.1087,26.3271],[96.1035,26.3234],[96.1006,26.3229],[96.1015,26.3196],[96.1054,26.3179],[96.1051,26.3155],[96.1009,26.3146],[96.1,26.308],[96.0977,26.3054],[96.0947,26.3042],[96.095,26.3021],[96.0938,26.2982],[96.095,26.2953],[96.0932,26.292],[96.0899,26.2899],[96.0881,26.2872],[96.0878,26.2831],[96.0953,26.2854],[96.1012,26.2813],[96.0994,26.2795],[96.095,26.2816],[96.092,26.2813],[96.092,26.2789],[96.0974,26.2771],[96.0975,26.2728],[96.0902,26.2721],[96.0873,26.2753],[96.0861,26.2726],[96.0739,26.2652],[96.0739,26.2625],[96.0783,26.2602],[96.0798,26.2575],[96.0751,26.2399],[96.0774,26.2358],[96.0795,26.2358],[96.0825,26.2381],[96.0822,26.2438],[96.0801,26.248],[96.0822,26.2515],[96.0843,26.2518],[96.0878,26.245],[96.0913,26.2414],[96.0927,26.2373],[96.0937,26.2377],[96.0942,26.2426],[96.1051,26.2393],[96.1024,26.2367],[96.0962,26.2375],[96.0929,26.2352],[96.0923,26.2334],[96.0941,26.2313],[96.0959,26.2316],[96.0989,26.2352],[96.1021,26.2298],[96.1105,26.2304],[96.1116,26.2289],[96.1054,26.2245],[96.106,26.2215],[96.1087,26.2206],[96.1128,26.2239],[96.1179,26.2245],[96.1188,26.2265],[96.1226,26.2291],[96.1206,26.225],[96.1232,26.2234],[96.125,26.2244],[96.1268,26.2215],[96.125,26.2149],[96.1283,26.212],[96.1334,26.2108],[96.1348,26.2075],[96.1342,26.1968],[96.1363,26.1914],[96.1345,26.1888],[96.1238,26.1885],[96.1218,26.1864],[96.1259,26.1784],[96.1241,26.1757],[96.1197,26.1748],[96.1191,26.1718],[96.1206,26.1697],[96.1253,26.1674],[96.1313,26.1662],[96.1351,26.1623],[96.1408,26.1593],[96.1561,26.155],[96.1563,26.1477],[96.1622,26.1433],[96.161,26.1403],[96.1574,26.137],[96.1572,26.1334],[96.156,26.1326],[96.1527,26.1334],[96.1521,26.1305],[96.1539,26.1275],[96.1503,26.1266],[96.1521,26.1221],[96.1569,26.1177],[96.1595,26.118],[96.1604,26.1123],[96.1539,26.1076],[96.1527,26.1052],[96.1545,26.1019],[96.1566,26.1058],[96.1592,26.1043],[96.1604,26.0966],[96.1521,26.0951],[96.1554,26.0918],[96.1554,26.0891],[96.161,26.0876],[96.1613,26.0829],[96.1643,26.0811],[96.1699,26.0796],[96.1682,26.0763],[96.1628,26.0757],[96.1628,26.0737],[96.1667,26.0716],[96.1679,26.0677],[96.1702,26.0656],[96.1762,26.0665],[96.1845,26.0636],[96.1845,26.0591],[96.1815,26.0579],[96.1809,26.0549],[96.1827,26.0499],[96.1726,26.0311],[96.1798,26.0293],[96.1806,26.0279],[96.1806,26.0234],[96.1783,26.0195],[96.1753,26.0172],[96.169,26.0207],[96.161,26.0118],[96.1592,26.006],[96.1463,26.006],[96.1423,26.0079],[96.1372,26.0088],[96.1307,26.0053],[96.1229,26.0035],[96.1221,26.002],[96.1238,25.9984],[96.1191,25.9895],[96.1182,25.9856],[96.1191,25.9821],[96.1152,25.9764],[96.1206,25.966],[96.1212,25.9592],[96.1182,25.9532],[96.1179,25.9461],[96.1188,25.9413],[96.1143,25.9368],[96.1122,25.9315],[96.1122,25.919],[96.1005,25.9108],[96.1012,25.9103],[96.0893,25.9017],[96.0852,25.8976],[96.1,25.8887],[96.1093,25.8818],[96.1128,25.8765],[96.114,25.8577],[96.1247,25.8435],[96.1224,25.839],[96.1271,25.8229],[96.1259,25.8182],[96.1161,25.8039],[96.1182,25.7905],[96.12,25.7875],[96.1235,25.784],[96.1289,25.7807],[96.1375,25.7807],[96.1414,25.778],[96.1485,25.77],[96.1494,25.7658],[96.1488,25.7596],[96.1554,25.759],[96.1699,25.7521],[96.1726,25.7557],[96.1768,25.7566],[96.1824,25.756],[96.1824,25.7521],[96.1875,25.7533],[96.1896,25.756],[96.192,25.7507],[96.197,25.7521],[96.2015,25.7489],[96.2012,25.7391],[96.2044,25.7346],[96.2095,25.7346],[96.2107,25.7316],[96.2104,25.7286],[96.2157,25.7254],[96.2134,25.7218],[96.2095,25.7206],[96.208,25.7173],[96.2125,25.7138],[96.2137,25.7066],[96.2065,25.6971],[96.2083,25.6944],[96.2074,25.6909],[96.2009,25.6879],[96.1949,25.6864],[96.1961,25.6811],[96.2,25.6748],[96.2089,25.6703],[96.214,25.6703],[96.2163,25.6686],[96.2035,25.6651],[96.1992,25.6616],[96.1967,25.6577],[96.1881,25.6528],[96.1828,25.6446],[96.1818,25.6398],[96.1732,25.6351],[96.1649,25.6387],[96.1603,25.6316],[96.1541,25.6261],[96.1385,25.6264],[96.1318,25.6214],[96.1166,25.6148],[96.0998,25.6256],[96.0913,25.6207],[96.0892,25.6144],[96.0791,25.6043],[96.0693,25.5789],[96.0611,25.5699],[96.0494,25.5785],[96.0502,25.5851],[96.0072,25.614],[96.0003,25.618],[95.9927,25.6195],[95.9885,25.6222],[95.9802,25.6251],[95.9762,25.6299],[95.9729,25.6308],[95.9706,25.6302],[95.9679,25.6243],[95.9679,25.6202],[95.9647,25.6192],[95.9579,25.6118],[95.9647,25.5011],[95.9632,25.4663],[95.9638,25.455],[95.9626,25.4416],[95.9641,25.4286],[95.962,25.3541],[95.9604,25.3353],[95.962,25.3275],[95.9677,25.3171],[95.9722,25.3157],[95.9706,25.3007],[95.9745,25.2905],[95.9849,25.2881],[95.9845,25.2851],[95.9889,25.2831],[95.9928,25.2774],[95.9939,25.2736],[95.9912,25.2614],[95.9924,25.2575],[95.9901,25.2524],[95.9932,25.2472],[95.9943,25.2415],[95.9951,25.2159],[95.9981,25.2098],[96.0073,25.2048],[96.0111,25.1964],[96.0172,25.1903],[96.018,25.1831],[96.0199,25.177],[96.0229,25.1732],[96.0237,25.1701],[96.0313,25.1632],[96.0424,25.1602],[96.0451,25.1564],[96.0466,25.1518],[96.0466,25.1468],[96.0437,25.1423],[96.0466,25.135],[96.0554,25.1335],[96.0539,25.1308],[96.0527,25.1235],[96.0489,25.1205],[96.0481,25.1159],[96.0493,25.1144],[96.0516,25.1136],[96.0597,25.1187],[96.0586,25.1153],[96.0594,25.1123],[96.0562,25.0995],[96.0535,25.0976],[96.0523,25.0937],[96.0535,25.0911],[96.0573,25.0888],[96.076,25.0876],[96.0761,25.0844],[96.0781,25.0788],[96.0747,25.0604],[96.0793,25.0509],[96.0754,25.0467],[96.0712,25.0314],[96.0712,25.0295],[96.0736,25.0264],[96.0716,25.0141],[96.0687,25.0128],[96.0667,25.0077],[96.0667,25.0035],[96.0705,24.9982],[96.067,24.9936],[96.059,24.9902],[96.0521,24.976],[96.0483,24.9634],[96.0434,24.9581],[96.0434,24.9528],[96.0392,24.955],[96.0347,24.953],[96.0313,24.9496],[96.0293,24.9507],[96.0281,24.9528],[96.0212,24.9486],[96.0105,24.9508],[96.0079,24.9539],[96.0079,24.9642],[96.0121,24.9768],[96.0128,25.0051],[96.0159,25.0062],[96.0159,25.0096],[96.0227,25.0184],[96.0254,25.018],[96.0269,25.015],[96.03,25.0177],[96.0319,25.0169],[96.0376,25.0226],[96.0376,25.0161],[96.0407,25.0169],[96.0432,25.021],[96.0404,25.0261],[96.0418,25.0364],[96.0399,25.0448],[96.0434,25.0459],[96.0441,25.0528],[96.0472,25.0568],[96.0472,25.0619],[96.0394,25.0676],[96.0395,25.073],[96.0359,25.072],[96.0303,25.0756],[96.0288,25.0774],[96.0283,25.0805],[96.0244,25.0805],[96.0251,25.0861],[96.023,25.0856],[96.0197,25.0813],[96.0186,25.0834],[96.0189,25.086],[96.0157,25.0874],[96.0163,25.0917],[96.0126,25.092],[96.006,25.0757],[96.0026,25.0722],[96.0017,25.0562],[96.0034,25.0522],[96.0037,25.047],[96.0003,25.0427],[95.9963,25.0416],[95.9985,25.0327],[95.9951,25.031],[96.0017,25.0261],[96.0063,25.0207],[96.0,25.0115],[95.9954,25.0132],[95.9931,25.0104],[95.9931,25.0052],[95.9888,25.0078],[95.9885,25.0035],[95.9859,25.0055],[95.9782,25.0049],[95.9739,24.9992],[95.9716,24.9989],[95.9699,25.0043],[95.9673,25.0043],[95.9653,25.0026],[95.9645,24.9989],[95.9613,24.996],[95.9413,24.998],[95.9358,24.995],[95.9158,24.996],[95.9038,24.9945],[95.8967,24.9915],[95.8907,24.9854],[95.892,24.9828],[95.8962,24.9825],[95.8969,24.9815],[95.895,24.9759],[95.8831,24.9677],[95.876,24.9645],[95.8578,24.9623],[95.8337,24.9624],[95.8268,24.965],[95.8235,24.9642],[95.8219,24.9664],[95.814,24.9673],[95.8086,24.9649],[95.8062,24.96],[95.8097,24.9576],[95.8147,24.9581],[95.8201,24.9533],[95.824,24.9458],[95.8185,24.9426],[95.8249,24.9351],[95.8294,24.9342],[95.8466,24.9199],[95.8655,24.9156],[95.861,24.9072],[95.8641,24.8957],[95.8802,24.8827],[95.8802,24.8714],[95.8766,24.8701],[95.8774,24.8621],[95.8756,24.8514],[95.872,24.8376],[95.8687,24.8333],[95.8693,24.826],[95.874,24.8218],[95.8834,24.8179],[95.8846,24.816],[95.8844,24.8084],[95.8825,24.8065],[95.8826,24.7997],[95.8848,24.7986],[95.8922,24.7697],[95.9105,24.7488],[95.911,24.7426],[95.9016,24.7275],[95.912,24.7056],[95.9199,24.7093],[95.936,24.7113],[95.9416,24.7082],[95.9465,24.7091],[95.9532,24.7171],[95.9568,24.7176],[95.9556,24.7058],[95.9584,24.6889],[95.966,24.6875],[95.9678,24.679],[95.9731,24.6792],[95.9772,24.6775],[95.9792,24.6665],[95.9903,24.6731],[95.9908,24.6682],[95.9924,24.6675],[95.9966,24.6674],[95.9967,24.6686],[95.9986,24.6688],[96.0001,24.6714],[96.002,24.6717],[96.0037,24.6703],[96.0105,24.6679],[96.0208,24.6666],[96.0269,24.6632],[96.0293,24.6696],[96.0296,24.6811],[96.0373,24.6855],[96.0414,24.6853],[96.0439,24.6822],[96.0454,24.6821],[96.0458,24.6792],[96.0479,24.6814],[96.0514,24.681],[96.0532,24.6817],[96.0546,24.6814],[96.0547,24.6794],[96.0574,24.6807],[96.058,24.6798],[96.0599,24.6798],[96.06,24.6853],[96.0576,24.6906],[96.0594,24.6894],[96.065,24.6816],[96.066,24.682],[96.0685,24.679],[96.073,24.6776],[96.0736,24.6793],[96.0771,24.679],[96.0792,24.6755],[96.0848,24.6708],[96.0745,24.6613],[96.0694,24.6525],[96.078,24.651],[96.0844,24.651],[96.0878,24.6521],[96.0963,24.643],[96.0987,24.6354],[96.1037,24.6321],[96.1075,24.6262],[96.1061,24.6162],[96.1043,24.6132],[96.0948,24.61],[96.091,24.607],[96.0945,24.5946],[96.1019,24.584],[96.1152,24.5698],[96.1459,24.5494],[96.1598,24.5455],[96.1627,24.5424],[96.1648,24.5382],[96.1686,24.5347],[96.1778,24.5291],[96.1854,24.5306],[96.1869,24.532],[96.1873,24.5362],[96.1961,24.5378],[96.1973,24.5387],[96.1926,24.5397],[96.1922,24.5429],[96.1896,24.5476],[96.1902,24.5486],[96.1967,24.5475],[96.1994,24.5485],[96.2016,24.5509],[96.204,24.5502],[96.2016,24.5492],[96.2008,24.5477],[96.2002,24.5394],[96.1968,24.5299],[96.1976,24.5258],[96.2007,24.5209],[96.2003,24.5198],[96.1934,24.5179],[96.1867,24.4969],[96.1849,24.4798],[96.1999,24.4798],[96.2113,24.4863],[96.2139,24.4895],[96.2213,24.4931],[96.219,24.4963],[96.2246,24.501],[96.2246,24.5049],[96.2269,24.5067],[96.2307,24.506],[96.2532,24.5146],[96.2597,24.5143],[96.265,24.5155],[96.2745,24.522],[96.2801,24.5196],[96.2825,24.5168],[96.2999,24.5067],[96.3066,24.5061],[96.325,24.5078],[96.3273,24.5126],[96.3362,24.5208],[96.3495,24.5172],[96.3587,24.5189],[96.3646,24.5157],[96.3695,24.5146],[96.3742,24.5152],[96.3774,24.5241],[96.3882,24.5241],[96.4072,24.5277],[96.4114,24.5362],[96.4176,24.5401],[96.4173,24.546],[96.4238,24.5512],[96.4258,24.5503],[96.4264,24.5444],[96.4324,24.5411],[96.4324,24.5442],[96.4364,24.549],[96.4401,24.5473],[96.4358,24.5419],[96.4346,24.5375],[96.4365,24.5373],[96.4454,24.5326],[96.4477,24.5284],[96.4486,24.5202],[96.4555,24.5202],[96.4607,24.5173],[96.4657,24.5185],[96.4671,24.5159],[96.4778,24.5152],[96.4799,24.5134],[96.4822,24.5102],[96.4824,24.5079],[96.4847,24.506],[96.4878,24.5006],[96.4855,24.4951],[96.4986,24.4856],[96.5044,24.4914],[96.514,24.4908],[96.5254,24.498],[96.5332,24.4964],[96.5346,24.4971],[96.5372,24.4953],[96.539,24.4924],[96.5424,24.4922],[96.5491,24.4866],[96.5522,24.4853],[96.5551,24.4807],[96.5536,24.4745],[96.5561,24.4719],[96.5698,24.4719],[96.5731,24.4738],[96.5758,24.4684],[96.579,24.4712],[96.5796,24.4758],[96.5829,24.4758],[96.5868,24.4826],[96.5923,24.4823],[96.5946,24.4762],[96.5964,24.4775],[96.6087,24.4666],[96.6217,24.4598],[96.63,24.4577],[96.6332,24.4457],[96.6361,24.4421],[96.6312,24.4372],[96.6332,24.4346],[96.6322,24.4307],[96.6391,24.4356],[96.6433,24.4362],[96.6408,24.4317],[96.6454,24.4298],[96.6397,24.4271],[96.6397,24.4248],[96.643,24.4235],[96.643,24.4193],[96.6368,24.4173],[96.6332,24.4141],[96.6335,24.4062],[96.6363,24.4008],[96.6325,24.4014],[96.6296,24.4007],[96.6205,24.4045],[96.6188,24.4033],[96.6183,24.4015],[96.6119,24.402],[96.6106,24.4052],[96.6087,24.4072],[96.6044,24.402],[96.6038,24.3977],[96.6057,24.3923],[96.6034,24.3949],[96.5988,24.3933],[96.5966,24.3966],[96.5951,24.3971],[96.5869,24.3973],[96.5822,24.3957],[96.5838,24.3883],[96.5885,24.3828],[96.592,24.3727],[96.5969,24.3687],[96.5772,24.3625],[96.567,24.3555],[96.5623,24.3469],[96.5635,24.3383],[96.5709,24.3199],[96.5773,24.3128],[96.5838,24.318],[96.6033,24.318],[96.6018,24.3004],[96.5967,24.291],[96.5959,24.2852],[96.5961,24.2708],[96.5862,24.2594],[96.5776,24.2571],[96.5697,24.2492],[96.5674,24.2422],[96.5705,24.2363],[96.5786,24.2358],[96.579,24.2328],[96.5763,24.225],[96.5871,24.2216],[96.5926,24.2177],[96.5976,24.2182],[96.5996,24.2175],[96.6039,24.2136],[96.6067,24.2124],[96.6075,24.2096],[96.6093,24.2093],[96.6168,24.1978],[96.6155,24.1936],[96.6221,24.1936],[96.6281,24.1907],[96.6338,24.1906],[96.6349,24.1897],[96.635,24.1882],[96.6381,24.1866],[96.6528,24.1737],[96.6587,24.1701],[96.6616,24.1632],[96.6658,24.1593],[96.6631,24.1577],[96.6579,24.159],[96.65,24.158],[96.645,24.1535],[96.6274,24.1457],[96.6125,24.1519],[96.5775,24.1589],[96.5582,24.1549],[96.5377,24.1307],[96.5326,24.119],[96.5192,24.1012],[96.5088,24.1039],[96.5021,24.1109],[96.493,24.1113],[96.4908,24.1085],[96.4851,24.1078],[96.4797,24.1056],[96.4745,24.1065],[96.4671,24.1035],[96.4567,24.1008],[96.4428,24.0898],[96.4416,24.0855],[96.4392,24.0858],[96.4335,24.0736],[96.4281,24.0669],[96.4187,24.0584],[96.4129,24.057],[96.412,24.053],[96.4053,24.0418],[96.3901,24.0279],[96.3901,24.0243],[96.3977,24.019],[96.4092,24.0059],[96.4138,24.0066],[96.4172,24.0061],[96.4253,23.9987],[96.4327,23.9957],[96.435,23.9966],[96.4384,24.0006],[96.4455,24.0062],[96.4604,24.0139],[96.4687,24.0168],[96.4825,24.0151],[96.5073,24.0057],[96.5088,24.0028],[96.5077,23.996],[96.5086,23.9914],[96.5168,23.9762],[96.5174,23.9697],[96.5114,23.9593],[96.509,23.9509],[96.5105,23.9447],[96.5139,23.9368],[96.5281,23.9091],[96.5288,23.9024],[96.5261,23.8919],[96.5258,23.8868],[96.5269,23.8822],[96.5296,23.8782],[96.5329,23.8766],[96.5405,23.8764],[96.5451,23.8734],[96.5536,23.8618],[96.5572,23.8558],[96.5593,23.848],[96.5606,23.8327],[96.5605,23.8251],[96.5593,23.8225],[96.5568,23.8214],[96.5465,23.8222],[96.5405,23.8198],[96.5351,23.8127],[96.531,23.8047],[96.526,23.7862],[96.5196,23.7698],[96.5148,23.7525],[96.5073,23.7421],[96.4986,23.7341],[96.4907,23.7288],[96.4884,23.7258],[96.4836,23.7267],[96.4788,23.7247],[96.4715,23.726],[96.4572,23.7103],[96.4539,23.703],[96.4465,23.6986],[96.4402,23.6972],[96.4377,23.6951],[96.4369,23.6917],[96.4393,23.6799],[96.4374,23.6732],[96.4322,23.6716],[96.4319,23.67],[96.434,23.6531],[96.4373,23.6441],[96.4373,23.6345],[96.4237,23.6291],[96.4193,23.6258],[96.4179,23.6243],[96.4171,23.6206],[96.4188,23.6105],[96.4049,23.5979],[96.4035,23.5971],[96.4009,23.5975],[96.3962,23.5943],[96.3953,23.5915],[96.3975,23.5871],[96.3935,23.5818],[96.3934,23.5806],[96.396,23.5777],[96.3934,23.5732],[96.3926,23.5696],[96.3895,23.5705],[96.3827,23.5769],[96.3778,23.5781],[96.3726,23.5837],[96.3711,23.587],[96.3732,23.5977],[96.3722,23.6019],[96.3704,23.6073],[96.3641,23.6163],[96.3598,23.6178],[96.3558,23.6214],[96.3513,23.6186],[96.342,23.6307],[96.3399,23.6347],[96.3372,23.6332],[96.3311,23.6334],[96.3306,23.6302],[96.3248,23.6292],[96.3235,23.6339],[96.3201,23.6321],[96.3176,23.6333],[96.3155,23.6421],[96.3029,23.639],[96.2944,23.6274],[96.2873,23.6251],[96.283,23.6279],[96.2808,23.6307],[96.276,23.6302],[96.2704,23.6269],[96.2665,23.6258],[96.2694,23.6188],[96.2737,23.6146],[96.2719,23.6098],[96.2682,23.61],[96.2615,23.6063],[96.2604,23.6035],[96.2601,23.5944],[96.2536,23.5848],[96.2505,23.5758],[96.2417,23.5745],[96.2382,23.5775],[96.2281,23.5773],[96.2243,23.5813],[96.2221,23.5823],[96.2224,23.5859],[96.2191,23.5856],[96.2142,23.5893],[96.2142,23.5932],[96.216,23.5979],[96.2142,23.5998],[96.2113,23.6007],[96.2102,23.6003],[96.208,23.5959],[96.2024,23.5921],[96.1992,23.5936],[96.1929,23.5916],[96.1909,23.5952],[96.1853,23.5947],[96.1846,23.5921],[96.1773,23.5914],[96.1752,23.5936],[96.1692,23.5936],[96.1629,23.5868],[96.1586,23.5861],[96.1551,23.5838],[96.1546,23.5798],[96.1498,23.5753],[96.1475,23.571],[96.1445,23.569],[96.1386,23.5805],[96.1372,23.5905],[96.1402,23.6133],[96.1422,23.6192],[96.1372,23.6249],[96.1322,23.6327],[96.1221,23.6342],[96.1213,23.6377],[96.1311,23.65],[96.1342,23.6524],[96.1302,23.6622],[96.1333,23.6655],[96.1335,23.6706],[96.1365,23.6801],[96.1269,23.6828],[96.1181,23.6838],[96.109,23.682],[96.0924,23.6715],[96.0884,23.6629],[96.0808,23.6576],[96.0793,23.6541],[96.0836,23.6508],[96.0916,23.648],[96.0934,23.6435],[96.0889,23.6407],[96.0866,23.6293],[96.0838,23.6241],[96.076,23.6219],[96.068,23.6171],[96.0619,23.6085],[96.0581,23.6095],[96.0516,23.6188],[96.047,23.6173],[96.041,23.613],[96.0347,23.6025],[96.0304,23.5876],[96.0274,23.5838],[96.0256,23.5727],[96.0163,23.5579],[96.0123,23.5447],[96.0113,23.5212],[96.0099,23.5118],[95.9967,23.5143],[95.9772,23.5307],[95.9701,23.5329],[95.969,23.5313],[95.9686,23.5252],[95.9659,23.5153],[95.9635,23.5106],[95.966,23.4864],[95.9652,23.4827],[95.9677,23.4781],[95.9637,23.4678],[95.9668,23.4606],[95.9502,23.4557],[95.9433,23.4488],[95.9384,23.4453],[95.9357,23.4401],[95.9357,23.4353],[95.9298,23.4343],[95.9232,23.436],[95.9201,23.4318],[95.9197,23.4225],[95.9159,23.4221],[95.9121,23.4128],[95.907,23.4089],[95.9065,23.4019],[95.9084,23.3929],[95.9029,23.3771],[95.9041,23.3703],[95.9137,23.3617],[95.9186,23.3607],[95.9197,23.3555],[95.9238,23.3459],[95.9301,23.337],[95.9457,23.3376],[95.9502,23.3311],[95.9497,23.3228],[95.948,23.3161],[95.9501,23.3136],[95.9501,23.3113],[95.947,23.3061],[95.9412,23.302],[95.9412,23.2994],[95.9332,23.2866],[95.9311,23.2873],[95.9298,23.2806],[95.9307,23.2746],[95.936,23.2656],[95.9433,23.2635],[95.9488,23.2596],[95.951,23.2526],[95.9579,23.2523],[95.9587,23.2474],[95.9519,23.2214],[95.9537,23.2178],[95.9522,23.204],[95.9532,23.1978],[95.9576,23.1901],[95.9616,23.1797],[95.9592,23.1661],[95.9802,23.1593],[95.9849,23.1417],[95.9919,23.1305],[95.994,23.1211],[95.9936,23.1165],[95.995,23.1089],[95.9935,23.1037],[95.9789,23.0912],[95.9746,23.0838],[95.9765,23.0799],[95.9765,23.0728],[95.9838,23.0651],[95.9803,23.0402],[95.9808,23.0272],[95.9747,23.019],[95.9731,23.0127],[95.9758,23.001],[95.9757,22.9939],[95.978,22.9797],[95.9791,22.9644],[95.9765,22.9553],[95.9697,22.9415],[95.9666,22.9276],[95.9699,22.9132],[95.9695,22.9024],[95.9649,22.8759],[95.9653,22.8564],[95.968,22.8368],[95.9656,22.8061],[95.9685,22.752],[95.9671,22.7453],[95.965,22.7418],[95.9534,22.7366],[95.9394,22.7373],[95.9327,22.7355],[95.9043,22.7225],[95.9005,22.7148],[95.9001,22.7106],[95.9034,22.7],[95.9097,22.6924],[95.9103,22.6899],[95.905,22.6768],[95.9047,22.6731],[95.9106,22.664],[95.9149,22.6551],[95.9176,22.6523],[95.9271,22.6476],[95.9354,22.6414],[95.9373,22.6384],[95.9376,22.6233],[95.9459,22.6011],[95.9546,22.5892],[95.9734,22.568],[95.9765,22.5615],[95.982,22.5438],[95.9957,22.5277],[95.9944,22.5259],[95.9929,22.5176],[95.9862,22.5148],[95.982,22.5104],[95.9767,22.5093],[95.9738,22.5015],[95.9747,22.4927],[95.9661,22.4829],[95.9608,22.4751],[95.9606,22.4606],[95.9685,22.4449],[95.9685,22.4372],[95.9578,22.4155],[95.9596,22.4077],[95.959,22.3952],[95.9616,22.3843],[95.9641,22.379],[95.973,22.3654],[95.9856,22.3525],[95.9945,22.3353],[95.9974,22.3348],[95.9973,22.3284],[96.0101,22.3183],[96.0086,22.303],[96.0098,22.2964],[95.9952,22.2951],[95.9858,22.2981],[95.979,22.2856],[95.9843,22.2774],[95.9865,22.2562],[95.9885,22.207],[95.99,22.2013],[95.9952,22.1951],[95.9914,22.1932],[95.9887,22.1807],[95.9887,22.1733],[95.9937,22.1651],[95.9977,22.1612],[95.9965,22.1522],[95.9918,22.1405],[95.9922,22.1253],[95.9941,22.119],[95.9941,22.1108],[95.9973,22.103],[96.0035,22.0964],[96.0113,22.0835],[96.0164,22.0718],[96.0225,22.046],[96.0188,22.0191],[96.0137,22.0034],[96.0152,21.9917],[96.018,21.985],[96.0246,21.9772],[96.0242,21.9694],[96.0207,21.9593],[96.0156,21.9518],[96.0164,21.9432],[96.0188,21.9378],[96.0144,21.9306],[96.0127,21.9211],[96.0084,21.9104],[96.0,21.8817],[95.9915,21.8696],[95.9741,21.863],[95.9608,21.8597],[95.938,21.8521],[95.9272,21.8515],[95.9227,21.8529],[95.9125,21.8596],[95.9062,21.8741],[95.8964,21.8841],[95.8723,21.9001],[95.8375,21.9064],[95.8276,21.9057],[95.8217,21.9088],[95.8109,21.9116],[95.7948,21.9201],[95.7836,21.9217],[95.7715,21.9192],[95.7573,21.9181],[95.738,21.9184],[95.7181,21.9283],[95.7117,21.9298],[95.7037,21.9284],[95.6864,21.9216],[95.6733,21.9197],[95.6332,21.9209],[95.6192,21.9231],[95.6055,21.9225],[95.5968,21.9209],[95.5878,21.9216],[95.5679,21.9119],[95.5421,21.9109],[95.5358,21.9078],[95.5237,21.9068],[95.5038,21.896],[95.4946,21.8867],[95.4842,21.8714],[95.4801,21.8634],[95.4736,21.8628],[95.4768,21.858],[95.4601,21.841],[95.4523,21.8285],[95.4358,21.8117],[95.4316,21.7996],[95.4265,21.8007],[95.4194,21.7992],[95.4066,21.7949],[95.403,21.7906],[95.4054,21.7859],[95.4128,21.7765],[95.4215,21.7626],[95.4208,21.756],[95.4178,21.7536],[95.416,21.7494],[95.416,21.7438],[95.4106,21.7382],[95.3976,21.7329],[95.3825,21.7222],[95.377,21.7161],[95.3753,21.7119],[95.3696,21.7037],[95.3668,21.6876],[95.3677,21.6782],[95.3661,21.6754],[95.3663,21.656],[95.3653,21.645],[95.3562,21.6371],[95.3502,21.6223],[95.3458,21.608],[95.3463,21.5927],[95.345,21.5853],[95.343,21.5824],[95.342,21.5759],[95.3301,21.5861],[95.3249,21.6055],[95.3216,21.6275],[95.3196,21.6295],[95.3108,21.6307],[95.3044,21.636],[95.3026,21.6395],[95.3069,21.6473],[95.2981,21.6536],[95.2786,21.6597],[95.2692,21.6615],[95.2488,21.6707],[95.2473,21.6726],[95.243,21.6745],[95.2438,21.693],[95.2435,21.7146],[95.2416,21.7168],[95.2267,21.7267],[95.2238,21.7323],[95.2064,21.7395],[95.1996,21.7529],[95.2009,21.7551],[95.201,21.766],[95.1975,21.7711],[95.1906,21.775],[95.1812,21.784],[95.172,21.8],[95.1621,21.8091],[95.1607,21.8113],[95.1611,21.8178],[95.1641,21.8261],[95.1631,21.8313],[95.1636,21.8345],[95.1528,21.8391],[95.1397,21.8419],[95.1339,21.8443],[95.1331,21.8498],[95.1204,21.8558],[95.1103,21.8518],[95.0972,21.8544],[95.0911,21.8517],[95.0868,21.8509],[95.0817,21.8523],[95.0771,21.8506],[95.0733,21.8477],[95.0628,21.8358],[95.0611,21.8354],[95.0533,21.8375],[95.0484,21.8368],[95.0461,21.834],[95.0457,21.8299],[95.0413,21.8317],[95.0364,21.8402],[95.0335,21.8411],[95.0311,21.8392],[95.0302,21.8307],[95.0283,21.8293],[95.0249,21.8297],[95.0205,21.8328],[95.0152,21.8323],[94.9906,21.8249],[94.9858,21.8262],[94.9818,21.8298],[94.976,21.8324],[94.9707,21.8333],[94.938,21.8337],[94.9311,21.8359],[94.9257,21.8332],[94.9054,21.8389],[94.8918,21.8477],[94.8761,21.8549],[94.8703,21.8626],[94.8678,21.8639],[94.8577,21.8642],[94.8475,21.861],[94.8418,21.8569],[94.8394,21.8564],[94.8394,21.8555],[94.836,21.8545],[94.8268,21.854],[94.823,21.8526],[94.8085,21.8529],[94.7882,21.8477],[94.7877,21.8464],[94.7868,21.8464],[94.7813,21.8409],[94.7778,21.8392],[94.7725,21.8417],[94.7705,21.8417],[94.7693,21.8392],[94.7703,21.8313],[94.7671,21.8326],[94.7623,21.8317],[94.7544,21.8275],[94.7499,21.8283],[94.7439,21.836],[94.742,21.8402],[94.738,21.8404],[94.7375,21.8445],[94.7356,21.8431],[94.7346,21.844],[94.7312,21.844],[94.7307,21.8453],[94.7293,21.8444],[94.7239,21.8448],[94.722,21.847],[94.7229,21.848],[94.718,21.8515],[94.7147,21.8519],[94.7146,21.8533],[94.7122,21.8546],[94.7117,21.8564],[94.7088,21.8573],[94.7088,21.8555],[94.7054,21.8545],[94.7054,21.8536],[94.7035,21.8536],[94.703,21.855],[94.6996,21.8558],[94.6972,21.8581],[94.687,21.8616],[94.6865,21.8625],[94.6787,21.8642],[94.6746,21.8636],[94.6707,21.8643],[94.6607,21.8725],[94.6554,21.8698],[94.6554,21.8689],[94.6506,21.8688],[94.6472,21.867],[94.6429,21.8665],[94.6415,21.8642],[94.6386,21.8624],[94.6352,21.8619],[94.6343,21.8605],[94.6222,21.8604],[94.6202,21.8622],[94.6178,21.8626],[94.6164,21.8612],[94.6111,21.8593],[94.6097,21.8566],[94.6082,21.8562],[94.6121,21.8512],[94.6107,21.8512],[94.6112,21.8476],[94.6076,21.8439],[94.6006,21.8441],[94.5956,21.833],[94.5934,21.8327],[94.5881,21.8379],[94.5828,21.8378],[94.5795,21.8355],[94.5636,21.8345],[94.5561,21.842],[94.5489,21.8454],[94.5405,21.8377],[94.544,21.8277],[94.5444,21.8225],[94.5408,21.8149],[94.5443,21.7931],[94.5438,21.7918],[94.5371,21.7881],[94.5298,21.7889],[94.5158,21.7878],[94.5129,21.7846],[94.5052,21.7841],[94.5022,21.787],[94.4962,21.7865],[94.4947,21.7912],[94.492,21.7948],[94.4853,21.7975],[94.4778,21.8037],[94.4645,21.8097],[94.4595,21.8188],[94.4525,21.8231],[94.4471,21.8218],[94.4389,21.8239],[94.4351,21.823],[94.4327,21.824],[94.4277,21.8292],[94.4234,21.8296],[94.4224,21.8309],[94.4142,21.8317],[94.4132,21.8348],[94.4086,21.8387],[94.408,21.8419],[94.4125,21.8461],[94.4128,21.8563],[94.4152,21.8628],[94.4108,21.8633],[94.4096,21.8717],[94.415,21.8861],[94.4187,21.9128],[94.419,21.9241],[94.4242,21.9321],[94.4214,21.9366],[94.42,21.9433],[94.4252,21.9631],[94.4249,21.9659],[94.4195,21.9719],[94.4147,21.9816],[94.4096,21.9878],[94.4083,21.9938],[94.4085,22.0009],[94.4191,22.0263],[94.4229,22.03],[94.4325,22.0319],[94.4349,22.0333],[94.4354,22.0346],[94.4355,22.0488],[94.4341,22.0543],[94.4352,22.0597],[94.4321,22.0668],[94.4218,22.0779],[94.4198,22.093],[94.4247,22.1036],[94.425,22.1082],[94.4167,22.1366],[94.4124,22.136],[94.4095,22.1313],[94.4024,22.1295],[94.3973,22.1235],[94.3896,22.1198],[94.3844,22.1197],[94.3814,22.1172],[94.3763,22.1183],[94.3741,22.1223],[94.3736,22.1214],[94.3703,22.1244],[94.3659,22.12],[94.3605,22.117],[94.3578,22.1188],[94.356,22.1237],[94.3504,22.1277],[94.3422,22.1299],[94.3414,22.1354],[94.3301,22.1398],[94.3253,22.1442],[94.3198,22.1431],[94.3154,22.1367],[94.3111,22.1342],[94.2975,22.1366],[94.2964,22.1516],[94.2928,22.1594],[94.2879,22.1683],[94.2786,22.1777],[94.2707,22.1904],[94.2681,22.2058],[94.262,22.2221],[94.2658,22.2348],[94.2665,22.2424],[94.2591,22.2489],[94.256,22.2531],[94.254,22.2705],[94.2527,22.2748],[94.2524,22.2861],[94.2484,22.2924],[94.2449,22.296],[94.2451,22.3004],[94.2583,22.3149],[94.2627,22.3176],[94.2676,22.3149],[94.2676,22.3379],[94.2609,22.3473],[94.2609,22.3535],[94.2707,22.3665],[94.2699,22.3741],[94.267,22.3796],[94.2658,22.3872],[94.2629,22.391],[94.2609,22.3971],[94.2638,22.4006],[94.2705,22.4051],[94.2728,22.4089],[94.2743,22.4185],[94.2774,22.4278],[94.2754,22.4328],[94.2757,22.4368],[94.281,22.4403],[94.2794,22.4571],[94.2814,22.4677],[94.2763,22.4731],[94.2768,22.4798],[94.2759,22.489],[94.2692,22.499],[94.2634,22.4986],[94.2545,22.5079],[94.2582,22.5158],[94.2587,22.5198],[94.2481,22.5449],[94.2473,22.5577],[94.2446,22.5655],[94.235,22.5774],[94.2324,22.583],[94.2292,22.5854],[94.214,22.6071],[94.209,22.6201],[94.204,22.6273],[94.2029,22.6352],[94.1996,22.643],[94.1939,22.6492],[94.1944,22.6617],[94.1868,22.6684],[94.1769,22.6797],[94.1763,22.6847],[94.1728,22.6889],[94.1647,22.6923],[94.152,22.6956],[94.1438,22.6959],[94.1353,22.6887],[94.1315,22.6871],[94.1295,22.6876],[94.1268,22.6921],[94.1165,22.6985],[94.1157,22.7041],[94.1197,22.7142],[94.1197,22.7193],[94.1157,22.7262],[94.1049,22.7287],[94.1,22.7289],[94.0974,22.7322],[94.0994,22.7365],[94.1045,22.7376],[94.1101,22.7351],[94.1161,22.7343],[94.1197,22.7349],[94.1197,22.7423],[94.1181,22.7485],[94.117,22.7626],[94.1188,22.7686],[94.1152,22.7711],[94.1016,22.7706],[94.1023,22.7675],[94.1076,22.7628],[94.1093,22.7595],[94.1065,22.7579],[94.0974,22.7588],[94.0924,22.7566],[94.0869,22.7521],[94.0804,22.7492],[94.078,22.7414],[94.0761,22.74],[94.0752,22.7364],[94.0574,22.7309],[94.0411,22.736],[94.0079,22.7371],[94.0029,22.7542],[94.0052,22.7574],[94.0081,22.7715],[94.0068,22.7771],[93.9965,22.7947],[93.9956,22.8029],[93.9946,22.8064],[93.9921,22.8087],[93.9906,22.8132],[93.99,22.8213],[93.9873,22.8304],[93.9889,22.8331],[93.9989,22.8333],[94.0126,22.836],[94.0172,22.8527],[94.0124,22.8726],[94.0104,22.8766],[94.0103,22.8846],[94.0033,22.8928],[94.0113,22.9051],[94.0112,22.9101],[94.0027,22.9217],[93.9949,22.9247],[93.9954,22.9293],[93.992,22.9355],[93.9896,22.9467],[93.9947,22.9487],[94.0025,22.948],[94.0067,22.9447],[94.0195,22.9467],[94.0237,22.9481],[94.0255,22.9514],[94.0184,22.9567],[94.0177,22.9614],[94.0204,22.9661],[94.0172,22.9688],[94.0059,22.9681],[94.0014,22.9712],[93.9896,22.9724],[93.9893,22.9752],[93.9927,22.9784],[94.0006,22.9825],[93.9989,22.9893],[93.9987,22.9955],[94.002,22.9987],[94.0007,23.0015],[94.0,23.0077],[94.0022,23.0124],[94.002,23.0206],[94.0037,23.0337],[94.0014,23.0484],[94.0035,23.0522],[94.0045,23.0574],[94.0025,23.0674],[93.9994,23.0727],[93.9977,23.08],[93.9938,23.086],[93.9902,23.0839],[93.9859,23.0837],[93.9816,23.086],[93.977,23.0901],[93.9739,23.0991],[93.9744,23.1054],[93.9718,23.1187],[93.977,23.1252],[93.9765,23.1288],[93.9715,23.1319],[93.9679,23.1414],[93.9618,23.1469],[93.9613,23.1525],[93.9667,23.1613],[93.9641,23.1671],[93.9591,23.1678],[93.9534,23.1663],[93.9507,23.1684],[93.9462,23.1799],[93.9488,23.1816],[93.9567,23.1823],[93.9611,23.1837],[93.9632,23.1861],[93.962,23.1954],[93.9594,23.2003],[93.9593,23.2067],[93.9556,23.2144],[93.9546,23.2203],[93.9574,23.2253],[93.9611,23.2273],[93.9713,23.2268],[93.9761,23.2325],[93.9802,23.2344],[93.9888,23.2272],[93.9904,23.2287],[93.99,23.2389],[93.9918,23.245],[93.9918,23.2516],[93.9954,23.2543],[93.9995,23.2546],[93.9998,23.2659],[94.0034,23.2711],[94.0046,23.2779],[94.0008,23.2849],[94.0014,23.287],[94.0105,23.2905],[94.004,23.3119],[94.0034,23.326],[94.0055,23.3501],[94.0034,23.3713],[93.9904,23.3785],[93.9857,23.3843],[93.9811,23.388],[93.973,23.3904],[93.9706,23.3933],[93.968,23.3938],[93.9636,23.3973],[93.955,23.4008],[93.9569,23.4024],[93.9662,23.4012],[93.9813,23.3943],[93.9857,23.3943],[93.9883,23.3966],[93.992,23.3971],[94.0037,23.3941],[94.0042,23.3927],[94.0097,23.3897],[94.0172,23.3776],[94.019,23.3775],[94.0199,23.3739],[94.0172,23.3671],[94.0207,23.366],[94.0243,23.3727],[94.024,23.3771],[94.025,23.3771],[94.0254,23.3798],[94.0295,23.3848],[94.026,23.3912],[94.026,23.3953],[94.0305,23.4033],[94.0304,23.4067],[94.0284,23.4124],[94.031,23.4255],[94.0366,23.4321],[94.0351,23.442],[94.036,23.4442],[94.034,23.4526],[94.034,23.4591],[94.0298,23.4779],[94.0339,23.4817],[94.0272,23.5249],[94.0242,23.5307],[94.0161,23.5414],[94.0097,23.544],[94.0165,23.5486],[94.0263,23.5654],[94.0337,23.571],[94.04,23.5734],[94.0448,23.5715],[94.0507,23.5651],[94.0574,23.5632],[94.0692,23.5557],[94.0757,23.5475],[94.0788,23.5396],[94.0801,23.532],[94.0805,23.5265],[94.0791,23.5239],[94.0796,23.5216],[94.0827,23.5158],[94.0896,23.5132],[94.093,23.5165],[94.093,23.5222],[94.088,23.5335],[94.0884,23.5392],[94.0941,23.5435],[94.1007,23.5441],[94.1008,23.5432],[94.1076,23.5424],[94.111,23.5433],[94.1157,23.5547],[94.1167,23.5547],[94.1181,23.557],[94.1195,23.5658],[94.118,23.5758],[94.1204,23.5889],[94.1195,23.5985],[94.1213,23.6035],[94.1193,23.6129],[94.122,23.622],[94.1276,23.6316],[94.1297,23.6465],[94.1321,23.6515],[94.129,23.658],[94.1281,23.6652],[94.1323,23.6741],[94.1497,23.6911],[94.1419,23.6961],[94.1373,23.7039],[94.1386,23.7102],[94.1373,23.7207],[94.1405,23.7276],[94.153,23.7391],[94.153,23.7476],[94.1488,23.7614],[94.1373,23.7742],[94.1373,23.7828],[94.1392,23.7953],[94.1382,23.8018],[94.1336,23.8107],[94.1336,23.8183],[94.1375,23.8275],[94.1422,23.8348]]]}}]}