{"type":"FeatureCollection","features":[{"type":"Feature","properties":{"Name":"","Type":"","key":0},"geometry":{"type":"Polygon","coordinates":[[[95.8888,22.0792],[95.8894,22.0778],[95.8888,22.0771],[95.8872,22.0772],[95.886,22.0785],[95.8864,22.0792],[95.8888,22.0792]]]}},{"type":"Feature","properties":{"Name":"","Type":"","key":0},"geometry":{"type":"Polygon","coordinates":[[[95.7,23.0902],[95.6991,23.0905],[95.699,23.0916],[95.701,23.0932],[95.7,23.0902]]]}},{"type":"Feature","properties":{"Name":"","Type":"","key":0},"geometry":{"type":"Polygon","coordinates":[[[95.9051,22.0492],[95.904,22.0493],[95.904,22.0502],[95.905,22.0502],[95.9051,22.0492]]]}},{"type":"Feature","properties":{"Name":"","Type":"","key":0},"geometry":{"type":"Polygon","coordinates":[[[95.8993,22.052],[95.8988,22.052],[95.8988,22.0525],[95.8993,22.0525],[95.8993,22.052]]]}},{"type":"Feature","properties":{"Name":"Taung Yama","Type":"Reservoir","key":0},"geometry":{"type":"Polygon","coordinates":[[[94.7207,21.8331],[94.7223,21.832],[94.7233,21.8295],[94.7256,21.8292],[94.7285,21.8278],[94.7313,21.8279],[94.7359,21.8255],[94.7363,21.8243],[94.7342,21.8148],[94.7307,21.8132],[94.7272,21.8128],[94.7272,21.8136],[94.7295,21.8149],[94.7308,21.8171],[94.7308,21.8192],[94.7292,21.8176],[94.7278,21.8175],[94.724,21.8199],[94.7215,21.8199],[94.7214,21.8235],[94.7228,21.8232],[94.7229,21.8251],[94.7222,21.8271],[94.7208,21.8286],[94.7205,21.8305],[94.719,21.8319],[94.7207,21.8331]],[[94.7317,21.8174],[94.7318,21.8164],[94.7331,21.8164],[94.7327,21.8173],[94.7317,21.8174]]]}},{"type":"Feature","properties":{"Name":"","Type":"","key":0},"geometry":{"type":"Polygon","coordinates":[[[95.9051,22.0524],[95.904,22.0525],[95.9041,22.0534],[95.905,22.0534],[95.9051,22.0524]]]}},{"type":"Feature","properties":{"Name":"","Type":"","key":0},"geometry":{"type":"Polygon","coordinates":[[[95.7074,23.0933],[95.707,23.0933],[95.7068,23.0933],[95.7074,23.0933]]]}},{"type":"Feature","properties":{"Name":"Let tauk in","Type":"Inn","key":0},"geometry":{"type":"Polygon","coordinates":[[[96.0288,21.8364],[96.029,21.8346],[96.0303,21.8328],[96.0298,21.8302],[96.0317,21.8216],[96.0263,21.8189],[96.0228,21.8183],[96.0185,21.8186],[96.0176,21.8202],[96.0201,21.8227],[96.0195,21.8244],[96.0214,21.8253],[96.0227,21.8271],[96.0245,21.8314],[96.0248,21.8341],[96.0263,21.8363],[96.0288,21.8364]],[[96.0233,21.8253],[96.0248,21.8238],[96.0254,21.8216],[96.0255,21.8248],[96.0233,21.8253]]]}},{"type":"Feature","properties":{"Name":"","Type":"","key":0},"geometry":{"type":"Polygon","coordinates":[[[95.9096,22.0521],[95.908,22.0541],[95.9082,22.0553],[95.9095,22.0546],[95.9096,22.0521]]]}},{"type":"Feature","properties":{"Name":"","Type":"","key":0},"geometry":{"type":"Polygon","coordinates":[[[95.9016,22.053],[95.9008,22.0533],[95.9006,22.0542],[95.9024,22.0567],[95.9028,22.0547],[95.9016,22.053]]]}},{"type":"Feature","properties":{"Name":"","Type":"","key":0},"geometry":{"type":"Polygon","coordinates":[[[95.907,22.0578],[95.9032,22.0579],[95.9024,22.0585],[95.9061,22.0589],[95.907,22.0578]]]}},{"type":"Feature","properties":{"Name":"Ngwe tha","Type":"Dam","key":0},"geometry":{"type":"Polygon","coordinates":[[[95.0314,21.9169],[95.0349,21.9102],[95.0368,21.9091],[95.0374,21.9068],[95.0405,21.9074],[95.042,21.9069],[95.0412,21.9055],[95.0409,21.9025],[95.0364,21.8984],[95.031,21.8986],[95.0292,21.9],[95.0275,21.9002],[95.0262,21.8999],[95.0249,21.8983],[95.0245,21.8995],[95.0254,21.9027],[95.0305,21.9024],[95.033,21.904],[95.0304,21.9078],[95.0313,21.9106],[95.0285,21.9129],[95.0296,21.9144],[95.03,21.9164],[95.0314,21.9169]]]}},{"type":"Feature","properties":{"Name":"Taung tha man in","Type":"Inn","key":0},"geometry":{"type":"Polygon","coordinates":[[[96.0739,21.8994],[96.0717,21.8969],[96.0692,21.8979],[96.0621,21.8943],[96.0618,21.888],[96.0632,21.8816],[96.0609,21.8798],[96.0567,21.8797],[96.0519,21.8782],[96.05,21.8749],[96.0508,21.8733],[96.0496,21.871],[96.0476,21.8713],[96.0471,21.8748],[96.0501,21.8764],[96.0502,21.8771],[96.0474,21.8773],[96.0446,21.8759],[96.0436,21.877],[96.0443,21.879],[96.0401,21.8784],[96.038,21.8792],[96.0385,21.8805],[96.0426,21.8837],[96.0483,21.8856],[96.0492,21.889],[96.0505,21.8901],[96.0535,21.891],[96.0536,21.8921],[96.0521,21.8935],[96.0525,21.8961],[96.0517,21.9002],[96.0524,21.9029],[96.0555,21.9077],[96.0641,21.909],[96.068,21.909],[96.0758,21.906],[96.0766,21.9047],[96.0762,21.9025],[96.0719,21.9037],[96.0705,21.9029],[96.0712,21.9019],[96.071,21.9002],[96.0739,21.8994]],[[96.0579,21.8929],[96.0565,21.892],[96.0563,21.8913],[96.0593,21.8915],[96.0593,21.8927],[96.0579,21.8929]]]}},{"type":"Feature","properties":{"Name":"","Type":"","key":0},"geometry":{"type":"Polygon","coordinates":[[[94.5567,21.9566],[94.5562,21.9568],[94.5564,21.9582],[94.5567,21.9579],[94.5567,21.9566]]]}},{"type":"Feature","properties":{"Name":"","Type":"","key":0},"geometry":{"type":"Polygon","coordinates":[[[95.8821,22.0637],[95.881,22.0638],[95.8811,22.0647],[95.882,22.0647],[95.8821,22.0637]]]}},{"type":"Feature","properties":{"Name":"","Type":"","key":0},"geometry":{"type":"Polygon","coordinates":[[[95.9059,22.0627],[95.9048,22.063],[95.9056,22.0643],[95.9059,22.064],[95.9059,22.0627]]]}},{"type":"Feature","properties":{"Name":"Kan daw gyi","Type":"Inn","key":0},"geometry":{"type":"Polygon","coordinates":[[[96.0591,21.9472],[96.0586,21.944],[96.0568,21.9443],[96.0562,21.946],[96.0582,21.9471],[96.0568,21.9486],[96.0564,21.9517],[96.057,21.9535],[96.0619,21.952],[96.0647,21.9538],[96.0684,21.9542],[96.0695,21.9537],[96.0714,21.9512],[96.0717,21.9493],[96.0698,21.9465],[96.0673,21.9452],[96.0691,21.9435],[96.0696,21.9412],[96.0726,21.9405],[96.072,21.9377],[96.0682,21.9332],[96.0671,21.9297],[96.0627,21.9262],[96.0577,21.9265],[96.0568,21.9272],[96.0571,21.931],[96.0597,21.9321],[96.0615,21.9339],[96.0613,21.941],[96.0624,21.9415],[96.0639,21.9411],[96.0646,21.9425],[96.0645,21.9444],[96.0631,21.9456],[96.0618,21.9459],[96.0606,21.9438],[96.0601,21.944],[96.0608,21.9468],[96.0591,21.9472]]]}},{"type":"Feature","properties":{"Name":"","Type":"","key":0},"geometry":{"type":"Polygon","coordinates":[[[94.665,21.9782],[94.6707,21.9767],[94.6709,21.974],[94.6651,21.9712],[94.6645,21.9703],[94.6647,21.9685],[94.6639,21.9682],[94.6631,21.9692],[94.6632,21.9729],[94.665,21.9782]]]}},{"type":"Feature","properties":{"Name":"","Type":"","key":0},"geometry":{"type":"Polygon","coordinates":[[[95.0621,22.0229],[95.0602,22.0222],[95.0611,22.0239],[95.056,22.0214],[95.0544,22.022],[95.0538,22.0207],[95.0525,22.0201],[95.0524,22.0225],[95.0533,22.0225],[95.0537,22.0233],[95.0522,22.0236],[95.0523,22.024],[95.0545,22.0233],[95.058,22.0262],[95.0579,22.0243],[95.0593,22.0244],[95.0602,22.0251],[95.0596,22.0262],[95.0602,22.0263],[95.0617,22.0253],[95.0682,22.0246],[95.0679,22.0227],[95.0688,22.0221],[95.0698,22.023],[95.0708,22.0188],[95.0673,22.0157],[95.0655,22.0166],[95.0659,22.0178],[95.0643,22.0181],[95.0634,22.0189],[95.0601,22.0185],[95.0632,22.0201],[95.0621,22.0229]]]}},{"type":"Feature","properties":{"Name":"Yama","Type":"Reservoir","key":0},"geometry":{"type":"Polygon","coordinates":[[[94.6734,22.0567],[94.6775,22.0531],[94.6757,22.048],[94.6719,22.0491],[94.6672,22.0474],[94.6664,22.0476],[94.6659,22.0488],[94.6675,22.0512],[94.6684,22.0565],[94.6734,22.0567]]]}},{"type":"Feature","properties":{"Name":"","Type":"","key":0},"geometry":{"type":"Polygon","coordinates":[[[95.8724,22.0422],[95.8713,22.0423],[95.8713,22.0432],[95.8723,22.0432],[95.8724,22.0422]]]}},{"type":"Feature","properties":{"Name":"","Type":"","key":0},"geometry":{"type":"Polygon","coordinates":[[[95.047,22.1188],[95.052,22.1138],[95.0515,22.1124],[95.0484,22.1098],[95.0458,22.1095],[95.0442,22.1083],[95.0422,22.1084],[95.0405,22.1097],[95.0381,22.1102],[95.0378,22.1126],[95.0394,22.1123],[95.0384,22.1143],[95.039,22.1165],[95.0406,22.1161],[95.0438,22.1183],[95.047,22.1188]]]}},{"type":"Feature","properties":{"Name":"","Type":"","key":0},"geometry":{"type":"Polygon","coordinates":[[[95.1259,22.1252],[95.122,22.1281],[95.1213,22.1305],[95.1225,22.1326],[95.1226,22.1347],[95.1241,22.1359],[95.1255,22.1355],[95.1267,22.134],[95.1291,22.1287],[95.1269,22.1252],[95.1259,22.1252]],[[95.1239,22.1294],[95.1247,22.1311],[95.1235,22.1315],[95.1229,22.1311],[95.1239,22.1294]]]}},{"type":"Feature","properties":{"Name":"","Type":"","key":0},"geometry":{"type":"Polygon","coordinates":[[[95.7018,23.0934],[95.7015,23.0937],[95.7016,23.0945],[95.7018,23.0943],[95.7018,23.0934]]]}},{"type":"Feature","properties":{"Name":"","Type":"","key":0},"geometry":{"type":"Polygon","coordinates":[[[95.7027,23.0956],[95.7023,23.0956],[95.7022,23.0956],[95.7027,23.0956]]]}},{"type":"Feature","properties":{"Name":"","Type":"","key":0},"geometry":{"type":"Polygon","coordinates":[[[95.7018,23.0961],[95.7016,23.0961],[95.7016,23.0961],[95.7018,23.0961]]]}},{"type":"Feature","properties":{"Name":"","Type":"","key":0},"geometry":{"type":"Polygon","coordinates":[[[95.31,22.1571],[95.3107,22.1583],[95.3115,22.1581],[95.3099,22.1567],[95.307,22.1581],[95.3036,22.1563],[95.3036,22.1554],[95.3026,22.1548],[95.3029,22.154],[95.3042,22.1542],[95.3048,22.1532],[95.3063,22.1533],[95.3075,22.1522],[95.3083,22.1523],[95.3086,22.1514],[95.3078,22.1503],[95.3062,22.1528],[95.3042,22.1525],[95.3037,22.1504],[95.3031,22.151],[95.3033,22.1532],[95.2992,22.1535],[95.299,22.156],[95.3026,22.1569],[95.3046,22.159],[95.3045,22.1598],[95.3074,22.1593],[95.3072,22.1613],[95.3077,22.1617],[95.3088,22.1589],[95.3085,22.1582],[95.309,22.1584],[95.31,22.1571]]]}},{"type":"Feature","properties":{"Name":"","Type":"","key":0},"geometry":{"type":"Polygon","coordinates":[[[95.2204,22.4173],[95.2203,22.4145],[95.2187,22.4133],[95.218,22.4114],[95.2213,22.409],[95.2213,22.4073],[95.2141,22.4072],[95.2128,22.4097],[95.213,22.4128],[95.2199,22.4181],[95.2213,22.4181],[95.2204,22.4173]]]}},{"type":"Feature","properties":{"Name":"","Type":"","key":0},"geometry":{"type":"Polygon","coordinates":[[[95.7073,23.0917],[95.7076,23.0909],[95.7089,23.0904],[95.7088,23.0897],[95.7062,23.0899],[95.7062,23.0912],[95.7073,23.0917]]]}},{"type":"Feature","properties":{"Name":"","Type":"","key":0},"geometry":{"type":"Polygon","coordinates":[[[95.5267,23.1563],[95.5285,23.1541],[95.5293,23.1515],[95.5299,23.1518],[95.5297,23.1536],[95.5306,23.1551],[95.5319,23.1529],[95.5325,23.1542],[95.5332,23.1542],[95.5329,23.1519],[95.5348,23.1501],[95.5349,23.149],[95.5331,23.1473],[95.5306,23.1469],[95.5304,23.1461],[95.5348,23.1437],[95.5353,23.1423],[95.5362,23.1417],[95.5344,23.1417],[95.5348,23.1401],[95.5344,23.1401],[95.5317,23.1415],[95.5306,23.1393],[95.5317,23.1387],[95.53,23.1377],[95.5263,23.1437],[95.5243,23.1503],[95.5267,23.1514],[95.5257,23.1532],[95.5265,23.1539],[95.5267,23.1563]]]}},{"type":"Feature","properties":{"Name":"Ka le in","Type":"Inn","key":0},"geometry":{"type":"Polygon","coordinates":[[[95.9725,22.6104],[95.9747,22.6097],[95.9774,22.6075],[95.9823,22.5958],[95.9862,22.5927],[95.9855,22.5896],[95.9858,22.5845],[95.9815,22.5825],[95.9809,22.58],[95.9812,22.5779],[95.9797,22.5769],[95.9789,22.5753],[95.978,22.5757],[95.9773,22.5774],[95.9763,22.5836],[95.9766,22.5859],[95.9756,22.5886],[95.9763,22.5906],[95.9762,22.5937],[95.9735,22.5968],[95.9716,22.5981],[95.9714,22.5949],[95.9696,22.5942],[95.9672,22.5979],[95.9676,22.6007],[95.9668,22.6028],[95.9674,22.6098],[95.9725,22.6104]]]}},{"type":"Feature","properties":{"Name":"","Type":"","key":0},"geometry":{"type":"Polygon","coordinates":[[[95.6995,23.3543],[95.6995,23.351],[95.6977,23.3485],[95.6997,23.3466],[95.6955,23.3448],[95.6953,23.3459],[95.6964,23.3473],[95.6966,23.3492],[95.6975,23.3505],[95.6973,23.3524],[95.6995,23.3543]]]}},{"type":"Feature","properties":{"Name":"","Type":"","key":0},"geometry":{"type":"Polygon","coordinates":[[[95.6917,23.3665],[95.6918,23.3654],[95.6894,23.3623],[95.6909,23.3579],[95.6908,23.3542],[95.6925,23.3531],[95.6942,23.3549],[95.6964,23.3532],[95.6956,23.3523],[95.6916,23.3516],[95.6912,23.3497],[95.6884,23.3523],[95.6875,23.3515],[95.6875,23.3495],[95.6867,23.3493],[95.6856,23.3507],[95.6852,23.3549],[95.6819,23.3551],[95.6791,23.3543],[95.6783,23.3566],[95.6764,23.3583],[95.6747,23.357],[95.6697,23.3574],[95.6678,23.3568],[95.6662,23.3577],[95.6634,23.3578],[95.6606,23.3611],[95.6608,23.3631],[95.6628,23.3652],[95.664,23.3647],[95.6655,23.3627],[95.6714,23.3651],[95.6714,23.3638],[95.67,23.3619],[95.6712,23.3598],[95.6727,23.3593],[95.6772,23.3597],[95.6786,23.3589],[95.6801,23.356],[95.683,23.3558],[95.6848,23.3572],[95.686,23.3593],[95.6875,23.3645],[95.6917,23.3665]]]}},{"type":"Feature","properties":{"Name":"","Type":"","key":0},"geometry":{"type":"Polygon","coordinates":[[[95.3928,23.5428],[95.3916,23.5436],[95.3928,23.545],[95.3933,23.5444],[95.3928,23.5428]]]}},{"type":"Feature","properties":{"Name":"","Type":"","key":0},"geometry":{"type":"Polygon","coordinates":[[[95.3935,23.5504],[95.3924,23.5505],[95.3924,23.5514],[95.3934,23.5514],[95.3935,23.5504]]]}},{"type":"Feature","properties":{"Name":"In daung in","Type":"Inn","key":0},"geometry":{"type":"Polygon","coordinates":[[[96.3056,23.8972],[96.3046,23.8964],[96.3066,23.8954],[96.3072,23.8927],[96.3069,23.8833],[96.3028,23.8742],[96.3024,23.8711],[96.3006,23.867],[96.2973,23.8645],[96.2962,23.8659],[96.2942,23.866],[96.2914,23.8641],[96.2875,23.8631],[96.2871,23.8639],[96.2878,23.8662],[96.2894,23.868],[96.2894,23.8692],[96.2881,23.8699],[96.2843,23.8692],[96.2837,23.8708],[96.2848,23.8735],[96.2819,23.8735],[96.2815,23.8748],[96.2831,23.8769],[96.2842,23.8805],[96.2862,23.881],[96.2873,23.8827],[96.289,23.8832],[96.2896,23.8854],[96.2914,23.888],[96.2951,23.8901],[96.2933,23.8913],[96.2921,23.8942],[96.2922,23.8966],[96.2952,23.8962],[96.299,23.8948],[96.3,23.896],[96.302,23.8965],[96.3053,23.8992],[96.3056,23.8972]],[[96.2882,23.8813],[96.2882,23.8804],[96.2886,23.8803],[96.2887,23.8812],[96.2882,23.8813]]]}},{"type":"Feature","properties":{"Name":"Sa nwin bo in","Type":"Inn","key":0},"geometry":{"type":"Polygon","coordinates":[[[96.3575,24.0363],[96.3596,24.0339],[96.3612,24.0292],[96.3652,24.0266],[96.3676,24.0241],[96.3627,24.0201],[96.3624,24.0183],[96.3588,24.0187],[96.357,24.0178],[96.3552,24.0187],[96.3532,24.0167],[96.3541,24.0164],[96.356,24.0171],[96.3597,24.0148],[96.3602,24.014],[96.3595,24.0131],[96.3625,24.0121],[96.3659,24.0071],[96.3657,24.0064],[96.3622,24.0051],[96.3624,24.0027],[96.3604,23.9984],[96.3573,23.9958],[96.3542,23.9954],[96.353,23.9926],[96.3517,23.9915],[96.3485,23.9908],[96.3473,23.989],[96.3446,23.9893],[96.338,23.9886],[96.3359,23.9899],[96.3356,23.9859],[96.3378,23.985],[96.3394,23.9829],[96.3401,23.9806],[96.3393,23.979],[96.338,23.9789],[96.3352,23.9807],[96.3317,23.9819],[96.3274,23.9798],[96.3258,23.9771],[96.3234,23.9767],[96.3225,23.9755],[96.3209,23.975],[96.3201,23.9727],[96.3102,23.9737],[96.309,23.9685],[96.307,23.965],[96.3069,23.9627],[96.3031,23.9663],[96.2998,23.9663],[96.2992,23.9672],[96.2998,23.9699],[96.2995,23.9735],[96.3024,23.9743],[96.3049,23.9759],[96.3049,23.9775],[96.3064,23.9787],[96.3074,23.982],[96.3115,23.985],[96.3137,23.9858],[96.314,23.9883],[96.3129,23.9865],[96.3116,23.9863],[96.3093,23.9877],[96.3086,23.9888],[96.3095,23.9918],[96.3126,23.9927],[96.3127,23.9944],[96.3118,23.9956],[96.3129,23.997],[96.3166,24.0001],[96.3191,24.0012],[96.3224,24.0008],[96.3252,24.0022],[96.3257,24.0015],[96.3249,24.0003],[96.3251,23.9986],[96.3243,23.9973],[96.3247,23.9951],[96.3266,23.9999],[96.3309,24.0026],[96.3338,24.0023],[96.3352,24.003],[96.3374,24.0018],[96.3376,24.0011],[96.3362,23.997],[96.3347,23.996],[96.3346,23.993],[96.3354,23.9924],[96.3362,23.9932],[96.3366,23.9963],[96.3382,23.9994],[96.3383,24.0019],[96.3364,24.0056],[96.334,24.006],[96.3344,24.0064],[96.3328,24.0062],[96.3328,24.0067],[96.3349,24.0069],[96.3396,24.0052],[96.3415,24.0053],[96.3421,24.0092],[96.3415,24.0104],[96.3398,24.0074],[96.334,24.0095],[96.33,24.0066],[96.3267,24.0064],[96.3251,24.0055],[96.324,24.0058],[96.3239,24.007],[96.323,24.008],[96.32,24.0089],[96.3198,24.0102],[96.321,24.0114],[96.3238,24.0116],[96.3257,24.0126],[96.327,24.0124],[96.3277,24.0106],[96.3282,24.0107],[96.3262,24.0184],[96.3246,24.0194],[96.3244,24.0178],[96.3236,24.0182],[96.323,24.0201],[96.3234,24.0237],[96.3223,24.0256],[96.318,24.0281],[96.3188,24.0302],[96.3182,24.0318],[96.3171,24.0327],[96.3235,24.0343],[96.325,24.0328],[96.327,24.0335],[96.3282,24.0316],[96.3344,24.0317],[96.3363,24.0304],[96.3397,24.0297],[96.3427,24.032],[96.3442,24.0309],[96.3434,24.034],[96.3461,24.0358],[96.3575,24.0363]],[[96.3513,24.0287],[96.3516,24.0278],[96.3536,24.0279],[96.3524,24.0286],[96.3513,24.0287]],[[96.3554,24.0259],[96.3577,24.023],[96.3615,24.0217],[96.3598,24.0238],[96.3554,24.0259]],[[96.3534,24.0152],[96.3529,24.0148],[96.3533,24.0148],[96.3534,24.0152]],[[96.3491,24.0126],[96.347,24.0119],[96.3451,24.007],[96.347,24.0084],[96.3491,24.0126]],[[96.3509,24.0109],[96.3513,24.0099],[96.352,24.0113],[96.3517,24.0113],[96.3509,24.0109]],[[96.3238,24.0105],[96.3229,24.0109],[96.3226,24.0103],[96.324,24.0089],[96.3238,24.0105]],[[96.3554,24.0043],[96.3554,24.0034],[96.356,24.0033],[96.3561,24.0042],[96.3554,24.0043]],[[96.3131,23.9835],[96.3131,23.9832],[96.3131,23.9831],[96.3131,23.9835]],[[96.3039,23.9675],[96.3046,23.9666],[96.3061,23.9679],[96.3055,23.968],[96.3039,23.9675]]]}},{"type":"Feature","properties":{"Name":"In daw","Type":"Lake","key":0},"geometry":{"type":"Polygon","coordinates":[[[96.1245,24.2678],[96.13,24.2649],[96.1324,24.2631],[96.1341,24.2608],[96.1337,24.2565],[96.1357,24.2507],[96.1325,24.2483],[96.1314,24.2451],[96.1278,24.2408],[96.1256,24.2402],[96.1199,24.2406],[96.1203,24.2387],[96.1218,24.2372],[96.1216,24.2354],[96.1235,24.2342],[96.1235,24.2321],[96.1208,24.2285],[96.1176,24.2274],[96.1152,24.2274],[96.1131,24.2298],[96.1127,24.2339],[96.1085,24.2366],[96.1073,24.2395],[96.1078,24.2459],[96.1074,24.2489],[96.1082,24.2538],[96.1105,24.2568],[96.1108,24.2616],[96.1128,24.2646],[96.1171,24.2658],[96.1184,24.2672],[96.1197,24.2659],[96.1209,24.2657],[96.1245,24.2678]]]}},{"type":"Feature","properties":{"Name":"Ne yin za ya","Type":"Reservoir","key":0},"geometry":{"type":"Polygon","coordinates":[[[94.0903,23.5265],[94.0895,23.5294],[94.0841,23.5323],[94.0836,23.5344],[94.0853,23.5363],[94.0827,23.5382],[94.0838,23.5401],[94.0849,23.5444],[94.0872,23.5453],[94.0873,23.5468],[94.0891,23.5489],[94.09,23.5517],[94.0909,23.5506],[94.0918,23.553],[94.0928,23.5488],[94.095,23.552],[94.0965,23.5485],[94.0962,23.5464],[94.0992,23.5454],[94.0995,23.5442],[94.0981,23.5409],[94.0982,23.5395],[94.0968,23.5386],[94.0985,23.5366],[94.0982,23.5333],[94.0944,23.5274],[94.0903,23.5265]],[[94.092,23.5492],[94.092,23.5506],[94.0914,23.5507],[94.0913,23.5495],[94.092,23.5492]],[[94.0913,23.5485],[94.0917,23.5487],[94.0913,23.5487],[94.0913,23.5485]],[[94.0972,23.5412],[94.0969,23.5417],[94.0965,23.5417],[94.0966,23.5413],[94.0972,23.5412]],[[94.0865,23.5365],[94.0862,23.5375],[94.0856,23.5377],[94.0858,23.5366],[94.0865,23.5365]]]}},{"type":"Feature","properties":{"Name":"","Type":"","key":0},"geometry":{"type":"Polygon","coordinates":[[[95.7057,23.0939],[95.7078,23.0925],[95.705,23.0934],[95.7057,23.0939]]]}},{"type":"Feature","properties":{"Name":"","Type":"","key":0},"geometry":{"type":"Polygon","coordinates":[[[95.7015,23.0961],[95.7031,23.0948],[95.7,23.0931],[95.6999,23.0963],[95.7015,23.0961]]]}},{"type":"Feature","properties":{"Name":"Kyi bin-et","Type":"Reservoir","key":0},"geometry":{"type":"Polygon","coordinates":[[[95.6832,23.0838],[95.6825,23.0847],[95.681,23.084],[95.6803,23.085],[95.6784,23.0859],[95.6745,23.0856],[95.6733,23.0845],[95.6716,23.0853],[95.6691,23.0851],[95.6655,23.0861],[95.6648,23.0874],[95.6661,23.0939],[95.6673,23.0958],[95.6678,23.0959],[95.6686,23.0947],[95.6696,23.0946],[95.6714,23.0952],[95.6726,23.0966],[95.6733,23.0933],[95.6756,23.0939],[95.6757,23.0956],[95.6771,23.0992],[95.6784,23.1003],[95.678,23.1024],[95.6796,23.1013],[95.6819,23.1054],[95.6826,23.1042],[95.6813,23.1009],[95.6819,23.1002],[95.6801,23.0984],[95.6801,23.0963],[95.681,23.0951],[95.6815,23.096],[95.6813,23.0973],[95.6834,23.0972],[95.6845,23.0979],[95.6842,23.0998],[95.685,23.0998],[95.6859,23.0985],[95.6873,23.1003],[95.6876,23.0981],[95.693,23.0988],[95.6939,23.0968],[95.6947,23.0969],[95.6958,23.0958],[95.7004,23.0975],[95.702,23.0975],[95.7034,23.1012],[95.702,23.1035],[95.7039,23.1037],[95.7048,23.1045],[95.7047,23.0994],[95.7063,23.0995],[95.7092,23.0983],[95.7069,23.0973],[95.706,23.0982],[95.7043,23.0972],[95.704,23.096],[95.7083,23.0941],[95.7106,23.0944],[95.7102,23.093],[95.7114,23.0924],[95.7136,23.0928],[95.7146,23.0904],[95.7173,23.0915],[95.7184,23.0903],[95.7179,23.0886],[95.7167,23.0872],[95.7127,23.0861],[95.7078,23.089],[95.7063,23.0887],[95.7009,23.0899],[95.6968,23.089],[95.6936,23.0891],[95.684,23.0933],[95.683,23.0913],[95.6818,23.0913],[95.6808,23.0886],[95.6837,23.0848],[95.6832,23.0838]],[[95.7175,23.0885],[95.7174,23.089],[95.7168,23.0889],[95.7168,23.0885],[95.7175,23.0885]]]}},{"type":"Feature","properties":{"Name":"Yemyet in","Type":"Inn","key":0},"geometry":{"type":"Polygon","coordinates":[[[95.9005,22.088],[95.9013,22.087],[95.8999,22.0843],[95.9015,22.0826],[95.9025,22.0791],[95.9028,22.081],[95.9021,22.0826],[95.9024,22.0832],[95.9034,22.0832],[95.9025,22.0846],[95.9034,22.085],[95.9024,22.0858],[95.903,22.0868],[95.9127,22.0875],[95.9144,22.087],[95.9152,22.0819],[95.9136,22.0802],[95.9117,22.0801],[95.9109,22.0807],[95.9101,22.0796],[95.9174,22.079],[95.9179,22.0774],[95.9189,22.0779],[95.9203,22.0769],[95.9193,22.0765],[95.9193,22.0749],[95.918,22.074],[95.9187,22.073],[95.9175,22.072],[95.9185,22.0716],[95.9174,22.0703],[95.9176,22.0656],[95.92,22.0613],[95.9212,22.061],[95.9223,22.0596],[95.9214,22.0561],[95.9221,22.0546],[95.9259,22.0517],[95.9286,22.0456],[95.9288,22.0427],[95.9268,22.0369],[95.9275,22.0359],[95.9253,22.0342],[95.9182,22.0241],[95.9178,22.022],[95.9188,22.0179],[95.9196,22.0174],[95.9209,22.0185],[95.9219,22.0173],[95.9204,22.0124],[95.9197,22.0127],[95.9185,22.0155],[95.9184,22.0171],[95.9175,22.0166],[95.9171,22.0146],[95.9164,22.0141],[95.917,22.0129],[95.9164,22.0118],[95.9155,22.0116],[95.9134,22.0142],[95.9014,22.0161],[95.8983,22.0185],[95.8969,22.0185],[95.8913,22.0206],[95.8884,22.019],[95.8876,22.0193],[95.8873,22.0203],[95.8863,22.02],[95.8763,22.0214],[95.8758,22.0218],[95.8767,22.0228],[95.8749,22.0243],[95.8745,22.0259],[95.8699,22.0299],[95.8686,22.0321],[95.8668,22.0324],[95.8665,22.0337],[95.8652,22.0346],[95.8655,22.0382],[95.8641,22.04],[95.8648,22.0406],[95.8647,22.0425],[95.8633,22.0447],[95.8627,22.0493],[95.8634,22.0504],[95.8646,22.0506],[95.8628,22.0514],[95.8633,22.0528],[95.8628,22.0547],[95.8633,22.0562],[95.8652,22.0579],[95.8648,22.0588],[95.8674,22.0612],[95.8668,22.0636],[95.8674,22.0689],[95.8668,22.0706],[95.8666,22.0757],[95.8725,22.0856],[95.8719,22.0859],[95.8703,22.0855],[95.8697,22.0859],[95.8724,22.0866],[95.8712,22.0878],[95.8737,22.0875],[95.8769,22.0885],[95.876,22.0896],[95.877,22.0901],[95.8772,22.0915],[95.881,22.0915],[95.8817,22.0906],[95.8851,22.0891],[95.8881,22.0892],[95.8905,22.0869],[95.8938,22.0886],[95.8964,22.0865],[95.8981,22.0866],[95.9005,22.088]],[[95.9195,22.0155],[95.9194,22.016],[95.9188,22.0157],[95.9189,22.0155],[95.9195,22.0155]],[[95.9175,22.0188],[95.918,22.0192],[95.9175,22.0192],[95.9175,22.0188]],[[95.903,22.0863],[95.9032,22.0865],[95.903,22.0865],[95.903,22.0863]],[[95.9113,22.0855],[95.9117,22.086],[95.9113,22.086],[95.9113,22.0855]],[[95.9103,22.0845],[95.9105,22.0847],[95.9103,22.0847],[95.9103,22.0845]],[[95.9078,22.084],[95.9082,22.0845],[95.9078,22.0845],[95.9078,22.084]],[[95.909,22.0843],[95.9092,22.0845],[95.909,22.0845],[95.909,22.0843]],[[95.9134,22.0828],[95.914,22.083],[95.9133,22.0829],[95.9134,22.0828]],[[95.9092,22.079],[95.9091,22.0801],[95.9058,22.08],[95.9062,22.0791],[95.9092,22.079]],[[95.8795,22.0905],[95.8797,22.0907],[95.8795,22.0907],[95.8795,22.0905]],[[95.8813,22.0888],[95.8815,22.0892],[95.8813,22.0892],[95.8813,22.0888]],[[95.8793,22.087],[95.8797,22.0875],[95.8793,22.0875],[95.8793,22.087]],[[95.8788,22.0868],[95.8787,22.0872],[95.878,22.0872],[95.8781,22.0868],[95.8788,22.0868]],[[95.8798,22.076],[95.8811,22.0772],[95.8828,22.0775],[95.8823,22.0787],[95.8803,22.0792],[95.8788,22.0787],[95.8784,22.0776],[95.8798,22.076]],[[95.8735,22.0735],[95.874,22.0739],[95.8738,22.0745],[95.8733,22.0744],[95.8735,22.0735]],[[95.879,22.0702],[95.879,22.0724],[95.8768,22.0738],[95.878,22.0708],[95.879,22.0702]],[[95.8715,22.069],[95.8714,22.0695],[95.8708,22.0694],[95.8708,22.069],[95.8715,22.069]],[[95.8726,22.0693],[95.873,22.0695],[95.8725,22.0694],[95.8726,22.0693]],[[95.8685,22.0683],[95.8684,22.0687],[95.8678,22.0687],[95.8678,22.0683],[95.8685,22.0683]],[[95.87,22.0681],[95.8707,22.0687],[95.8701,22.0687],[95.87,22.0681]],[[95.8703,22.0355],[95.8705,22.0357],[95.8703,22.0357],[95.8703,22.0355]],[[95.876,22.0248],[95.8762,22.025],[95.876,22.025],[95.876,22.0248]],[[95.8798,22.0218],[95.88,22.022],[95.8798,22.022],[95.8798,22.0218]],[[95.9031,22.0171],[95.9034,22.0175],[95.9025,22.0174],[95.9031,22.0171]],[[95.9153,22.0135],[95.9155,22.0137],[95.9153,22.0137],[95.9153,22.0135]]]}},{"type":"Feature","properties":{"Name":"","Type":"","key":0},"geometry":{"type":"Polygon","coordinates":[[[95.5535,23.328],[95.5517,23.3284],[95.5497,23.3302],[95.5495,23.3288],[95.5486,23.3288],[95.5447,23.3312],[95.5446,23.3325],[95.5463,23.3332],[95.5475,23.3348],[95.5503,23.3368],[95.5506,23.336],[95.5494,23.3344],[95.5494,23.3333],[95.5506,23.3328],[95.5525,23.3335],[95.5524,23.3316],[95.5537,23.3305],[95.5514,23.3308],[95.5511,23.3303],[95.5535,23.328]]]}},{"type":"Feature","properties":{"Name":"","Type":"","key":0},"geometry":{"type":"Polygon","coordinates":[[[95.7082,23.0928],[95.7084,23.091],[95.7092,23.0898],[95.7068,23.0915],[95.7055,23.0898],[95.7061,23.0926],[95.7082,23.0928]]]}},{"type":"Feature","properties":{"Name":"","Type":"","key":0},"geometry":{"type":"Polygon","coordinates":[[[95.6996,22.6158],[95.7009,22.6134],[95.7035,22.6121],[95.7035,22.6102],[95.7023,22.6095],[95.7039,22.6084],[95.7041,22.6075],[95.7022,22.605],[95.6997,22.6045],[95.7002,22.6018],[95.6961,22.5986],[95.6935,22.6018],[95.6915,22.609],[95.6954,22.6093],[95.6973,22.6085],[95.6981,22.6146],[95.6996,22.6158]]]}},{"type":"Feature","properties":{"Name":"Pa din","Type":"Reservoir","key":0},"geometry":{"type":"Polygon","coordinates":[[[95.6515,22.8199],[95.6517,22.8183],[95.6506,22.818],[95.649,22.8193],[95.6475,22.8183],[95.6476,22.8175],[95.6463,22.817],[95.6475,22.8153],[95.6473,22.8137],[95.6468,22.8156],[95.6442,22.8188],[95.6437,22.8207],[95.6456,22.8246],[95.6513,22.8281],[95.6527,22.8276],[95.6503,22.8267],[95.6502,22.8253],[95.6492,22.8238],[95.6545,22.8228],[95.6547,22.8223],[95.6537,22.8216],[95.6522,22.8218],[95.6515,22.8199]]]}},{"type":"Feature","properties":{"Name":"Ko bin","Type":"Reservoir","key":0},"geometry":{"type":"Polygon","coordinates":[[[95.731,22.6647],[95.7298,22.6653],[95.7289,22.6667],[95.7274,22.6669],[95.7259,22.6686],[95.7248,22.6685],[95.7252,22.6678],[95.7239,22.6677],[95.7204,22.6689],[95.7191,22.6676],[95.7176,22.6686],[95.7154,22.6689],[95.7147,22.6678],[95.713,22.6679],[95.7107,22.6659],[95.7056,22.6683],[95.7064,22.6694],[95.7108,22.6718],[95.7116,22.6735],[95.7115,22.6751],[95.7133,22.6765],[95.7162,22.6732],[95.7187,22.6734],[95.721,22.6718],[95.7228,22.672],[95.723,22.6741],[95.7246,22.6758],[95.7233,22.679],[95.724,22.6808],[95.7242,22.6794],[95.725,22.6792],[95.7256,22.6777],[95.7268,22.6767],[95.727,22.6748],[95.7297,22.6754],[95.7316,22.6749],[95.7311,22.6742],[95.7256,22.6722],[95.7246,22.6713],[95.7306,22.6667],[95.731,22.6647]]]}},{"type":"Feature","properties":{"Name":"","Type":"","key":0},"geometry":{"type":"Polygon","coordinates":[[[95.6454,23.009],[95.6414,23.0088],[95.6428,23.008],[95.6456,23.0076],[95.6479,23.0056],[95.6486,23.0041],[95.6482,23.0019],[95.6471,23.002],[95.6455,23.0039],[95.6418,23.0048],[95.6358,23.0089],[95.6383,23.0163],[95.6379,23.0205],[95.6382,23.0212],[95.6392,23.0198],[95.6403,23.0208],[95.6407,23.0195],[95.6421,23.019],[95.6428,23.0241],[95.6434,23.0237],[95.6437,23.0203],[95.6462,23.0198],[95.6474,23.0214],[95.6461,23.023],[95.6482,23.0225],[95.6489,23.024],[95.6498,23.0236],[95.6492,23.0216],[95.6498,23.0201],[95.6489,23.0191],[95.649,23.0181],[95.6504,23.019],[95.6498,23.0175],[95.6502,23.0174],[95.6526,23.0184],[95.6532,23.0171],[95.6519,23.0158],[95.6539,23.016],[95.6546,23.0154],[95.6533,23.0129],[95.6508,23.0122],[95.6494,23.0106],[95.6493,23.0097],[95.6509,23.0081],[95.6505,23.0076],[95.6454,23.009]]]}},{"type":"Feature","properties":{"Name":"","Type":"","key":0},"geometry":{"type":"Polygon","coordinates":[[[95.5654,23.1389],[95.5644,23.1391],[95.562,23.1381],[95.561,23.1395],[95.5614,23.1404],[95.5635,23.1414],[95.5635,23.1432],[95.5646,23.1443],[95.5617,23.147],[95.5628,23.1491],[95.564,23.1497],[95.5657,23.1491],[95.566,23.1477],[95.5674,23.1473],[95.5683,23.1455],[95.57,23.1444],[95.5706,23.1448],[95.5708,23.1469],[95.5736,23.1475],[95.5729,23.1499],[95.5739,23.151],[95.575,23.1494],[95.5761,23.1492],[95.5754,23.147],[95.576,23.1459],[95.5738,23.1458],[95.5723,23.1422],[95.5743,23.1422],[95.5753,23.1378],[95.5772,23.1394],[95.5822,23.1363],[95.5795,23.1432],[95.5815,23.1493],[95.5813,23.1458],[95.5838,23.1439],[95.5852,23.1418],[95.5855,23.1441],[95.5863,23.1436],[95.5874,23.1439],[95.5882,23.1432],[95.5893,23.1444],[95.5901,23.1433],[95.5892,23.1397],[95.5921,23.1408],[95.5946,23.1396],[95.5941,23.139],[95.591,23.1386],[95.5902,23.1377],[95.5926,23.1371],[95.5931,23.1362],[95.5906,23.1335],[95.591,23.1318],[95.59,23.1301],[95.5926,23.1292],[95.5939,23.1278],[95.5921,23.128],[95.5911,23.1269],[95.5916,23.1261],[95.5904,23.1251],[95.5898,23.1257],[95.5893,23.1253],[95.5894,23.1229],[95.5889,23.1225],[95.5849,23.1237],[95.5822,23.1276],[95.5749,23.1347],[95.5657,23.1334],[95.5654,23.1389]],[[95.5765,23.1355],[95.5761,23.1365],[95.5753,23.1358],[95.5754,23.1355],[95.5765,23.1355]],[[95.587,23.1355],[95.5869,23.1364],[95.5861,23.1364],[95.5863,23.1356],[95.587,23.1355]],[[95.5926,23.1283],[95.5927,23.1282],[95.5927,23.1283],[95.5926,23.1283]],[[95.5875,23.1392],[95.5874,23.14],[95.5868,23.1399],[95.5868,23.1393],[95.5875,23.1392]],[[95.587,23.1415],[95.5872,23.1417],[95.587,23.1417],[95.587,23.1415]]]}},{"type":"Feature","properties":{"Name":"","Type":"","key":0},"geometry":{"type":"Polygon","coordinates":[[[96.0127,21.8461],[96.0136,21.8413],[96.0125,21.836],[96.0125,21.8311],[96.0108,21.8365],[96.0115,21.8406],[96.0112,21.845],[96.0127,21.8461]]]}},{"type":"Feature","properties":{"Name":"","Type":"","key":0},"geometry":{"type":"Polygon","coordinates":[[[96.0014,21.8537],[96.0061,21.8526],[96.0095,21.8509],[96.0114,21.8475],[96.0107,21.8474],[96.0092,21.8498],[96.0068,21.8514],[95.9986,21.8529],[96.0014,21.8537]]]}},{"type":"Feature","properties":{"Name":"","Type":"","key":0},"geometry":{"type":"Polygon","coordinates":[[[96.0337,21.8804],[96.037,21.879],[96.036,21.8757],[96.0364,21.8727],[96.0348,21.8683],[96.0326,21.8702],[96.0324,21.8727],[96.0314,21.8749],[96.0317,21.8767],[96.0308,21.8789],[96.0315,21.8803],[96.0337,21.8804]]]}},{"type":"Feature","properties":{"Name":"","Type":"","key":0},"geometry":{"type":"Polygon","coordinates":[[[95.9229,21.9078],[95.9233,21.9069],[95.9254,21.9058],[95.9279,21.9067],[95.9303,21.906],[95.93,21.9038],[95.9306,21.9019],[95.9336,21.9001],[95.9322,21.8988],[95.9316,21.8969],[95.9306,21.8969],[95.9273,21.9003],[95.9269,21.8982],[95.924,21.8981],[95.9229,21.8986],[95.9201,21.9058],[95.9208,21.9075],[95.9229,21.9078]]]}},{"type":"Feature","properties":{"Name":"Kaung hmu daw in","Type":"Inn","key":0},"geometry":{"type":"Polygon","coordinates":[[[95.9465,21.908],[95.9433,21.9082],[95.9392,21.9104],[95.9364,21.9092],[95.9264,21.9157],[95.9233,21.9153],[95.9185,21.9169],[95.9183,21.9174],[95.9201,21.9202],[95.9196,21.9233],[95.9202,21.9266],[95.9194,21.9269],[95.9177,21.9248],[95.9178,21.9262],[95.9168,21.9272],[95.9171,21.9289],[95.9199,21.9305],[95.9275,21.9312],[95.9327,21.9292],[95.9356,21.9289],[95.9382,21.9273],[95.9416,21.9238],[95.9393,21.9224],[95.9386,21.9211],[95.9386,21.9145],[95.9406,21.9117],[95.9433,21.9101],[95.947,21.9091],[95.9496,21.9094],[95.9465,21.908]]]}},{"type":"Feature","properties":{"Name":"Wun be in","Type":"Inn","key":0},"geometry":{"type":"Polygon","coordinates":[[[96.001,21.8402],[95.9987,21.8408],[95.9977,21.8439],[96.001,21.8451],[96.0011,21.8462],[96.0048,21.846],[96.0055,21.8448],[96.0035,21.8452],[96.0044,21.8434],[96.0043,21.8423],[96.001,21.8402]]]}},{"type":"Feature","properties":{"Name":"","Type":"","key":0},"geometry":{"type":"Polygon","coordinates":[[[94.9825,22.2995],[94.9804,22.2998],[94.979,22.3017],[94.9793,22.3042],[94.9818,22.3052],[94.9843,22.3047],[94.9851,22.3017],[94.9825,22.2995]]]}},{"type":"Feature","properties":{"Name":"","Type":"","key":0},"geometry":{"type":"Polygon","coordinates":[[[95.5634,23.2169],[95.5585,23.2178],[95.5592,23.2232],[95.5583,23.224],[95.5612,23.2237],[95.5607,23.2264],[95.563,23.2256],[95.5642,23.2264],[95.5648,23.225],[95.5636,23.2247],[95.5635,23.2223],[95.5624,23.2221],[95.5623,23.2194],[95.5626,23.2183],[95.5635,23.218],[95.5634,23.2169]]]}},{"type":"Feature","properties":{"Name":"","Type":"","key":0},"geometry":{"type":"Polygon","coordinates":[[[94.6641,21.883],[94.6648,21.8852],[94.6678,21.8828],[94.668,21.8808],[94.6666,21.8803],[94.6638,21.8807],[94.6637,21.8813],[94.6617,21.8794],[94.6626,21.8832],[94.6641,21.883]],[[94.665,21.8817],[94.6657,21.8816],[94.6658,21.8819],[94.6654,21.882],[94.665,21.8817]]]}},{"type":"Feature","properties":{"Name":"Tha zi","Type":"Reservoir","key":0},"geometry":{"type":"Polygon","coordinates":[[[95.269,22.2385],[95.2707,22.2392],[95.2698,22.2373],[95.2715,22.2356],[95.2722,22.2322],[95.278,22.2318],[95.2731,22.2308],[95.2719,22.2297],[95.2707,22.2322],[95.2674,22.2356],[95.2637,22.2371],[95.2631,22.2365],[95.2634,22.2351],[95.2625,22.2348],[95.2612,22.2362],[95.2615,22.2384],[95.2632,22.2416],[95.2633,22.2435],[95.2663,22.2415],[95.2685,22.2441],[95.2697,22.2442],[95.2688,22.2435],[95.2681,22.2403],[95.269,22.2385]],[[95.2638,22.241],[95.264,22.2412],[95.2638,22.2412],[95.2638,22.241]]]}},{"type":"Feature","properties":{"Name":"","Type":"","key":0},"geometry":{"type":"Polygon","coordinates":[[[94.9725,22.277],[94.9688,22.2788],[94.9675,22.282],[94.968,22.2835],[94.9722,22.2846],[94.9754,22.2841],[94.9765,22.2828],[94.9749,22.2783],[94.9725,22.277]]]}},{"type":"Feature","properties":{"Name":"","Type":"","key":0},"geometry":{"type":"Polygon","coordinates":[[[95.0197,22.3572],[95.0178,22.3576],[95.0164,22.3587],[95.0153,22.3627],[95.0162,22.3656],[95.0193,22.3671],[95.0217,22.3668],[95.0236,22.3654],[95.0244,22.3641],[95.0246,22.3612],[95.0251,22.3612],[95.0228,22.3587],[95.0197,22.3572]]]}},{"type":"Feature","properties":{"Name":"Thapanzeik","Type":"Reservoir","key":1},"geometry":{"type":"Polygon","coordinates":[[[95.3268,23.3086],[95.3262,23.3102],[95.324,23.31],[95.3225,23.3116],[95.3197,23.3114],[95.3181,23.3104],[95.3181,23.312],[95.319,23.3129],[95.3183,23.3138],[95.3165,23.3123],[95.316,23.3146],[95.3138,23.3152],[95.3132,23.3143],[95.3133,23.3129],[95.3117,23.313],[95.3106,23.3145],[95.3091,23.3131],[95.3098,23.3122],[95.3093,23.3107],[95.3106,23.3099],[95.3105,23.3086],[95.3124,23.3072],[95.3104,23.3074],[95.3103,23.3054],[95.3087,23.3062],[95.3089,23.3077],[95.3081,23.3081],[95.3063,23.3069],[95.3056,23.3052],[95.3049,23.3049],[95.3066,23.3097],[95.3063,23.3107],[95.305,23.3113],[95.304,23.3102],[95.3042,23.3085],[95.3013,23.3046],[95.3015,23.3028],[95.3007,23.3012],[95.2999,23.3027],[95.2989,23.3029],[95.2977,23.3044],[95.2969,23.3034],[95.2948,23.3035],[95.2948,23.3024],[95.2961,23.3005],[95.2934,23.3008],[95.2922,23.3036],[95.2927,23.305],[95.2924,23.3061],[95.2913,23.3036],[95.2917,23.3012],[95.2907,23.301],[95.2905,23.2997],[95.2898,23.2995],[95.2889,23.3008],[95.2898,23.3027],[95.2887,23.3032],[95.2877,23.302],[95.2882,23.3009],[95.2861,23.3007],[95.2851,23.2993],[95.2864,23.2983],[95.2864,23.2976],[95.2836,23.2977],[95.2826,23.3016],[95.2795,23.3015],[95.277,23.3025],[95.2779,23.3036],[95.2791,23.3031],[95.2835,23.3062],[95.2847,23.306],[95.2859,23.307],[95.2869,23.3062],[95.2891,23.3068],[95.2895,23.3077],[95.2885,23.3074],[95.2867,23.3099],[95.2871,23.3113],[95.2888,23.3103],[95.2896,23.3113],[95.2877,23.3133],[95.2877,23.3142],[95.2893,23.3145],[95.2922,23.3135],[95.292,23.3149],[95.2907,23.3157],[95.2921,23.3172],[95.2933,23.3162],[95.2943,23.3163],[95.2941,23.3147],[95.2948,23.3137],[95.2955,23.314],[95.2957,23.3155],[95.2972,23.3148],[95.297,23.316],[95.2959,23.3157],[95.2952,23.3195],[95.2931,23.3184],[95.2907,23.3195],[95.29,23.3215],[95.2882,23.3229],[95.2881,23.3195],[95.2855,23.3222],[95.2842,23.321],[95.2811,23.3204],[95.2814,23.3217],[95.283,23.3233],[95.28,23.3245],[95.2784,23.3263],[95.2732,23.3243],[95.2729,23.3247],[95.2743,23.326],[95.2743,23.3268],[95.2719,23.3286],[95.269,23.3269],[95.268,23.3273],[95.2669,23.3266],[95.2664,23.3289],[95.265,23.3301],[95.2621,23.3281],[95.2629,23.3305],[95.2614,23.3322],[95.2592,23.3306],[95.2586,23.3286],[95.2583,23.3302],[95.2592,23.3319],[95.2588,23.3326],[95.254,23.3327],[95.2532,23.3332],[95.2511,23.3312],[95.2493,23.3317],[95.249,23.3322],[95.2506,23.3336],[95.2508,23.3345],[95.2531,23.3367],[95.2563,23.3369],[95.2551,23.3388],[95.2533,23.3384],[95.2521,23.339],[95.2526,23.3399],[95.2537,23.3402],[95.253,23.3411],[95.2515,23.3411],[95.2509,23.3398],[95.2488,23.3392],[95.2487,23.3378],[95.2496,23.3363],[95.2489,23.3353],[95.2449,23.3342],[95.2423,23.3351],[95.2393,23.3385],[95.2359,23.3392],[95.2351,23.3415],[95.2366,23.3429],[95.2382,23.3431],[95.2349,23.3461],[95.2346,23.3472],[95.2354,23.3476],[95.2364,23.3468],[95.2367,23.3486],[95.2388,23.3492],[95.2417,23.3488],[95.244,23.3472],[95.2434,23.3486],[95.2456,23.3497],[95.2449,23.35],[95.2449,23.3506],[95.2477,23.3518],[95.2454,23.3524],[95.2446,23.3539],[95.2448,23.3557],[95.2436,23.3556],[95.2433,23.3566],[95.2426,23.3566],[95.244,23.3576],[95.2437,23.3582],[95.2407,23.3581],[95.2354,23.359],[95.2319,23.3618],[95.2309,23.3652],[95.2296,23.3664],[95.229,23.3681],[95.2301,23.3697],[95.2296,23.3708],[95.2302,23.3719],[95.228,23.3741],[95.228,23.3778],[95.2294,23.3787],[95.2292,23.3773],[95.2303,23.3758],[95.2313,23.3774],[95.232,23.377],[95.2366,23.3778],[95.2369,23.3769],[95.2372,23.38],[95.24,23.3812],[95.2407,23.3824],[95.2419,23.3824],[95.2421,23.3815],[95.2404,23.3794],[95.2391,23.3756],[95.2426,23.3729],[95.2451,23.375],[95.2446,23.3732],[95.2452,23.3729],[95.2468,23.3744],[95.2495,23.3748],[95.2501,23.3757],[95.2517,23.3759],[95.2522,23.3768],[95.254,23.3763],[95.2581,23.3777],[95.2588,23.3784],[95.2583,23.3797],[95.2598,23.381],[95.2608,23.3802],[95.2614,23.3781],[95.2649,23.381],[95.2659,23.3799],[95.2647,23.3779],[95.2686,23.3744],[95.2688,23.3731],[95.2715,23.373],[95.2732,23.3709],[95.2747,23.3713],[95.2749,23.3698],[95.2762,23.3689],[95.278,23.3658],[95.2791,23.3667],[95.2789,23.3696],[95.2803,23.3681],[95.282,23.3693],[95.2809,23.3669],[95.2826,23.3661],[95.2815,23.3658],[95.2806,23.364],[95.2817,23.3627],[95.2811,23.3612],[95.2814,23.3603],[95.283,23.3602],[95.2832,23.3625],[95.2851,23.363],[95.2844,23.3613],[95.2855,23.3591],[95.2874,23.3578],[95.2889,23.3589],[95.2885,23.3628],[95.289,23.363],[95.2894,23.3612],[95.2907,23.3618],[95.2902,23.3594],[95.2918,23.3596],[95.2905,23.3588],[95.291,23.3581],[95.2908,23.3561],[95.2915,23.3558],[95.2922,23.357],[95.2939,23.3577],[95.2941,23.3573],[95.2928,23.3564],[95.2928,23.3552],[95.2948,23.3543],[95.2959,23.355],[95.2962,23.3591],[95.2976,23.3554],[95.2985,23.356],[95.2996,23.3582],[95.3009,23.3567],[95.3024,23.3578],[95.3013,23.3593],[95.3013,23.3609],[95.2995,23.3608],[95.2988,23.3614],[95.2992,23.3636],[95.2962,23.3644],[95.2953,23.3655],[95.2968,23.3672],[95.2978,23.3674],[95.2959,23.3676],[95.296,23.3694],[95.2943,23.3684],[95.2936,23.3687],[95.2936,23.3707],[95.2965,23.3723],[95.297,23.3735],[95.2956,23.374],[95.2931,23.3725],[95.2914,23.3739],[95.2933,23.3753],[95.2928,23.3774],[95.294,23.3792],[95.2909,23.3808],[95.2926,23.3817],[95.2941,23.3807],[95.2949,23.3812],[95.2927,23.3835],[95.2952,23.3828],[95.2947,23.3855],[95.2955,23.3861],[95.2953,23.3876],[95.2963,23.3894],[95.2976,23.3862],[95.2968,23.3844],[95.298,23.3825],[95.2988,23.3839],[95.2999,23.384],[95.2996,23.3816],[95.3002,23.3809],[95.3013,23.3814],[95.3016,23.3829],[95.3028,23.3831],[95.3038,23.3815],[95.3049,23.3833],[95.3041,23.3842],[95.3023,23.3838],[95.3009,23.3852],[95.3011,23.3867],[95.3,23.388],[95.2989,23.3882],[95.3006,23.3897],[95.2987,23.3901],[95.2989,23.392],[95.2975,23.3929],[95.2992,23.3953],[95.299,23.3968],[95.298,23.3981],[95.2961,23.3979],[95.2981,23.4005],[95.2967,23.4001],[95.2958,23.4008],[95.2943,23.4004],[95.2941,23.4019],[95.2924,23.4019],[95.2937,23.4036],[95.2948,23.4034],[95.2952,23.4041],[95.2967,23.403],[95.2979,23.4039],[95.2972,23.4058],[95.2986,23.4082],[95.2958,23.4072],[95.296,23.4093],[95.2949,23.4094],[95.2946,23.4105],[95.2959,23.4109],[95.296,23.4118],[95.2938,23.4126],[95.294,23.414],[95.2927,23.4142],[95.2927,23.4155],[95.292,23.4144],[95.2931,23.4121],[95.2921,23.4092],[95.2914,23.4094],[95.2909,23.4109],[95.289,23.4097],[95.2894,23.4112],[95.2907,23.4124],[95.2897,23.4137],[95.2879,23.4136],[95.2893,23.416],[95.289,23.4163],[95.2859,23.4137],[95.2854,23.4117],[95.2841,23.4127],[95.2829,23.4123],[95.2837,23.4134],[95.283,23.414],[95.2795,23.4125],[95.2789,23.4128],[95.2801,23.4136],[95.2804,23.4151],[95.2821,23.4146],[95.2846,23.416],[95.2842,23.4189],[95.2864,23.4215],[95.2843,23.4216],[95.2847,23.4206],[95.2826,23.4177],[95.2814,23.4192],[95.2789,23.4172],[95.2786,23.4184],[95.2818,23.4204],[95.282,23.4216],[95.281,23.4218],[95.2792,23.4236],[95.2794,23.4223],[95.2781,23.4225],[95.2775,23.4219],[95.2779,23.4205],[95.2757,23.421],[95.2752,23.4216],[95.2755,23.423],[95.2778,23.4261],[95.2743,23.4267],[95.2751,23.4274],[95.2747,23.4287],[95.2768,23.4283],[95.2764,23.43],[95.2778,23.4303],[95.2781,23.4317],[95.2761,23.4324],[95.2775,23.4346],[95.2791,23.4349],[95.2802,23.4331],[95.2809,23.4343],[95.2817,23.4343],[95.2805,23.437],[95.2794,23.4379],[95.2793,23.4361],[95.2776,23.4377],[95.2752,23.4367],[95.2745,23.4373],[95.2761,23.4385],[95.2725,23.4397],[95.2686,23.4389],[95.2667,23.4411],[95.2645,23.4403],[95.2635,23.441],[95.266,23.4427],[95.268,23.4426],[95.2684,23.4414],[95.2702,23.4411],[95.2729,23.4422],[95.273,23.4434],[95.2714,23.4448],[95.2716,23.4467],[95.2738,23.4446],[95.2759,23.4442],[95.2774,23.4425],[95.2772,23.4414],[95.2778,23.4408],[95.2795,23.441],[95.2796,23.4423],[95.2818,23.4407],[95.2837,23.4414],[95.2855,23.4385],[95.2873,23.4393],[95.2875,23.4418],[95.2881,23.4424],[95.2884,23.4417],[95.2891,23.4419],[95.2907,23.4458],[95.2912,23.4436],[95.2904,23.4427],[95.2909,23.4411],[95.2902,23.4404],[95.2909,23.4395],[95.2898,23.4387],[95.2896,23.4363],[95.2877,23.435],[95.2893,23.4336],[95.2895,23.4327],[95.2928,23.4326],[95.2921,23.4302],[95.2948,23.432],[95.2955,23.4284],[95.2964,23.4279],[95.2975,23.4293],[95.297,23.4308],[95.2983,23.4317],[95.2998,23.4298],[95.3025,23.431],[95.3022,23.4316],[95.3014,23.4312],[95.3006,23.4323],[95.3014,23.4334],[95.2997,23.4354],[95.3023,23.4372],[95.3016,23.44],[95.304,23.4376],[95.3058,23.4379],[95.3063,23.4394],[95.3077,23.4404],[95.3075,23.4431],[95.3085,23.4431],[95.3097,23.4419],[95.3118,23.4445],[95.3113,23.4411],[95.3117,23.4403],[95.3106,23.4386],[95.3105,23.4365],[95.3076,23.4353],[95.3064,23.4333],[95.3069,23.433],[95.3102,23.4344],[95.3104,23.4338],[95.309,23.4318],[95.3104,23.4312],[95.3105,23.4301],[95.3111,23.4297],[95.3118,23.4315],[95.3139,23.4331],[95.3149,23.4299],[95.3177,23.4312],[95.318,23.4316],[95.3167,23.4333],[95.3172,23.4341],[95.3147,23.4351],[95.3158,23.4367],[95.3167,23.4368],[95.3148,23.4378],[95.3151,23.4394],[95.3173,23.4393],[95.3175,23.4417],[95.3191,23.4405],[95.318,23.4426],[95.3188,23.4444],[95.3211,23.4423],[95.3218,23.4438],[95.3216,23.4453],[95.323,23.4461],[95.3242,23.4483],[95.3248,23.4474],[95.3233,23.4426],[95.3244,23.4422],[95.3258,23.4426],[95.3262,23.4421],[95.3249,23.4406],[95.3235,23.4408],[95.3228,23.4403],[95.3236,23.439],[95.3263,23.4392],[95.3282,23.441],[95.3297,23.4387],[95.3317,23.4391],[95.332,23.44],[95.3304,23.442],[95.3308,23.4431],[95.333,23.4408],[95.3338,23.441],[95.3333,23.4398],[95.3343,23.4388],[95.3309,23.4372],[95.3319,23.4357],[95.3291,23.4336],[95.3307,23.433],[95.3301,23.4313],[95.3307,23.4302],[95.3315,23.4303],[95.3319,23.4325],[95.3331,23.4327],[95.3336,23.4335],[95.3345,23.4332],[95.3353,23.4347],[95.3371,23.4357],[95.3385,23.4336],[95.3401,23.433],[95.3364,23.4305],[95.3372,23.4293],[95.3385,23.43],[95.3394,23.4297],[95.3411,23.4271],[95.3419,23.4277],[95.3432,23.4276],[95.3443,23.4294],[95.3454,23.4281],[95.3454,23.429],[95.3464,23.4293],[95.3478,23.427],[95.3491,23.4262],[95.349,23.4251],[95.3471,23.4235],[95.3476,23.4227],[95.3507,23.4247],[95.3527,23.4249],[95.3526,23.4227],[95.354,23.4196],[95.3575,23.4207],[95.3593,23.4182],[95.3618,23.4169],[95.3613,23.4155],[95.3617,23.4148],[95.3626,23.4148],[95.3644,23.4165],[95.3644,23.4174],[95.3623,23.4189],[95.3625,23.4205],[95.3616,23.4218],[95.3576,23.4217],[95.3567,23.4229],[95.3573,23.4245],[95.3556,23.4258],[95.3556,23.4274],[95.3598,23.4252],[95.362,23.4248],[95.3644,23.4256],[95.3666,23.4251],[95.3673,23.4277],[95.3693,23.4266],[95.3705,23.4269],[95.372,23.4294],[95.3717,23.4303],[95.3705,23.4311],[95.3677,23.4315],[95.3693,23.4346],[95.371,23.4344],[95.3718,23.435],[95.3719,23.4378],[95.3652,23.4412],[95.36,23.4365],[95.353,23.4366],[95.3506,23.4383],[95.3491,23.4406],[95.3503,23.4426],[95.3496,23.4447],[95.3487,23.4438],[95.3482,23.4449],[95.3464,23.4459],[95.3449,23.4438],[95.3439,23.4434],[95.3438,23.4424],[95.3427,23.4428],[95.3426,23.4445],[95.3399,23.4447],[95.3412,23.4464],[95.3387,23.4477],[95.3399,23.4486],[95.3405,23.4477],[95.3423,23.4483],[95.3436,23.446],[95.3444,23.4466],[95.3434,23.4477],[95.3435,23.4494],[95.3454,23.4473],[95.3468,23.4486],[95.3486,23.4479],[95.3482,23.4499],[95.3508,23.4486],[95.3515,23.4488],[95.3508,23.4501],[95.3533,23.4518],[95.3536,23.4535],[95.3517,23.4551],[95.3538,23.4547],[95.3547,23.4558],[95.3563,23.4553],[95.357,23.457],[95.3567,23.4607],[95.3549,23.4617],[95.3511,23.461],[95.3486,23.4589],[95.3481,23.4607],[95.3457,23.4598],[95.3468,23.4615],[95.3446,23.4622],[95.3428,23.4604],[95.3438,23.464],[95.346,23.4632],[95.3473,23.4637],[95.3494,23.4621],[95.3525,23.4626],[95.3527,23.4632],[95.3504,23.4641],[95.3497,23.4656],[95.3472,23.468],[95.3454,23.467],[95.3425,23.4684],[95.3386,23.4672],[95.3376,23.4679],[95.3363,23.4675],[95.3347,23.4681],[95.3329,23.4698],[95.3337,23.4704],[95.336,23.4705],[95.3376,23.4719],[95.3369,23.4737],[95.3356,23.4741],[95.3336,23.476],[95.3346,23.4774],[95.3384,23.4768],[95.3398,23.4756],[95.3414,23.4754],[95.3426,23.4733],[95.3433,23.4746],[95.3458,23.4747],[95.3452,23.4775],[95.348,23.4767],[95.3491,23.4773],[95.3505,23.4813],[95.3521,23.4812],[95.3516,23.4803],[95.352,23.48],[95.3535,23.4805],[95.3542,23.4823],[95.3538,23.4828],[95.3531,23.4822],[95.3531,23.4851],[95.3555,23.4892],[95.3548,23.4896],[95.3529,23.4887],[95.3514,23.4918],[95.349,23.4924],[95.3489,23.4932],[95.3514,23.4947],[95.3507,23.4954],[95.3484,23.4955],[95.3483,23.4964],[95.3446,23.4936],[95.3418,23.4943],[95.3416,23.4952],[95.3429,23.4958],[95.3428,23.4968],[95.3444,23.4974],[95.345,23.4987],[95.3419,23.4996],[95.3402,23.4988],[95.3388,23.4994],[95.3386,23.5009],[95.3367,23.5016],[95.3363,23.5034],[95.335,23.5034],[95.3324,23.5012],[95.3312,23.5016],[95.3305,23.5003],[95.3294,23.501],[95.3278,23.4996],[95.3275,23.5006],[95.3287,23.5022],[95.3287,23.5042],[95.328,23.5049],[95.3267,23.5048],[95.3262,23.5057],[95.329,23.5082],[95.3311,23.5071],[95.3337,23.5074],[95.3341,23.5104],[95.3329,23.5118],[95.3314,23.5123],[95.3321,23.5129],[95.3322,23.514],[95.3309,23.5156],[95.3276,23.5167],[95.328,23.5174],[95.3306,23.5174],[95.3305,23.5186],[95.3274,23.5193],[95.3256,23.5189],[95.3228,23.5212],[95.3209,23.5216],[95.3219,23.5229],[95.3229,23.5228],[95.3243,23.521],[95.3284,23.5221],[95.3291,23.5235],[95.3311,23.5242],[95.335,23.5296],[95.3331,23.5321],[95.333,23.5335],[95.3307,23.5357],[95.3297,23.5359],[95.33,23.5373],[95.3314,23.5384],[95.3292,23.5413],[95.3298,23.5422],[95.3318,23.5399],[95.3331,23.5397],[95.3326,23.5365],[95.3332,23.5356],[95.3349,23.5362],[95.3375,23.5352],[95.3379,23.5378],[95.337,23.5385],[95.3378,23.5394],[95.3405,23.5377],[95.3408,23.5349],[95.3399,23.5328],[95.3429,23.5329],[95.3435,23.5347],[95.3448,23.5346],[95.346,23.5374],[95.3467,23.5356],[95.3483,23.5361],[95.3486,23.5378],[95.3501,23.5383],[95.3508,23.5391],[95.3503,23.5409],[95.3513,23.5427],[95.355,23.545],[95.3559,23.5468],[95.3568,23.5461],[95.3569,23.5446],[95.3596,23.5436],[95.3605,23.5409],[95.358,23.5404],[95.3577,23.539],[95.3556,23.5404],[95.3555,23.5418],[95.3545,23.5416],[95.3552,23.5404],[95.3536,23.5394],[95.3537,23.5385],[95.3526,23.5369],[95.3539,23.5368],[95.355,23.538],[95.3572,23.5378],[95.358,23.5358],[95.3569,23.5341],[95.357,23.5317],[95.3576,23.5314],[95.3581,23.5323],[95.3609,23.5325],[95.3612,23.5311],[95.3601,23.53],[95.3619,23.5283],[95.3631,23.5284],[95.3636,23.5275],[95.365,23.527],[95.364,23.5253],[95.3621,23.525],[95.3629,23.5235],[95.3646,23.5247],[95.3666,23.5245],[95.3665,23.5254],[95.3685,23.5258],[95.3685,23.5281],[95.3648,23.5303],[95.3663,23.5339],[95.3658,23.5354],[95.368,23.5362],[95.3669,23.5347],[95.3673,23.5337],[95.3679,23.5349],[95.3701,23.5355],[95.3677,23.5368],[95.3671,23.5364],[95.3659,23.5375],[95.3665,23.5387],[95.3678,23.5386],[95.3685,23.5425],[95.3666,23.5437],[95.3659,23.546],[95.3637,23.5479],[95.367,23.5483],[95.3701,23.5495],[95.3743,23.5492],[95.3759,23.5505],[95.375,23.5487],[95.3728,23.5475],[95.3725,23.5466],[95.3748,23.5473],[95.3762,23.5465],[95.3808,23.5466],[95.3835,23.5439],[95.3856,23.5462],[95.3851,23.5488],[95.3865,23.5491],[95.3866,23.5505],[95.3892,23.5496],[95.3888,23.5475],[95.3878,23.5468],[95.3906,23.5466],[95.3903,23.5501],[95.3894,23.5517],[95.3874,23.5528],[95.3854,23.5512],[95.3843,23.5525],[95.3823,23.5505],[95.3819,23.5511],[95.3824,23.5534],[95.3817,23.5536],[95.3797,23.5519],[95.3791,23.5525],[95.3801,23.5534],[95.3785,23.5545],[95.3769,23.5522],[95.3765,23.5534],[95.3753,23.5543],[95.3736,23.5541],[95.3727,23.5549],[95.368,23.556],[95.3591,23.5573],[95.3572,23.5565],[95.3548,23.5593],[95.3531,23.5639],[95.3549,23.5638],[95.3551,23.5629],[95.3561,23.563],[95.3574,23.5617],[95.3576,23.5623],[95.3569,23.5629],[95.3579,23.5636],[95.358,23.5645],[95.3571,23.5657],[95.3561,23.565],[95.356,23.5642],[95.3554,23.5657],[95.3572,23.5668],[95.3599,23.563],[95.3608,23.5625],[95.3615,23.5631],[95.3619,23.5616],[95.3677,23.5607],[95.3705,23.5612],[95.3711,23.5619],[95.3739,23.559],[95.3748,23.5587],[95.3752,23.5593],[95.3742,23.5601],[95.3739,23.5616],[95.3752,23.5616],[95.3769,23.5595],[95.3768,23.5614],[95.3775,23.5621],[95.3784,23.5606],[95.3802,23.5608],[95.3804,23.5618],[95.3815,23.5623],[95.3807,23.5633],[95.3826,23.5648],[95.3833,23.5663],[95.3833,23.5684],[95.3828,23.5693],[95.381,23.5689],[95.3798,23.5701],[95.3788,23.5701],[95.3796,23.5733],[95.378,23.5739],[95.3784,23.5748],[95.3774,23.5769],[95.3793,23.5771],[95.3804,23.578],[95.3813,23.577],[95.3839,23.577],[95.3855,23.5777],[95.388,23.5774],[95.3897,23.5765],[95.3877,23.5758],[95.3873,23.5743],[95.384,23.575],[95.3827,23.5742],[95.3827,23.5735],[95.3847,23.5716],[95.3895,23.57],[95.3943,23.5663],[95.3956,23.567],[95.3973,23.5665],[95.3984,23.5683],[95.4009,23.5688],[95.4016,23.5683],[95.4008,23.5672],[95.4023,23.5669],[95.4028,23.5657],[95.4058,23.5643],[95.4066,23.5634],[95.4073,23.5654],[95.4083,23.5639],[95.4093,23.564],[95.4089,23.5612],[95.4101,23.5604],[95.4105,23.5608],[95.4104,23.5631],[95.4113,23.5643],[95.413,23.5606],[95.4155,23.5631],[95.4161,23.5617],[95.4155,23.559],[95.4132,23.5569],[95.4132,23.5557],[95.4188,23.5562],[95.4215,23.5595],[95.4227,23.5587],[95.4233,23.5572],[95.4241,23.5595],[95.4276,23.5603],[95.4307,23.5589],[95.4313,23.5563],[95.4294,23.5525],[95.4278,23.5515],[95.4276,23.5496],[95.4267,23.5485],[95.4228,23.5476],[95.4212,23.5466],[95.4175,23.5471],[95.4159,23.5458],[95.4155,23.5438],[95.4142,23.5427],[95.414,23.5445],[95.4123,23.545],[95.4124,23.5435],[95.414,23.5424],[95.4115,23.541],[95.4103,23.5396],[95.4101,23.5382],[95.4076,23.5375],[95.4074,23.5358],[95.405,23.532],[95.404,23.532],[95.4047,23.5329],[95.4044,23.5335],[95.4013,23.5344],[95.3996,23.5328],[95.3987,23.531],[95.3968,23.5303],[95.3927,23.5264],[95.3925,23.5246],[95.3895,23.522],[95.3876,23.5217],[95.387,23.5231],[95.3856,23.5231],[95.3851,23.5241],[95.3796,23.525],[95.378,23.525],[95.3772,23.5243],[95.3762,23.5253],[95.3731,23.5254],[95.3691,23.5246],[95.3677,23.5227],[95.3687,23.5218],[95.3661,23.5184],[95.3659,23.5166],[95.3645,23.5154],[95.3648,23.5129],[95.3685,23.5117],[95.3705,23.5129],[95.3734,23.5124],[95.3753,23.515],[95.3746,23.5166],[95.3756,23.5165],[95.3762,23.5174],[95.3767,23.5159],[95.3774,23.5168],[95.3777,23.5159],[95.3757,23.5136],[95.3758,23.5109],[95.3742,23.5099],[95.3742,23.5092],[95.3776,23.5062],[95.3798,23.5054],[95.3817,23.5039],[95.3827,23.504],[95.3862,23.5015],[95.3875,23.4989],[95.3887,23.4986],[95.389,23.5012],[95.3908,23.5013],[95.392,23.5023],[95.3916,23.5004],[95.3923,23.5002],[95.3939,23.5019],[95.3943,23.5036],[95.3963,23.5054],[95.3959,23.5071],[95.3938,23.5062],[95.394,23.5079],[95.3924,23.5095],[95.3924,23.5104],[95.3932,23.511],[95.3982,23.5104],[95.399,23.5108],[95.3997,23.5123],[95.3998,23.5156],[95.4009,23.5179],[95.3999,23.5186],[95.3999,23.5194],[95.4028,23.5212],[95.4025,23.5221],[95.4006,23.523],[95.4019,23.5238],[95.4042,23.5234],[95.4054,23.5242],[95.406,23.5257],[95.4066,23.5256],[95.4069,23.5236],[95.4033,23.516],[95.4048,23.5139],[95.4071,23.5138],[95.4094,23.5155],[95.4075,23.518],[95.4081,23.5204],[95.4089,23.5204],[95.4096,23.5192],[95.4112,23.5194],[95.4099,23.5206],[95.4121,23.5219],[95.412,23.5238],[95.4136,23.5243],[95.4138,23.5268],[95.4154,23.5259],[95.4185,23.5289],[95.4199,23.5295],[95.4203,23.5284],[95.4196,23.5256],[95.4176,23.5244],[95.4173,23.5234],[95.4182,23.5228],[95.4195,23.5232],[95.4209,23.5223],[95.4236,23.5248],[95.4248,23.523],[95.424,23.5223],[95.424,23.5212],[95.4258,23.5206],[95.4286,23.5222],[95.4278,23.5243],[95.4289,23.5251],[95.4302,23.5277],[95.4292,23.5291],[95.4334,23.5315],[95.4346,23.5307],[95.4345,23.5319],[95.4359,23.5323],[95.4393,23.531],[95.4381,23.5299],[95.4369,23.5303],[95.4347,23.529],[95.4349,23.5253],[95.4376,23.5247],[95.4403,23.5262],[95.4456,23.5249],[95.4425,23.5234],[95.4423,23.5222],[95.4402,23.5226],[95.4391,23.5206],[95.4356,23.5211],[95.4346,23.5206],[95.4341,23.5194],[95.4324,23.5196],[95.4311,23.519],[95.432,23.5184],[95.4326,23.5164],[95.4304,23.5158],[95.4302,23.5138],[95.4287,23.513],[95.4277,23.5137],[95.4236,23.5135],[95.4229,23.5123],[95.4229,23.5099],[95.4237,23.5091],[95.4228,23.5082],[95.4232,23.5073],[95.4242,23.5076],[95.4254,23.509],[95.4251,23.5113],[95.427,23.511],[95.4283,23.5117],[95.4288,23.5097],[95.4304,23.5088],[95.4313,23.5092],[95.4315,23.5114],[95.4322,23.5114],[95.4326,23.5096],[95.434,23.509],[95.4352,23.5096],[95.4356,23.5111],[95.4363,23.5114],[95.4372,23.5105],[95.4368,23.509],[95.4354,23.5077],[95.4337,23.5073],[95.4331,23.5058],[95.4349,23.505],[95.4379,23.5065],[95.4394,23.5054],[95.4413,23.5091],[95.44,23.5105],[95.4416,23.5114],[95.4426,23.5133],[95.4446,23.5125],[95.4435,23.5109],[95.4454,23.5096],[95.4446,23.5087],[95.4451,23.5084],[95.4481,23.5113],[95.4474,23.5133],[95.4497,23.5154],[95.451,23.5157],[95.4508,23.5137],[95.4516,23.5114],[95.4511,23.5082],[95.4526,23.5077],[95.4532,23.5091],[95.4541,23.5093],[95.4546,23.5111],[95.4541,23.5121],[95.455,23.5127],[95.4552,23.51],[95.4564,23.5074],[95.4581,23.5072],[95.4592,23.5062],[95.4606,23.5076],[95.4605,23.5096],[95.4628,23.5109],[95.4626,23.5119],[95.4634,23.5129],[95.4626,23.5141],[95.4635,23.5149],[95.4661,23.5154],[95.4651,23.5094],[95.4664,23.5082],[95.4683,23.5094],[95.4688,23.5119],[95.4719,23.5123],[95.473,23.5143],[95.4749,23.5132],[95.4732,23.5108],[95.4767,23.5105],[95.4772,23.5111],[95.4767,23.5123],[95.4796,23.5135],[95.4802,23.5152],[95.4814,23.5148],[95.4827,23.5158],[95.4847,23.5158],[95.486,23.517],[95.4854,23.5154],[95.4844,23.5149],[95.4854,23.5121],[95.4837,23.5105],[95.485,23.509],[95.4847,23.5083],[95.4829,23.5064],[95.4805,23.5063],[95.4775,23.5049],[95.481,23.5021],[95.4836,23.5017],[95.4841,23.5004],[95.4852,23.5005],[95.4846,23.4987],[95.4849,23.498],[95.4857,23.4984],[95.4865,23.4976],[95.4876,23.4981],[95.4887,23.4973],[95.4898,23.498],[95.4902,23.4963],[95.4909,23.4962],[95.4939,23.4965],[95.4944,23.4985],[95.4953,23.4988],[95.4958,23.4959],[95.4982,23.4944],[95.4942,23.4945],[95.4915,23.4932],[95.4903,23.4943],[95.4881,23.4941],[95.4856,23.4957],[95.4841,23.495],[95.4832,23.496],[95.4815,23.4961],[95.4828,23.4973],[95.4824,23.4979],[95.4797,23.497],[95.4795,23.4985],[95.4775,23.4988],[95.4769,23.4982],[95.4774,23.497],[95.4767,23.4967],[95.475,23.4974],[95.475,23.4986],[95.4729,23.4979],[95.4716,23.4989],[95.4714,23.4969],[95.4739,23.4946],[95.4729,23.4938],[95.4706,23.4959],[95.4688,23.4931],[95.4672,23.493],[95.4674,23.4948],[95.4661,23.4953],[95.4663,23.4968],[95.4653,23.4969],[95.4637,23.4985],[95.4614,23.4959],[95.4633,23.4941],[95.4626,23.4924],[95.4614,23.4931],[95.4602,23.4913],[95.4596,23.4949],[95.4574,23.4941],[95.4569,23.495],[95.456,23.4951],[95.4552,23.4932],[95.4565,23.4914],[95.4564,23.49],[95.4519,23.4906],[95.4508,23.49],[95.4556,23.488],[95.4542,23.4868],[95.4549,23.4854],[95.4531,23.4856],[95.4527,23.4845],[95.4546,23.4826],[95.4547,23.4814],[95.456,23.4814],[95.4562,23.4826],[95.4578,23.4829],[95.4581,23.4825],[95.4574,23.4811],[95.4608,23.4796],[95.4613,23.4802],[95.4608,23.481],[95.4615,23.4819],[95.4622,23.4812],[95.4631,23.4819],[95.4639,23.4807],[95.4644,23.4825],[95.4661,23.4826],[95.4675,23.4839],[95.4675,23.4849],[95.4691,23.4838],[95.4707,23.4848],[95.47,23.4833],[95.4722,23.4825],[95.4673,23.4813],[95.467,23.4802],[95.4682,23.479],[95.47,23.4802],[95.4709,23.4799],[95.4711,23.4782],[95.4725,23.4767],[95.4741,23.4785],[95.475,23.4764],[95.4761,23.4774],[95.4782,23.4779],[95.4791,23.4776],[95.4795,23.4766],[95.4806,23.4776],[95.4824,23.4773],[95.483,23.4745],[95.4795,23.4745],[95.479,23.4754],[95.4794,23.4762],[95.4788,23.4763],[95.4766,23.475],[95.4756,23.4727],[95.4767,23.4711],[95.4778,23.4707],[95.4828,23.4705],[95.4841,23.4679],[95.4859,23.4668],[95.484,23.4669],[95.4815,23.4698],[95.4789,23.4688],[95.4774,23.4693],[95.4742,23.4686],[95.4749,23.4702],[95.4739,23.4711],[95.4735,23.4725],[95.4724,23.4721],[95.4716,23.4729],[95.471,23.4727],[95.472,23.4709],[95.4714,23.4705],[95.4678,23.4722],[95.468,23.4748],[95.467,23.4744],[95.4648,23.4752],[95.4637,23.4749],[95.4637,23.474],[95.4661,23.4713],[95.4642,23.4696],[95.4668,23.4698],[95.4688,23.4691],[95.4699,23.4677],[95.4708,23.4646],[95.4733,23.4628],[95.4729,23.4622],[95.4702,23.4633],[95.4686,23.4664],[95.4678,23.467],[95.4671,23.467],[95.4668,23.4661],[95.4659,23.4668],[95.4613,23.4675],[95.4614,23.47],[95.4601,23.4712],[95.4593,23.4702],[95.4571,23.4698],[95.4568,23.4681],[95.4584,23.4663],[95.4573,23.4648],[95.4586,23.4618],[95.459,23.4589],[95.4574,23.4614],[95.4568,23.4599],[95.4551,23.462],[95.4534,23.4623],[95.4549,23.4635],[95.4538,23.4642],[95.454,23.4667],[95.4521,23.4677],[95.452,23.4713],[95.448,23.4697],[95.4474,23.4678],[95.4484,23.4658],[95.4465,23.4656],[95.4467,23.4667],[95.4458,23.4674],[95.4449,23.4659],[95.444,23.4663],[95.4427,23.4656],[95.4435,23.4668],[95.4427,23.4684],[95.4444,23.4691],[95.4453,23.4709],[95.4448,23.4721],[95.4434,23.4721],[95.4428,23.4732],[95.4456,23.4746],[95.444,23.4756],[95.4443,23.4777],[95.4436,23.4785],[95.4412,23.4775],[95.4405,23.4795],[95.4394,23.4793],[95.4375,23.4772],[95.4394,23.4733],[95.4364,23.474],[95.4354,23.4731],[95.4355,23.4714],[95.434,23.4732],[95.4348,23.4756],[95.4314,23.4778],[95.433,23.4777],[95.4345,23.4787],[95.4346,23.4802],[95.4337,23.4816],[95.4316,23.482],[95.4285,23.4814],[95.428,23.4808],[95.4281,23.4794],[95.4267,23.4789],[95.4266,23.4762],[95.424,23.4798],[95.4225,23.477],[95.4216,23.4767],[95.4174,23.4787],[95.4167,23.481],[95.4141,23.4815],[95.4127,23.4829],[95.4124,23.4847],[95.4113,23.4836],[95.4107,23.4815],[95.41,23.4841],[95.4084,23.4848],[95.4066,23.4837],[95.4064,23.4827],[95.4051,23.4825],[95.4049,23.4811],[95.4024,23.4818],[95.4007,23.4789],[95.4002,23.4787],[95.3991,23.4794],[95.3987,23.4771],[95.3971,23.4767],[95.3967,23.476],[95.3983,23.4755],[95.4007,23.4775],[95.4019,23.4775],[95.4028,23.4766],[95.4029,23.4741],[95.404,23.4732],[95.4061,23.4758],[95.4082,23.4772],[95.4085,23.4749],[95.4094,23.4742],[95.4152,23.4741],[95.4178,23.4751],[95.4184,23.4747],[95.4184,23.4723],[95.4192,23.4714],[95.4235,23.4715],[95.4247,23.4702],[95.4219,23.4696],[95.4211,23.4679],[95.4194,23.4675],[95.4167,23.4686],[95.4138,23.4682],[95.4123,23.4695],[95.4083,23.4704],[95.406,23.4693],[95.406,23.4683],[95.4103,23.4642],[95.4152,23.4621],[95.4157,23.4601],[95.4135,23.4611],[95.4092,23.4612],[95.4086,23.4588],[95.4072,23.4609],[95.4053,23.4611],[95.4067,23.4628],[95.4061,23.4639],[95.4031,23.4658],[95.401,23.4655],[95.4015,23.4685],[95.4007,23.4691],[95.3996,23.4687],[95.3985,23.4697],[95.3982,23.4676],[95.3972,23.4677],[95.3954,23.4692],[95.393,23.4675],[95.3934,23.4667],[95.3964,23.4654],[95.3967,23.4642],[95.3945,23.4649],[95.3909,23.4642],[95.3943,23.4627],[95.3954,23.4614],[95.3974,23.4622],[95.3982,23.4603],[95.4019,23.4599],[95.401,23.4587],[95.3987,23.4576],[95.3993,23.4563],[95.4013,23.4562],[95.3993,23.4544],[95.3999,23.4527],[95.4028,23.4552],[95.4057,23.4564],[95.4087,23.4534],[95.4103,23.4534],[95.4123,23.4551],[95.4128,23.4531],[95.4165,23.4531],[95.4156,23.4515],[95.4162,23.4508],[95.4232,23.4528],[95.4246,23.4518],[95.4256,23.4529],[95.4248,23.4547],[95.4249,23.4565],[95.4255,23.4556],[95.4276,23.4554],[95.4269,23.4544],[95.4271,23.4527],[95.4286,23.4512],[95.432,23.4514],[95.4339,23.4559],[95.4335,23.4599],[95.4363,23.4576],[95.438,23.4575],[95.4412,23.4601],[95.4428,23.4564],[95.4507,23.4518],[95.4521,23.4489],[95.4548,23.4491],[95.4572,23.4507],[95.4603,23.4498],[95.4637,23.4506],[95.4672,23.4494],[95.4686,23.448],[95.4696,23.4454],[95.4709,23.4446],[95.4698,23.4426],[95.4701,23.4402],[95.4711,23.4403],[95.4734,23.4425],[95.4745,23.4425],[95.4769,23.4409],[95.4783,23.4382],[95.4808,23.4376],[95.4834,23.4385],[95.4838,23.4363],[95.4882,23.4343],[95.4899,23.4352],[95.4938,23.4339],[95.495,23.4357],[95.496,23.4359],[95.4955,23.4336],[95.4977,23.4331],[95.4916,23.43],[95.4896,23.4275],[95.4863,23.4274],[95.4839,23.4252],[95.4848,23.424],[95.4897,23.4255],[95.4912,23.425],[95.4926,23.4255],[95.4947,23.4251],[95.4942,23.4242],[95.4924,23.4236],[95.4925,23.4223],[95.4894,23.4201],[95.4891,23.4188],[95.4871,23.419],[95.4847,23.4178],[95.4823,23.4177],[95.4814,23.4166],[95.4816,23.4131],[95.4828,23.4113],[95.4862,23.4117],[95.4873,23.411],[95.4874,23.4125],[95.489,23.4124],[95.49,23.413],[95.4923,23.4117],[95.4915,23.4106],[95.4896,23.4108],[95.4893,23.4096],[95.4886,23.41],[95.4845,23.4088],[95.4863,23.4075],[95.4841,23.4064],[95.4824,23.4075],[95.481,23.407],[95.479,23.4089],[95.4777,23.4086],[95.4785,23.4076],[95.4788,23.4047],[95.4804,23.4037],[95.4796,23.4023],[95.4818,23.4001],[95.4817,23.3992],[95.4799,23.3995],[95.4781,23.4029],[95.4767,23.4023],[95.4764,23.4029],[95.4772,23.4037],[95.4756,23.4042],[95.4754,23.4054],[95.4721,23.4048],[95.4729,23.406],[95.4732,23.4096],[95.4717,23.4117],[95.4686,23.4116],[95.4693,23.416],[95.4687,23.4198],[95.4667,23.4207],[95.4655,23.4195],[95.4619,23.4238],[95.4607,23.424],[95.459,23.422],[95.458,23.423],[95.4568,23.4226],[95.4571,23.4215],[95.4596,23.42],[95.4618,23.4153],[95.4588,23.4128],[95.4568,23.4155],[95.4555,23.4154],[95.4531,23.4139],[95.4495,23.4148],[95.4452,23.4134],[95.4435,23.412],[95.4411,23.4133],[95.4385,23.4131],[95.4368,23.4155],[95.4359,23.4155],[95.4352,23.4147],[95.437,23.411],[95.4382,23.4109],[95.4397,23.4119],[95.4403,23.4116],[95.4395,23.4092],[95.4399,23.4077],[95.4424,23.4082],[95.4439,23.4105],[95.4474,23.4093],[95.4478,23.4073],[95.4487,23.4062],[95.4502,23.4064],[95.4504,23.4079],[95.4512,23.4088],[95.4534,23.4072],[95.4573,23.407],[95.4576,23.4059],[95.4565,23.4036],[95.4577,23.403],[95.4599,23.4037],[95.4602,23.4021],[95.4597,23.4008],[95.4632,23.4005],[95.4642,23.3993],[95.463,23.3979],[95.461,23.3971],[95.4613,23.3957],[95.4633,23.3954],[95.4615,23.3923],[95.4618,23.3917],[95.4651,23.3913],[95.4666,23.3928],[95.4681,23.3928],[95.4676,23.3908],[95.4696,23.3914],[95.4702,23.3911],[95.4685,23.3894],[95.4688,23.388],[95.4726,23.3877],[95.4774,23.3886],[95.478,23.3876],[95.4755,23.3861],[95.4755,23.3852],[95.4773,23.3851],[95.4791,23.384],[95.4819,23.3839],[95.4838,23.3826],[95.4854,23.3835],[95.4868,23.3831],[95.4879,23.3838],[95.4886,23.3829],[95.4847,23.3794],[95.4826,23.3799],[95.4808,23.3789],[95.479,23.3802],[95.4778,23.3802],[95.4752,23.379],[95.4736,23.3793],[95.472,23.3808],[95.4687,23.3815],[95.468,23.3841],[95.4657,23.3847],[95.4634,23.3838],[95.4642,23.3824],[95.463,23.3809],[95.4641,23.3787],[95.4637,23.3781],[95.4618,23.3807],[95.4593,23.3809],[95.4606,23.3821],[95.4574,23.3856],[95.4543,23.3843],[95.4525,23.3823],[95.4511,23.3838],[95.4517,23.3877],[95.4509,23.3887],[95.4495,23.3884],[95.449,23.3862],[95.4474,23.3853],[95.4469,23.3838],[95.4458,23.3852],[95.445,23.3852],[95.4452,23.3872],[95.4416,23.389],[95.4399,23.3911],[95.4386,23.3905],[95.4411,23.3877],[95.4401,23.3852],[95.4387,23.3862],[95.4381,23.3853],[95.4357,23.3842],[95.4352,23.386],[95.433,23.3865],[95.4327,23.3887],[95.4312,23.3882],[95.4309,23.3874],[95.4317,23.3862],[95.4294,23.3833],[95.429,23.3819],[95.4254,23.3816],[95.4238,23.3804],[95.4246,23.3774],[95.4262,23.3773],[95.4269,23.3787],[95.4286,23.3792],[95.4323,23.382],[95.4325,23.3814],[95.4313,23.3796],[95.4317,23.3778],[95.4329,23.3777],[95.4344,23.379],[95.4356,23.3777],[95.4391,23.3781],[95.4395,23.3746],[95.4432,23.3744],[95.4421,23.3734],[95.4419,23.3722],[95.4406,23.3719],[95.435,23.3744],[95.4299,23.3733],[95.4292,23.3724],[95.4314,23.3706],[95.432,23.3684],[95.4301,23.3698],[95.4286,23.3701],[95.4283,23.3669],[95.4266,23.3691],[95.4241,23.369],[95.4235,23.3671],[95.424,23.3653],[95.4232,23.3653],[95.4226,23.3643],[95.423,23.3625],[95.4205,23.3626],[95.4225,23.3581],[95.4234,23.3578],[95.4243,23.3588],[95.4259,23.3589],[95.427,23.361],[95.4292,23.3583],[95.4306,23.3581],[95.4321,23.3568],[95.4338,23.3588],[95.4336,23.3603],[95.4343,23.3611],[95.436,23.3593],[95.4377,23.3587],[95.4394,23.359],[95.4418,23.361],[95.4424,23.3605],[95.4424,23.3582],[95.444,23.3572],[95.4456,23.3582],[95.4476,23.3578],[95.4482,23.3604],[95.4502,23.3587],[95.4511,23.3588],[95.4524,23.3603],[95.4544,23.3599],[95.4557,23.3587],[95.4572,23.3587],[95.4581,23.3596],[95.4573,23.3575],[95.4593,23.3557],[95.4564,23.357],[95.4554,23.3569],[95.4547,23.3557],[95.4525,23.3565],[95.45,23.3535],[95.4498,23.3515],[95.4484,23.3522],[95.4458,23.3514],[95.4465,23.3472],[95.4443,23.3485],[95.4439,23.346],[95.4432,23.3454],[95.4423,23.3474],[95.4408,23.348],[95.4387,23.3474],[95.4381,23.3468],[95.4385,23.3443],[95.4371,23.3448],[95.4355,23.3432],[95.4344,23.3448],[95.4326,23.3443],[95.4335,23.3428],[95.4328,23.3409],[95.4316,23.3406],[95.4307,23.3419],[95.4294,23.3409],[95.4274,23.3433],[95.426,23.3428],[95.4257,23.3422],[95.4267,23.3407],[95.4239,23.3395],[95.4244,23.3359],[95.4272,23.3364],[95.4281,23.3379],[95.4298,23.3368],[95.4333,23.3376],[95.4332,23.3347],[95.4348,23.3344],[95.436,23.3353],[95.4376,23.333],[95.4401,23.3315],[95.4392,23.3307],[95.4362,23.3323],[95.4352,23.332],[95.4341,23.3329],[95.4306,23.333],[95.4287,23.3321],[95.4286,23.3309],[95.4273,23.33],[95.4275,23.3283],[95.4285,23.3275],[95.4275,23.3271],[95.4258,23.3291],[95.4253,23.3312],[95.4226,23.3312],[95.4223,23.3288],[95.4212,23.3301],[95.4204,23.3292],[95.4195,23.3292],[95.4198,23.3302],[95.4187,23.3311],[95.4202,23.3327],[95.419,23.3342],[95.4163,23.3339],[95.4152,23.3346],[95.4139,23.3339],[95.4139,23.3354],[95.4173,23.3365],[95.4151,23.3372],[95.4153,23.3393],[95.4139,23.3404],[95.4153,23.3407],[95.4159,23.3415],[95.413,23.3441],[95.4108,23.3435],[95.4097,23.3421],[95.4082,23.3431],[95.4053,23.3421],[95.4075,23.3454],[95.4063,23.3464],[95.4041,23.3449],[95.404,23.3471],[95.4031,23.3478],[95.4014,23.3463],[95.4021,23.3441],[95.4003,23.3427],[95.3996,23.3428],[95.3996,23.345],[95.3985,23.3462],[95.3976,23.3459],[95.3974,23.3439],[95.3958,23.3455],[95.3941,23.3442],[95.3942,23.3473],[95.3958,23.3494],[95.3955,23.35],[95.3933,23.3493],[95.3911,23.3499],[95.3894,23.3488],[95.3878,23.3492],[95.3885,23.3522],[95.3878,23.3529],[95.3834,23.3512],[95.3827,23.3525],[95.385,23.3567],[95.3793,23.3552],[95.3775,23.3576],[95.376,23.3587],[95.375,23.3583],[95.374,23.3595],[95.3728,23.3589],[95.3716,23.3596],[95.3703,23.3589],[95.3679,23.36],[95.3666,23.3593],[95.3657,23.3605],[95.3685,23.3631],[95.3671,23.3648],[95.3646,23.3628],[95.3634,23.3633],[95.3645,23.3679],[95.3636,23.3689],[95.3622,23.3678],[95.3627,23.3668],[95.3618,23.3653],[95.3588,23.3648],[95.3569,23.3662],[95.358,23.3671],[95.3579,23.3683],[95.3556,23.3685],[95.354,23.3676],[95.3536,23.3704],[95.3524,23.371],[95.3518,23.3684],[95.3487,23.3672],[95.3487,23.3661],[95.3503,23.3639],[95.349,23.3632],[95.3492,23.3626],[95.3523,23.3622],[95.3513,23.3646],[95.3532,23.3656],[95.3552,23.3638],[95.3574,23.3629],[95.3605,23.3641],[95.3611,23.3632],[95.3607,23.3621],[95.3622,23.3614],[95.3626,23.3597],[95.3604,23.3577],[95.3589,23.3575],[95.3596,23.3563],[95.361,23.3573],[95.3621,23.3573],[95.3624,23.3555],[95.3642,23.3553],[95.3646,23.3542],[95.3657,23.3548],[95.3665,23.3546],[95.3657,23.3533],[95.3662,23.3522],[95.3634,23.3512],[95.3651,23.349],[95.3676,23.35],[95.3672,23.3512],[95.3687,23.3534],[95.3703,23.3527],[95.3688,23.3553],[95.3711,23.3558],[95.3724,23.354],[95.3736,23.3558],[95.3748,23.3546],[95.3744,23.3529],[95.3762,23.3539],[95.3771,23.3535],[95.3765,23.3508],[95.3757,23.35],[95.3769,23.3485],[95.3779,23.3491],[95.3783,23.3508],[95.38,23.3511],[95.3809,23.3507],[95.3804,23.349],[95.3817,23.3493],[95.3815,23.3481],[95.3821,23.3468],[95.3829,23.3471],[95.3827,23.3485],[95.3833,23.3491],[95.3852,23.3483],[95.3855,23.346],[95.3847,23.3441],[95.385,23.3433],[95.3869,23.3449],[95.3872,23.3472],[95.3886,23.3469],[95.3886,23.3456],[95.3899,23.3456],[95.3891,23.3434],[95.3906,23.3424],[95.3916,23.3425],[95.3922,23.3408],[95.3942,23.34],[95.3922,23.3386],[95.3941,23.3365],[95.3941,23.3354],[95.3907,23.3359],[95.3899,23.3379],[95.3878,23.3369],[95.3882,23.334],[95.3868,23.3332],[95.3846,23.3354],[95.3846,23.3367],[95.3828,23.3354],[95.3816,23.3367],[95.3797,23.3357],[95.3784,23.3366],[95.378,23.3378],[95.3773,23.3376],[95.3772,23.3364],[95.3781,23.335],[95.3817,23.3348],[95.3812,23.3336],[95.3786,23.3322],[95.3811,23.3312],[95.3795,23.3301],[95.3764,23.3293],[95.3761,23.3311],[95.3742,23.3321],[95.3753,23.3299],[95.3741,23.3286],[95.3757,23.327],[95.3744,23.3263],[95.3741,23.3249],[95.3766,23.3228],[95.3749,23.3221],[95.376,23.3209],[95.3757,23.3193],[95.371,23.3186],[95.3721,23.3178],[95.3716,23.3162],[95.3725,23.315],[95.3741,23.3154],[95.3742,23.314],[95.3752,23.3128],[95.3758,23.3139],[95.3742,23.3175],[95.3746,23.3182],[95.377,23.3186],[95.3802,23.3163],[95.3793,23.3199],[95.3811,23.3187],[95.3837,23.3212],[95.385,23.3215],[95.385,23.3209],[95.3831,23.3185],[95.3823,23.316],[95.3757,23.3112],[95.3727,23.3122],[95.3728,23.3101],[95.3712,23.3103],[95.3701,23.3072],[95.3668,23.305],[95.3334,23.3098],[95.3268,23.3086]],[[95.3875,23.5696],[95.3867,23.5695],[95.3867,23.5691],[95.3874,23.5688],[95.3875,23.5696]],[[95.3885,23.5601],[95.3877,23.5595],[95.3877,23.5591],[95.3885,23.559],[95.3885,23.5601]],[[95.3591,23.5579],[95.3617,23.5593],[95.3607,23.5599],[95.3593,23.5592],[95.3568,23.5607],[95.3571,23.5577],[95.3591,23.5579]],[[95.396,23.558],[95.3955,23.5571],[95.3967,23.5564],[95.3969,23.5569],[95.396,23.558]],[[95.4216,23.5555],[95.4211,23.5535],[95.4217,23.5531],[95.4239,23.5556],[95.4242,23.5567],[95.4227,23.5556],[95.4216,23.5555]],[[95.3884,23.5531],[95.3901,23.5534],[95.3904,23.5543],[95.3898,23.5546],[95.3879,23.5538],[95.3884,23.5531]],[[95.3857,23.5546],[95.385,23.5547],[95.3849,23.554],[95.3855,23.5539],[95.3857,23.5546]],[[95.4184,23.5547],[95.4188,23.5542],[95.4192,23.5548],[95.4188,23.5552],[95.4184,23.5547]],[[95.3947,23.554],[95.3946,23.5535],[95.3948,23.5532],[95.3951,23.5536],[95.3947,23.554]],[[95.4096,23.5404],[95.4093,23.5401],[95.4096,23.54],[95.4096,23.5404]],[[95.3688,23.5392],[95.3682,23.538],[95.369,23.5374],[95.3693,23.5379],[95.3688,23.5392]],[[95.3695,23.5298],[95.3715,23.5315],[95.3709,23.5319],[95.3686,23.531],[95.3689,23.5332],[95.3684,23.5338],[95.3683,23.5326],[95.3666,23.5308],[95.3673,23.5301],[95.3695,23.5298]],[[95.3736,23.5311],[95.3739,23.5308],[95.3739,23.531],[95.3736,23.5311]],[[95.3716,23.5292],[95.3706,23.5284],[95.3711,23.5265],[95.3717,23.527],[95.372,23.529],[95.3716,23.5292]],[[95.3649,23.5235],[95.363,23.522],[95.3626,23.521],[95.3654,23.5231],[95.3649,23.5235]],[[95.3664,23.522],[95.3667,23.5217],[95.3666,23.522],[95.3664,23.522]],[[95.3658,23.521],[95.3599,23.5163],[95.3606,23.5149],[95.3599,23.5143],[95.3581,23.5143],[95.3581,23.516],[95.3553,23.5169],[95.3535,23.5159],[95.3522,23.5133],[95.3548,23.5143],[95.3556,23.5132],[95.3545,23.5092],[95.3564,23.51],[95.3572,23.5114],[95.3589,23.5123],[95.3609,23.5094],[95.3625,23.5086],[95.3616,23.5105],[95.3623,23.5111],[95.3624,23.5132],[95.3611,23.5142],[95.361,23.5151],[95.3617,23.5166],[95.3626,23.5159],[95.3641,23.5166],[95.3658,23.521]],[[95.3596,23.509],[95.3586,23.509],[95.3589,23.5111],[95.3584,23.5115],[95.3577,23.5105],[95.3579,23.5087],[95.3565,23.5063],[95.3573,23.5066],[95.3585,23.504],[95.3601,23.5036],[95.3607,23.5057],[95.3596,23.509]],[[95.3314,23.5038],[95.3309,23.5041],[95.3308,23.5039],[95.3314,23.5038]],[[95.355,23.5056],[95.3552,23.5061],[95.355,23.5061],[95.355,23.5056]],[[95.3521,23.509],[95.3523,23.5094],[95.3521,23.5094],[95.3521,23.509]],[[95.352,23.5108],[95.3515,23.5103],[95.3524,23.5103],[95.352,23.5108]],[[95.3524,23.5116],[95.3521,23.5119],[95.3521,23.5116],[95.3524,23.5116]],[[95.3599,23.5216],[95.3596,23.5217],[95.3597,23.5215],[95.3599,23.5216]],[[95.3584,23.5229],[95.3579,23.5225],[95.3579,23.5221],[95.3585,23.5221],[95.3584,23.5229]],[[95.3594,23.5277],[95.3589,23.528],[95.358,23.5271],[95.3588,23.5267],[95.3594,23.5277]],[[95.3603,23.5282],[95.3606,23.5278],[95.3605,23.5283],[95.3603,23.5282]],[[95.3595,23.5289],[95.3592,23.5293],[95.3593,23.5288],[95.3595,23.5289]],[[95.3554,23.5328],[95.3548,23.5329],[95.3553,23.5324],[95.3554,23.5328]],[[95.355,23.5346],[95.3564,23.5346],[95.3568,23.535],[95.3553,23.5359],[95.3541,23.5347],[95.3546,23.5338],[95.355,23.5346]],[[95.3835,23.5011],[95.3842,23.5017],[95.3834,23.5022],[95.3831,23.5016],[95.3835,23.5011]],[[95.4516,23.4965],[95.4529,23.4941],[95.4542,23.4941],[95.4546,23.4963],[95.454,23.4983],[95.4532,23.4987],[95.4521,23.4981],[95.4516,23.4965]],[[95.3868,23.4954],[95.385,23.4936],[95.3854,23.4917],[95.3869,23.4923],[95.3868,23.4954]],[[95.4466,23.4904],[95.4465,23.4894],[95.4471,23.4903],[95.4466,23.4904]],[[95.359,23.489],[95.3571,23.4895],[95.3587,23.4883],[95.359,23.489]],[[95.3947,23.4829],[95.3949,23.4823],[95.3956,23.4826],[95.3952,23.483],[95.3947,23.4829]],[[95.3971,23.4812],[95.3971,23.4796],[95.3981,23.4793],[95.3988,23.4805],[95.3985,23.4819],[95.398,23.4822],[95.3971,23.4812]],[[95.3559,23.4812],[95.3554,23.4809],[95.3554,23.4807],[95.3559,23.4807],[95.3559,23.4812]],[[95.3528,23.4773],[95.3538,23.4781],[95.3535,23.4787],[95.3524,23.4788],[95.3528,23.4773]],[[95.3903,23.4788],[95.3892,23.4767],[95.3899,23.4762],[95.3907,23.4776],[95.3917,23.4759],[95.3925,23.4759],[95.3931,23.4774],[95.3903,23.4788]],[[95.3873,23.4759],[95.3856,23.4756],[95.3843,23.4762],[95.3797,23.4756],[95.3783,23.4744],[95.3807,23.4696],[95.3805,23.4674],[95.3818,23.4671],[95.3842,23.4688],[95.3841,23.4702],[95.382,23.4715],[95.3826,23.4737],[95.3833,23.4742],[95.3841,23.4725],[95.386,23.4722],[95.3873,23.4759]],[[95.3546,23.4631],[95.3568,23.4629],[95.3561,23.4636],[95.3548,23.4636],[95.3546,23.4631]],[[95.4091,23.4512],[95.41,23.4519],[95.4096,23.4525],[95.4089,23.4518],[95.4091,23.4512]],[[95.4218,23.4514],[95.4229,23.4504],[95.4235,23.4508],[95.4224,23.4518],[95.4218,23.4514]],[[95.4274,23.4488],[95.4279,23.4493],[95.4273,23.4498],[95.427,23.4492],[95.4274,23.4488]],[[95.4671,23.4447],[95.4645,23.4426],[95.4648,23.4412],[95.4656,23.4412],[95.468,23.4436],[95.4683,23.4445],[95.4671,23.4447]],[[95.3612,23.4429],[95.3609,23.4425],[95.3611,23.4424],[95.3612,23.4429]],[[95.471,23.4344],[95.4718,23.4342],[95.4742,23.4355],[95.4757,23.4353],[95.4766,23.4364],[95.4766,23.4376],[95.4759,23.4382],[95.4738,23.4382],[95.4706,23.436],[95.471,23.4344]],[[95.4138,23.433],[95.4141,23.4334],[95.4138,23.4335],[95.4138,23.433]],[[95.3082,23.4199],[95.3085,23.4204],[95.3083,23.4207],[95.3077,23.4203],[95.3082,23.4199]],[[95.2961,23.4261],[95.2954,23.4257],[95.2956,23.4248],[95.2968,23.4256],[95.2961,23.4261]],[[95.2834,23.4263],[95.2831,23.4265],[95.2831,23.4263],[95.2834,23.4263]],[[95.301,23.4271],[95.3019,23.4285],[95.3013,23.4292],[95.3002,23.4289],[95.2996,23.4278],[95.301,23.4271]],[[95.2816,23.4276],[95.2806,23.4276],[95.2802,23.4272],[95.2814,23.4271],[95.2816,23.4276]],[[95.3175,23.4287],[95.3181,23.4296],[95.3175,23.4306],[95.3169,23.4298],[95.3175,23.4287]],[[95.3305,23.4364],[95.3297,23.4359],[95.3304,23.4359],[95.3305,23.4364]],[[95.3232,23.4386],[95.3227,23.4392],[95.3218,23.439],[95.3229,23.4376],[95.3232,23.4386]],[[95.2854,23.4292],[95.2875,23.4309],[95.2866,23.4318],[95.2847,23.4309],[95.2854,23.4292]],[[95.2875,23.4324],[95.2872,23.4334],[95.2868,23.4332],[95.2875,23.4324]],[[95.3013,23.4092],[95.2993,23.4075],[95.2992,23.4058],[95.3007,23.4054],[95.3017,23.4063],[95.3013,23.4078],[95.3021,23.4087],[95.3013,23.4092]],[[95.4585,23.3998],[95.4581,23.3993],[95.4582,23.399],[95.4587,23.3991],[95.4585,23.3998]],[[95.3017,23.3994],[95.3006,23.3987],[95.3034,23.3984],[95.3032,23.3994],[95.3017,23.3994]],[[95.3465,23.3965],[95.3425,23.3968],[95.3419,23.3943],[95.3438,23.3939],[95.3447,23.3927],[95.3453,23.3933],[95.3448,23.3946],[95.3465,23.3965]],[[95.3406,23.3927],[95.3401,23.3929],[95.34,23.3926],[95.3406,23.3927]],[[95.3377,23.39],[95.3385,23.3894],[95.3395,23.3901],[95.3401,23.3899],[95.3408,23.3883],[95.3432,23.3893],[95.3411,23.3917],[95.3385,23.3926],[95.3377,23.3914],[95.3377,23.39]],[[95.4431,23.3914],[95.4433,23.3919],[95.443,23.3921],[95.4427,23.3917],[95.4431,23.3914]],[[95.3432,23.3883],[95.3432,23.3875],[95.3446,23.3864],[95.3438,23.3848],[95.3465,23.384],[95.3451,23.3889],[95.3432,23.3883]],[[95.3472,23.3831],[95.3474,23.3818],[95.3478,23.3823],[95.3472,23.3831]],[[95.3463,23.382],[95.3437,23.3814],[95.3434,23.3791],[95.3448,23.3777],[95.3461,23.3776],[95.3474,23.3758],[95.349,23.3756],[95.3511,23.3736],[95.3514,23.3744],[95.3498,23.3758],[95.3493,23.3786],[95.3463,23.382]],[[95.4227,23.3803],[95.4234,23.3807],[95.4226,23.3814],[95.4223,23.3807],[95.4227,23.3803]],[[95.4196,23.3771],[95.4218,23.3771],[95.4224,23.3783],[95.4213,23.3789],[95.4194,23.3778],[95.4196,23.3771]],[[95.4172,23.3771],[95.4166,23.377],[95.4164,23.3766],[95.4171,23.3764],[95.4172,23.3771]],[[95.3113,23.3749],[95.3107,23.3745],[95.3115,23.3738],[95.3118,23.3745],[95.3113,23.3749]],[[95.3076,23.3758],[95.3075,23.3784],[95.3058,23.379],[95.3052,23.3781],[95.3067,23.3774],[95.3066,23.3759],[95.3076,23.3758]],[[95.3441,23.3767],[95.3444,23.3764],[95.3443,23.3769],[95.3441,23.3767]],[[95.3059,23.382],[95.3047,23.3815],[95.3044,23.3807],[95.3061,23.3804],[95.3066,23.3813],[95.3059,23.382]],[[95.3498,23.3733],[95.3491,23.3728],[95.35,23.3706],[95.3506,23.3703],[95.3514,23.3714],[95.3507,23.3729],[95.3498,23.3733]],[[95.3469,23.3656],[95.3474,23.3662],[95.3469,23.3663],[95.3469,23.3656]],[[95.346,23.3651],[95.3463,23.3648],[95.3462,23.3652],[95.346,23.3651]],[[95.3489,23.3614],[95.3489,23.3608],[95.3494,23.3608],[95.3494,23.3613],[95.3489,23.3614]],[[95.3519,23.3608],[95.3519,23.3603],[95.3523,23.3607],[95.3519,23.3608]],[[95.3028,23.3567],[95.3035,23.3567],[95.3038,23.3573],[95.3027,23.3577],[95.3028,23.3567]],[[95.3066,23.3556],[95.3077,23.3555],[95.3065,23.356],[95.3066,23.3556]],[[95.3575,23.355],[95.3578,23.3545],[95.3578,23.355],[95.3575,23.355]],[[95.3012,23.3545],[95.3006,23.3543],[95.3012,23.3542],[95.3012,23.3545]],[[95.2884,23.3557],[95.2889,23.3566],[95.2882,23.357],[95.2878,23.3557],[95.2884,23.3557]],[[95.2317,23.3694],[95.2325,23.3689],[95.2322,23.3696],[95.2317,23.3694]],[[95.3602,23.3477],[95.3612,23.3483],[95.3608,23.3489],[95.3598,23.3481],[95.3602,23.3477]],[[95.3624,23.348],[95.3618,23.3472],[95.3623,23.3469],[95.3624,23.348]],[[95.3785,23.3476],[95.3791,23.3479],[95.3786,23.3479],[95.3785,23.3476]],[[95.3753,23.3458],[95.3758,23.3458],[95.3761,23.3463],[95.3753,23.3466],[95.3753,23.3458]],[[95.3841,23.3465],[95.3846,23.346],[95.3846,23.3464],[95.3841,23.3465]],[[95.3592,23.3452],[95.3599,23.3442],[95.3623,23.3441],[95.3614,23.3454],[95.3603,23.3457],[95.3592,23.3452]],[[95.3815,23.3457],[95.382,23.3454],[95.382,23.3456],[95.3815,23.3457]],[[95.2388,23.3437],[95.2387,23.3445],[95.2383,23.3441],[95.2388,23.3437]],[[95.3846,23.3394],[95.384,23.339],[95.3841,23.3376],[95.3851,23.3385],[95.3846,23.3394]],[[95.3815,23.3389],[95.3807,23.3383],[95.3816,23.3376],[95.3819,23.3386],[95.3815,23.3389]],[[95.2648,23.3323],[95.2645,23.3313],[95.2652,23.3309],[95.2656,23.3318],[95.2648,23.3323]],[[95.372,23.3254],[95.3723,23.3251],[95.3722,23.3255],[95.372,23.3254]],[[95.3012,23.3204],[95.3002,23.3196],[95.2986,23.3203],[95.2971,23.3173],[95.2981,23.3169],[95.2997,23.3182],[95.3014,23.3172],[95.3016,23.3195],[95.3035,23.3198],[95.3025,23.3219],[95.3015,23.322],[95.3012,23.3204]],[[95.3699,23.3201],[95.3703,23.3199],[95.3704,23.3201],[95.3699,23.3201]],[[95.3672,23.3172],[95.367,23.3162],[95.3683,23.3167],[95.3686,23.3159],[95.3698,23.3163],[95.3703,23.3157],[95.3694,23.3174],[95.3685,23.3167],[95.3679,23.3174],[95.3672,23.3172]],[[95.2975,23.3136],[95.297,23.3132],[95.2975,23.3131],[95.2975,23.3136]],[[95.2982,23.3131],[95.2987,23.3126],[95.2993,23.313],[95.2987,23.3136],[95.2982,23.3131]],[[95.2927,23.3081],[95.2933,23.3078],[95.2945,23.3093],[95.2929,23.309],[95.2927,23.3081]],[[95.3698,23.3144],[95.37,23.3142],[95.37,23.3144],[95.3698,23.3144]],[[95.4187,23.366],[95.421,23.3668],[95.4205,23.3683],[95.4191,23.3687],[95.418,23.3678],[95.4187,23.366]],[[95.4117,23.3643],[95.4125,23.3643],[95.412,23.3647],[95.4117,23.3643]],[[95.4155,23.3627],[95.4132,23.3614],[95.4134,23.3602],[95.4154,23.3606],[95.417,23.3598],[95.4189,23.3612],[95.4186,23.3624],[95.4155,23.3627]],[[95.409,23.3615],[95.4087,23.3609],[95.4093,23.3604],[95.4096,23.3611],[95.409,23.3615]],[[95.3767,23.3607],[95.3776,23.3613],[95.3772,23.362],[95.3762,23.3616],[95.3767,23.3607]],[[95.4046,23.3624],[95.4041,23.3627],[95.404,23.3625],[95.4046,23.3624]],[[95.3763,23.3596],[95.3758,23.3593],[95.3764,23.3594],[95.3763,23.3596]],[[95.3898,23.354],[95.3889,23.3542],[95.3893,23.3535],[95.3898,23.354]],[[95.4034,23.3488],[95.4023,23.3489],[95.4034,23.3485],[95.4034,23.3488]],[[95.4299,23.3352],[95.4302,23.3347],[95.4301,23.3352],[95.4299,23.3352]],[[95.4074,23.4529],[95.4077,23.4533],[95.4075,23.4533],[95.4074,23.4529]],[[95.4145,23.4838],[95.4147,23.4834],[95.4147,23.4838],[95.4145,23.4838]],[[95.4526,23.4803],[95.4528,23.48],[95.4528,23.4803],[95.4526,23.4803]],[[95.4693,23.4722],[95.47,23.473],[95.4692,23.4738],[95.4688,23.4726],[95.4693,23.4722]],[[95.478,23.5037],[95.4777,23.503],[95.4782,23.5029],[95.4785,23.5033],[95.478,23.5037]],[[95.4169,23.5049],[95.4164,23.5076],[95.4182,23.5092],[95.4188,23.5077],[95.4198,23.5079],[95.4199,23.5094],[95.4216,23.5093],[95.4219,23.5113],[95.4196,23.5119],[95.4189,23.5104],[95.4156,23.5106],[95.4142,23.5069],[95.4126,23.5068],[95.4152,23.5039],[95.416,23.5039],[95.4169,23.5049]],[[95.4812,23.5096],[95.4798,23.509],[95.4815,23.5072],[95.4829,23.5084],[95.4812,23.5096]]]}},{"type":"Feature","properties":{"Name":"","Type":"Lake/Dam","key":0},"geometry":{"type":"Polygon","coordinates":[[[95.2728,22.1613],[95.2662,22.162],[95.2656,22.1625],[95.2657,22.161],[95.2626,22.1638],[95.2606,22.1623],[95.2605,22.1607],[95.2613,22.1602],[95.2615,22.1595],[95.2605,22.1604],[95.26,22.159],[95.2586,22.1593],[95.2578,22.1613],[95.2592,22.1624],[95.2589,22.1633],[95.2598,22.1632],[95.2598,22.1641],[95.2604,22.1643],[95.2594,22.1648],[95.2594,22.1655],[95.2611,22.1665],[95.2644,22.1652],[95.2657,22.1661],[95.2679,22.1656],[95.2683,22.1649],[95.2655,22.1654],[95.267,22.1637],[95.2728,22.1613]]]}},{"type":"Feature","properties":{"Name":"","Type":"Lake/Dam","key":0},"geometry":{"type":"Polygon","coordinates":[[[95.3824,22.0665],[95.382,22.0649],[95.3826,22.0633],[95.3865,22.0631],[95.3876,22.0607],[95.3894,22.0599],[95.388,22.063],[95.3912,22.0596],[95.3937,22.0611],[95.3943,22.0601],[95.3955,22.0614],[95.397,22.0606],[95.3985,22.062],[95.399,22.0635],[95.4005,22.0645],[95.4002,22.0627],[95.3989,22.0614],[95.3991,22.0597],[95.4011,22.057],[95.4027,22.0561],[95.403,22.0549],[95.3979,22.0522],[95.3948,22.0533],[95.396,22.0544],[95.3955,22.0578],[95.3934,22.059],[95.3882,22.0594],[95.3855,22.0608],[95.3851,22.062],[95.3839,22.0616],[95.3805,22.0642],[95.3792,22.0644],[95.3824,22.0665]],[[95.3982,22.0589],[95.3979,22.0583],[95.3984,22.0579],[95.3988,22.0585],[95.3982,22.0589]]]}},{"type":"Feature","properties":{"Name":"","Type":"","key":0},"geometry":{"type":"Polygon","coordinates":[[[95.5569,23.2414],[95.5563,23.2414],[95.5546,23.2441],[95.5531,23.2444],[95.5531,23.2439],[95.5522,23.2439],[95.5517,23.2458],[95.5496,23.2461],[95.5486,23.251],[95.5497,23.2507],[95.5498,23.2526],[95.5509,23.252],[95.5518,23.2528],[95.5515,23.2512],[95.5509,23.251],[95.5515,23.2504],[95.5515,23.249],[95.5547,23.2493],[95.555,23.2498],[95.5553,23.249],[95.5561,23.249],[95.5565,23.2498],[95.5573,23.2498],[95.5564,23.2484],[95.557,23.2471],[95.5602,23.247],[95.5611,23.2475],[95.5608,23.2467],[95.559,23.2465],[95.5596,23.2454],[95.5552,23.246],[95.5569,23.2414]]]}},{"type":"Feature","properties":{"Name":"","Type":"","key":0},"geometry":{"type":"Polygon","coordinates":[[[95.5418,23.2332],[95.5412,23.2332],[95.5409,23.2346],[95.5374,23.2347],[95.5371,23.2352],[95.5351,23.2347],[95.5336,23.2366],[95.5337,23.2377],[95.5366,23.2374],[95.5372,23.2379],[95.5374,23.2363],[95.5401,23.2368],[95.5401,23.2354],[95.5418,23.2343],[95.5418,23.2332]]]}},{"type":"Feature","properties":{"Name":"","Type":"","key":0},"geometry":{"type":"Polygon","coordinates":[[[94.578,21.999],[94.5785,21.999],[94.5786,21.9998],[94.5814,21.9985],[94.5808,21.9968],[94.5811,21.9938],[94.5802,21.9935],[94.5797,21.9952],[94.5791,21.9949],[94.5791,21.9933],[94.5802,21.9927],[94.5802,21.9919],[94.579,21.9908],[94.5787,21.9881],[94.5778,21.9881],[94.5775,21.9854],[94.5769,21.9854],[94.577,21.9871],[94.5755,21.9846],[94.5752,21.986],[94.5743,21.9863],[94.574,21.9833],[94.5726,21.9833],[94.5749,21.983],[94.5758,21.9836],[94.5763,21.983],[94.5763,21.9822],[94.5749,21.9811],[94.5746,21.9795],[94.5734,21.9792],[94.5737,21.9776],[94.5728,21.9776],[94.5728,21.9755],[94.5716,21.9749],[94.5719,21.976],[94.571,21.9763],[94.5708,21.9779],[94.5693,21.9779],[94.5666,21.9706],[94.5666,21.9687],[94.5678,21.969],[94.5677,21.9682],[94.5695,21.9679],[94.5692,21.9668],[94.5706,21.9671],[94.5706,21.9657],[94.5686,21.9663],[94.5686,21.9655],[94.5697,21.9652],[94.57,21.9641],[94.5692,21.9649],[94.5657,21.9658],[94.5668,21.9636],[94.5665,21.9612],[94.5659,21.9612],[94.5651,21.9617],[94.5645,21.9644],[94.5633,21.9639],[94.5634,21.9658],[94.5628,21.9658],[94.5619,21.9645],[94.5622,21.9626],[94.5598,21.9618],[94.5589,21.9604],[94.5595,21.9599],[94.5595,21.958],[94.5589,21.958],[94.5586,21.9566],[94.5609,21.9566],[94.5615,21.9577],[94.5633,21.9582],[94.5638,21.9558],[94.5618,21.9547],[94.5609,21.9523],[94.56,21.9531],[94.5609,21.9544],[94.5598,21.9547],[94.5595,21.9534],[94.5583,21.9537],[94.5583,21.9512],[94.5577,21.9526],[94.5551,21.9518],[94.5536,21.9526],[94.5536,21.9518],[94.553,21.9518],[94.5525,21.9534],[94.5534,21.9537],[94.5534,21.9545],[94.5525,21.9545],[94.5525,21.9561],[94.5531,21.9567],[94.556,21.9567],[94.5563,21.9594],[94.5555,21.9596],[94.5549,21.9615],[94.5558,21.9621],[94.5569,21.9615],[94.5584,21.965],[94.5616,21.9672],[94.5614,21.968],[94.5596,21.9683],[94.5596,21.9677],[94.5584,21.9677],[94.5573,21.9659],[94.5567,21.9659],[94.557,21.9691],[94.5579,21.9691],[94.5591,21.9707],[94.562,21.9704],[94.5637,21.9723],[94.5638,21.9747],[94.5617,21.9748],[94.562,21.9766],[94.5615,21.978],[94.5606,21.978],[94.5585,21.9761],[94.5571,21.9762],[94.5559,21.9754],[94.5541,21.9732],[94.5544,21.9724],[94.5536,21.9724],[94.5524,21.9708],[94.5518,21.9708],[94.5518,21.9716],[94.5509,21.9716],[94.5498,21.9703],[94.5468,21.9695],[94.5466,21.97],[94.5474,21.9703],[94.5475,21.9716],[94.5501,21.9751],[94.546,21.9749],[94.5461,21.9771],[94.5455,21.9776],[94.5417,21.9766],[94.542,21.9752],[94.5408,21.9739],[94.5411,21.9755],[94.5399,21.976],[94.5402,21.9771],[94.5367,21.9755],[94.5356,21.9739],[94.5315,21.9737],[94.5283,21.9748],[94.528,21.9724],[94.5286,21.9724],[94.5286,21.9715],[94.5274,21.971],[94.5274,21.9697],[94.5245,21.97],[94.5253,21.9678],[94.5242,21.9678],[94.5242,21.9689],[94.5233,21.9689],[94.5219,21.9705],[94.5201,21.97],[94.5198,21.9711],[94.5207,21.9711],[94.5207,21.9719],[94.5228,21.9721],[94.5248,21.9716],[94.5268,21.9718],[94.5266,21.9732],[94.5274,21.974],[94.5274,21.9753],[94.5269,21.9762],[94.5248,21.977],[94.5249,21.9775],[94.5216,21.9784],[94.5181,21.9772],[94.5171,21.9785],[94.5136,21.98],[94.5137,21.9815],[94.5159,21.9807],[94.5166,21.9813],[94.5148,21.9833],[94.5159,21.9857],[94.5148,21.9865],[94.516,21.9877],[94.5149,21.9888],[94.5152,21.9897],[94.5162,21.9896],[94.5174,21.991],[94.5185,21.991],[94.519,21.9904],[94.5173,21.99],[94.5172,21.9882],[94.5164,21.9871],[94.5187,21.9865],[94.5193,21.9857],[94.5187,21.9841],[94.5194,21.981],[94.5208,21.9798],[94.522,21.9798],[94.5217,21.9824],[94.5208,21.9825],[94.5208,21.983],[94.5229,21.9824],[94.5232,21.9813],[94.5252,21.9824],[94.5284,21.9824],[94.5287,21.9813],[94.5281,21.9813],[94.5281,21.9805],[94.5292,21.9807],[94.5289,21.9783],[94.5309,21.9764],[94.533,21.9761],[94.5336,21.9764],[94.5327,21.9772],[94.5333,21.9785],[94.535,21.9793],[94.5377,21.9788],[94.5379,21.9793],[94.538,21.9801],[94.5371,21.9807],[94.5336,21.9818],[94.5345,21.9829],[94.5339,21.985],[94.536,21.9848],[94.536,21.9856],[94.5351,21.9856],[94.5351,21.9864],[94.5342,21.9864],[94.534,21.9872],[94.5363,21.9866],[94.538,21.9885],[94.5395,21.9885],[94.5384,21.9904],[94.5392,21.991],[94.5424,21.9909],[94.5436,21.992],[94.5433,21.9931],[94.5451,21.9923],[94.5448,21.9912],[94.5453,21.9906],[94.5477,21.9911],[94.5477,21.9944],[94.5483,21.9947],[94.5483,21.9938],[94.5491,21.9938],[94.5494,21.9952],[94.5503,21.9955],[94.5512,21.9946],[94.5512,21.9925],[94.552,21.9927],[94.5517,21.9906],[94.5532,21.9919],[94.5546,21.9916],[94.5546,21.9905],[94.5535,21.9895],[94.5534,21.9881],[94.5505,21.9857],[94.5511,21.9846],[94.5502,21.9841],[94.5505,21.983],[94.5496,21.9825],[94.5508,21.9814],[94.5525,21.9813],[94.554,21.9821],[94.5543,21.9843],[94.5563,21.9851],[94.5569,21.9851],[94.5569,21.9843],[94.5583,21.9843],[94.5598,21.9867],[94.5613,21.9864],[94.5627,21.988],[94.5639,21.991],[94.5651,21.9915],[94.566,21.9931],[94.566,21.9953],[94.564,21.9959],[94.564,21.998],[94.5663,21.9983],[94.5666,22.0004],[94.5672,22.0004],[94.5667,22.0015],[94.569,22.0026],[94.569,21.9999],[94.5681,21.9999],[94.5681,21.9988],[94.5701,21.9955],[94.5718,21.9961],[94.5724,21.9982],[94.5753,21.9982],[94.5751,21.9998],[94.5763,22.002],[94.5768,22.002],[94.578,21.999]],[[94.5474,21.9898],[94.5477,21.9901],[94.5474,21.9901],[94.5474,21.9898]],[[94.5495,21.9773],[94.5496,21.9781],[94.549,21.9781],[94.549,21.9773],[94.5495,21.9773]],[[94.556,21.9556],[94.5563,21.9558],[94.556,21.9558],[94.556,21.9556]],[[94.5574,21.9534],[94.5574,21.9539],[94.5566,21.9539],[94.5565,21.9534],[94.5574,21.9534]]]}},{"type":"Feature","properties":{"Name":"","Type":"","key":0},"geometry":{"type":"Polygon","coordinates":[[[95.0537,21.9699],[95.0523,21.9696],[95.05,21.9721],[95.0538,21.9731],[95.0538,21.9742],[95.0544,21.9745],[95.0541,21.9758],[95.0565,21.9782],[95.0608,21.9793],[95.0611,21.9803],[95.062,21.9812],[95.0632,21.9811],[95.0641,21.9828],[95.0658,21.9825],[95.0678,21.9778],[95.0663,21.9757],[95.0663,21.9735],[95.0657,21.9732],[95.0654,21.9711],[95.0642,21.9711],[95.0631,21.9744],[95.0593,21.9744],[95.059,21.9752],[95.0582,21.9752],[95.0579,21.9744],[95.0561,21.9736],[95.0549,21.9718],[95.0537,21.9715],[95.0537,21.9699]]]}}]}