{"type":"FeatureCollection","features":[{"type":"Feature","properties":{"Name":"Ayeyarwady River"},"geometry":{"type":"MultiLineString","coordinates":[[[96.6451,24.3516],[96.6265,24.3561],[96.6165,24.3561],[96.5962,24.3511],[96.5848,24.3408],[96.5709,24.3194],[96.5105,24.2805],[96.4991,24.2801],[96.4873,24.2862],[96.4741,24.2901],[96.4627,24.2887],[96.4217,24.2501],[96.3571,24.1823],[96.3082,24.117],[96.3036,24.1099],[96.2857,24.0713],[96.2629,23.9239],[96.2629,23.9143],[96.27,23.8972],[96.2686,23.8868],[96.2311,23.819],[96.199,23.7783],[96.1523,23.7487],[96.1433,23.7319],[96.1394,23.6934],[96.1333,23.6716],[96.1273,23.6606],[96.1162,23.6477],[96.0877,23.6313],[96.0416,23.5931],[96.0259,23.5763],[96.0209,23.5688],[96.0109,23.546],[96.0038,23.4978],[95.9974,23.4211]],[[95.9946,23.3541],[95.9781,23.1966],[95.9788,23.0749],[95.9828,23.0656],[95.9828,23.0535],[95.9781,22.9671],[95.9699,22.9139],[95.9656,22.8733],[95.9692,22.8368],[95.9681,22.7483],[95.9671,22.7448],[95.9599,22.7387],[95.9499,22.7362],[95.9328,22.7358],[95.9082,22.7248],[95.9021,22.7198],[95.8993,22.7144],[95.8993,22.7098],[95.9064,22.6695],[95.9639,22.5777],[95.9792,22.556],[95.9981,22.5217],[96.002,22.5099],[96.0042,22.4942],[96.0006,22.4011],[95.9881,22.3725],[95.9881,22.3008],[95.9906,22.2962],[96.0042,22.2919],[96.0138,22.2701],[96.007,22.1438],[96.0263,22.0453],[96.0342,22.0296],[96.0502,22.0124],[96.0545,22.001],[96.0559,21.9832],[96.0534,21.971],[96.037,21.9364],[95.9903,21.8686],[95.9874,21.8665],[95.9382,21.8515],[95.9225,21.8526],[95.9168,21.8558],[95.9125,21.86],[95.91,21.8661],[95.9025,21.8761],[95.8811,21.8936],[95.8657,21.9014],[95.7972,21.9154],[95.7237,21.9271],[95.6006,21.9225],[95.5231,21.905],[95.5071,21.8975],[95.4924,21.8832],[95.4414,21.8154],[95.4382,21.8097],[95.4339,21.7951],[95.4318,21.769],[95.4129,21.7391],[95.4018,21.7301],[95.389,21.7244],[95.379,21.7141],[95.3697,21.6991],[95.3536,21.6291],[95.3451,21.5809],[95.3329,21.5268]]]}},{"type":"Feature","properties":{"Name":"Chindwin River"},"geometry":{"type":"MultiLineString","coordinates":[[[96.1526,26.353],[96.1454,26.3488],[96.1416,26.3441],[96.1385,26.3353],[96.1411,26.3279],[96.1444,26.3248],[96.1581,26.3184]],[[96.1552,26.2669],[96.1237,26.2637],[96.1111,26.2739],[96.108,26.2858],[96.1045,26.2891],[96.0945,26.2917],[96.0892,26.2915],[96.0381,26.2668],[96.0357,26.2627],[96.0278,26.2182],[96.0188,26.1978],[95.9848,26.1759],[95.9572,26.1628],[95.9489,26.1559],[95.888,26.0786],[95.8861,26.0747],[95.8853,26.0605],[95.8877,26.0441],[95.8773,26.0134],[95.8727,26.0084],[95.8432,26.0143],[95.7785,26.0329],[95.7105,26.0288],[95.6705,26.0214],[95.6672,26.0205],[95.6541,26.0098],[95.5968,25.9348],[95.5903,25.9158],[95.5832,25.8842],[95.5856,25.8687],[95.5673,25.8311],[95.5299,25.789],[95.4711,25.7595],[95.45,25.7362],[95.4183,25.6855],[95.4145,25.6762],[95.4138,25.6667],[95.4228,25.6441],[95.4336,25.6286],[95.4314,25.5932],[95.4176,25.5456],[95.4064,25.5354],[95.3991,25.5311],[95.3914,25.5304],[95.3793,25.5154],[95.3898,25.4185],[95.3876,25.41],[95.3712,25.3826],[95.293,25.3169],[95.2066,25.2741],[95.1745,25.2606],[95.1559,25.2608],[95.144,25.2563],[95.0781,25.2172],[95.0627,25.1392],[95.0479,25.0935],[95.0386,25.085],[94.9937,25.0647],[94.9906,25.0609],[94.9889,25.0509],[94.9934,25.0302],[94.9941,25.0155],[94.992,24.9893],[94.9901,24.9838],[94.9758,24.9724],[94.9708,24.9712],[94.9599,24.9736],[94.8811,24.9115],[94.8754,24.8999],[94.8745,24.8822],[94.8814,24.868],[94.8885,24.8627],[94.9135,24.8596],[94.9178,24.857],[94.9404,24.8275],[94.9406,24.8194],[94.937,24.8121],[94.9097,24.7799],[94.8897,24.765],[94.8778,24.7581],[94.8259,24.7428],[94.7805,24.7354],[94.7646,24.735],[94.7415,24.729],[94.688,24.6096],[94.6782,24.5834],[94.678,24.5729],[94.6877,24.5544],[94.6927,24.5487],[94.7137,24.5332],[94.7363,24.4847],[94.7384,24.4771],[94.7382,24.4647],[94.7334,24.4545],[94.7439,24.4202],[94.7838,24.3631],[94.8031,24.3452],[94.8324,24.3307],[94.8378,24.3265],[94.8409,24.3146],[94.8378,24.2991],[94.8274,24.2812],[94.816,24.2729],[94.8007,24.2653],[94.7843,24.2617],[94.7567,24.2648],[94.722,24.2527],[94.6942,24.236],[94.6892,24.231],[94.6851,24.222],[94.687,24.1925],[94.6861,24.1637],[94.6813,24.1501],[94.6761,24.1435],[94.6644,24.1425],[94.6344,24.1532],[94.6297,24.1585],[94.6244,24.1751],[94.6211,24.1794],[94.6164,24.182],[94.6018,24.1818],[94.5952,24.1747],[94.5923,24.1644],[94.5935,24.1535],[94.5959,24.1471],[94.599,24.1406],[94.6154,24.1264],[94.6216,24.118],[94.6216,24.1133],[94.6054,24.0535],[94.6021,24.0509],[94.5512,24.0328],[94.5469,24.0328],[94.545,24.03],[94.5447,24.0214],[94.5469,24.0117],[94.554,24.0005],[94.5831,23.9767],[94.603,23.9658],[94.6333,23.9527],[94.6344,23.9479],[94.6333,23.9377],[94.6311,23.9324],[94.6171,23.9177],[94.6054,23.9079],[94.5919,23.9001],[94.5712,23.8918],[94.5428,23.8896],[94.5179,23.8896],[94.5136,23.8863],[94.5098,23.8799],[94.5045,23.8675],[94.5045,23.8623],[94.5064,23.8577],[94.5195,23.8406],[94.529,23.8337],[94.5431,23.8192],[94.5459,23.8149],[94.5459,23.8109],[94.5438,23.8073],[94.5271,23.7983],[94.5081,23.7895],[94.496,23.7871],[94.4636,23.7676],[94.4256,23.7319],[94.422,23.7266],[94.4156,23.7074],[94.4151,23.6962],[94.4179,23.6086],[94.4241,23.5894],[94.4279,23.5825],[94.4296,23.5722],[94.4272,23.5327],[94.4218,23.5244],[94.3877,23.4958],[94.3544,23.4725],[94.349,23.4668],[94.3366,23.4452],[94.3323,23.4342],[94.3228,23.3969],[94.3228,23.3802],[94.3423,23.315],[94.3589,23.3191],[94.3673,23.3181],[94.3711,23.3165],[94.3723,23.3086],[94.339,23.2441],[94.3347,23.2377],[94.3302,23.2348],[94.3118,23.2277],[94.3047,23.217],[94.3045,23.2046],[94.3099,23.1949],[94.3142,23.192],[94.3254,23.2044],[94.3285,23.2051],[94.3347,23.2003],[94.3366,23.1953],[94.3347,23.1782],[94.3437,23.1142],[94.3592,23.0983],[94.4251,23.0521],[94.4427,23.0419],[94.4401,23.0164],[94.431,23.0045],[94.413,22.986],[94.3951,22.985],[94.3699,22.9979],[94.3609,22.9995],[94.359,22.9926],[94.3599,22.9834],[94.3661,22.9715],[94.3939,22.9377],[94.3994,22.9324],[94.4056,22.9296],[94.4108,22.9286],[94.428,22.9313],[94.4931,22.9179],[94.5029,22.9029],[94.5383,22.878],[94.5536,22.8749],[94.5714,22.8742],[94.6387,22.8925],[94.6525,22.9022],[94.6585,22.9113],[94.6606,22.9232],[94.6611,22.9389],[94.6656,22.9605],[94.674,22.9774],[94.6778,22.9791],[94.6994,22.981],[94.7175,22.9805],[94.7261,22.9769],[94.7356,22.9648],[94.7446,22.9355],[94.751,22.8382],[94.7425,22.8282],[94.7292,22.823],[94.7123,22.8221],[94.7044,22.8244],[94.6954,22.8247],[94.6911,22.8235],[94.6856,22.8192],[94.682,22.8106],[94.683,22.7914],[94.6866,22.7795],[94.7239,22.7188],[94.7651,22.7038],[94.7684,22.7014],[94.7727,22.6929],[94.7756,22.6791],[94.7741,22.6626],[94.7663,22.6498],[94.7722,22.5822],[94.8096,22.5061],[94.8148,22.4909],[94.8143,22.4759],[94.8117,22.4666],[94.8129,22.4583],[94.8189,22.4521],[94.8255,22.4495],[94.8938,22.4295],[94.9649,22.404],[94.9683,22.4016],[95.0178,22.3219],[95.0325,22.2839],[95.0363,22.2648],[95.0454,22.2429],[95.1048,22.1349],[95.131,22.0988],[95.1434,22.0759],[95.146,21.9798],[95.1451,21.9377],[95.1412,21.9265],[95.1417,21.9027],[95.1784,21.789],[95.2041,21.744],[95.2112,21.7371],[95.2236,21.7333],[95.2452,21.7109],[95.2689,21.6007]]]}},{"type":"Feature","properties":{"Name":"Shwe Li River"},"geometry":{"type":"LineString","coordinates":[[96.2668,23.9047],[96.276,23.9343],[96.2895,23.9491],[96.3457,23.9714],[96.3558,23.9711],[96.4082,23.9607],[96.4153,23.9621],[96.421,23.9654],[96.4373,23.9949],[96.4436,24.0029],[96.4641,24.0172],[96.4733,24.0172],[96.5013,24.0094],[96.5039,24.0071],[96.5176,23.9773],[96.5173,23.9699],[96.5108,23.9556],[96.5105,23.9437],[96.528,23.9047],[96.545,23.8762],[96.5602,23.8578],[96.5622,23.8402],[96.5622,23.831],[96.5599,23.8244],[96.523,23.7751],[96.4885,23.7242],[96.4879,23.7156],[96.5069,23.6794]]}},{"type":"Feature","properties":{"Name":"Myit Tha River"},"geometry":{"type":"LineString","coordinates":[[94.3142,23.192],[94.2876,23.1964],[94.1855,23.2004],[94.1819,23.2066],[94.1839,23.2144],[94.1789,23.2394],[94.175,23.2435],[94.1653,23.2442],[94.1134,23.223],[94.1111,23.2199],[94.0996,23.1892],[94.0951,23.1619],[94.1075,23.1561],[94.112,23.1364],[94.1139,23.1081],[94.1111,23.0748],[94.1072,23.0679],[94.0846,23.06],[94.0735,23.0524],[94.0806,23.0346],[94.0875,23.0034],[94.0856,23.0005],[94.0823,22.9993],[94.0554,22.9944],[94.0328,22.9522],[94.0335,22.9487],[94.0578,22.9123],[94.0666,22.9106],[94.0711,22.9125],[94.0725,22.9194],[94.0756,22.923],[94.0827,22.9211],[94.0899,22.9087],[94.0838,22.8945],[94.1027,22.8818],[94.117,22.8364],[94.1194,22.7688],[94.1382,22.6584],[94.1321,22.6372]]}},{"type":"Feature","properties":{"Name":"Myit Nge River"},"geometry":{"type":"LineString","coordinates":[[95.9874,21.8665],[95.9848,21.8484],[95.986,21.833],[96.0033,21.8206]]}},{"type":"Feature","properties":{"Name":"Ma Ni Pur River"},"geometry":{"type":"LineString","coordinates":[[93.9417,22.8031],[94.0075,22.8125],[94.0443,22.8403],[94.0791,22.8696],[94.0833,22.8758],[94.0838,22.8945]]}}]}