{"type":"FeatureCollection","features":[{"type":"Feature","properties":{"nm":"","major":0},"geometry":{"type":"Polygon","coordinates":[[[96.2684,26.9512],[96.2904,26.9564],[96.2986,26.9567],[96.3054,26.9547],[96.3119,26.949],[96.316,26.9354],[96.3133,26.9297],[96.3074,26.9272],[96.3117,26.9363],[96.3104,26.9412],[96.3011,26.9499],[96.2959,26.9517],[96.2851,26.9505],[96.2709,26.9454],[96.2624,26.9449],[96.2462,26.9502],[96.2356,26.9513],[96.2321,26.9541],[96.2232,26.9713],[96.2223,26.9781],[96.2239,26.9872],[96.2305,26.9928],[96.2433,26.9935],[96.2478,26.9958],[96.2504,27.0006],[96.2502,27.0131],[96.2564,27.024],[96.259,27.0233],[96.2549,26.9957],[96.2494,26.9905],[96.2418,26.988],[96.2331,26.9879],[96.2293,26.985],[96.2277,26.9738],[96.2323,26.9658],[96.2435,26.9561],[96.2587,26.9515],[96.2684,26.9512]]]}},{"type":"Feature","properties":{"nm":"","major":0},"geometry":{"type":"Polygon","coordinates":[[[96.2905,26.8687],[96.2953,26.8754],[96.3,26.8779],[96.3092,26.8749],[96.3155,26.8745],[96.3271,26.8805],[96.3329,26.8797],[96.3322,26.8703],[96.3263,26.8727],[96.3133,26.8687],[96.2992,26.8699],[96.2913,26.8613],[96.2845,26.8618],[96.2805,26.8644],[96.2778,26.8704],[96.2736,26.904],[96.2763,26.9105],[96.2832,26.9159],[96.2797,26.9037],[96.2817,26.8847],[96.2879,26.8688],[96.2905,26.8687]]]}},{"type":"Feature","properties":{"nm":"","major":0},"geometry":{"type":"MultiPolygon","coordinates":[[[[96.1219,26.3692],[96.1273,26.3766],[96.129,26.3741],[96.1352,26.3709],[96.1327,26.3714],[96.1235,26.3669],[96.1157,26.3661],[96.1125,26.3683],[96.0996,26.3893],[96.0969,26.3984],[96.1055,26.3944],[96.1115,26.3862],[96.1163,26.3741],[96.1219,26.3692]]],[[[96.145,26.3624],[96.138,26.35],[96.1403,26.3475],[96.1443,26.3483],[96.1513,26.3551],[96.1558,26.3462],[96.1504,26.3461],[96.1445,26.3436],[96.1398,26.3395],[96.1388,26.3342],[96.1415,26.3276],[96.1477,26.3214],[96.1579,26.3174],[96.1559,26.3106],[96.143,26.3155],[96.1356,26.3232],[96.1331,26.3309],[96.1337,26.3404],[96.1307,26.3467],[96.1315,26.3516],[96.1382,26.3638],[96.1361,26.3703],[96.145,26.3624]]],[[[96.1458,26.2644],[96.13,26.258],[96.1223,26.2577],[96.1151,26.2603],[96.107,26.2678],[96.1012,26.2786],[96.0959,26.2835],[96.0912,26.2838],[96.0795,26.2812],[96.0743,26.2768],[96.0647,26.263],[96.0373,26.2605],[96.0425,26.2645],[96.0587,26.2658],[96.0632,26.2678],[96.0701,26.2773],[96.0828,26.2862],[96.0953,26.2869],[96.0995,26.285],[96.1142,26.2664],[96.1205,26.2636],[96.1266,26.2638],[96.1358,26.2683],[96.1511,26.2701],[96.1571,26.2652],[96.1458,26.2644]]]]}},{"type":"Feature","properties":{"nm":"","major":0},"geometry":{"type":"Polygon","coordinates":[[[95.8887,26.0307],[95.8852,26.0324],[95.8783,26.0206],[95.8756,26.0074],[95.8725,26.0027],[95.8648,26.0056],[95.8707,26.0112],[95.8746,26.0272],[95.8829,26.04],[95.8809,26.0474],[95.8804,26.0591],[95.8852,26.0736],[95.9005,26.0844],[95.918,26.1001],[95.9409,26.1434],[95.9615,26.1597],[95.9728,26.1661],[95.9957,26.1864],[96.0033,26.1911],[96.0141,26.1952],[96.0226,26.2011],[96.023,26.1977],[96.018,26.1927],[96.0051,26.1873],[95.9838,26.1666],[95.9565,26.1512],[95.9468,26.1433],[95.9382,26.1307],[95.9317,26.1152],[95.9167,26.091],[95.8896,26.0729],[95.8855,26.0599],[95.8906,26.0378],[95.8887,26.0307]]]}},{"type":"Feature","properties":{"nm":"","major":0},"geometry":{"type":"Polygon","coordinates":[[[95.8098,26.0571],[95.8175,26.0355],[95.8281,26.0215],[95.8357,26.0159],[95.8551,26.0099],[95.8492,26.0093],[95.8375,26.0115],[95.828,26.0148],[95.8229,26.0186],[95.8181,26.0246],[95.8066,26.0523],[95.8011,26.0616],[95.7976,26.0625],[95.7895,26.0415],[95.7819,26.0299],[95.7762,26.0251],[95.7652,26.0199],[95.7575,26.0189],[95.7267,26.023],[95.7206,26.0226],[95.7157,26.0197],[95.7126,26.0153],[95.7111,26.0033],[95.7152,25.991],[95.7142,25.9846],[95.7097,25.9794],[95.7057,25.9803],[95.7096,25.9914],[95.7057,26.0052],[95.7051,26.0153],[95.7143,26.025],[95.7216,26.0274],[95.7417,26.0254],[95.7681,26.0269],[95.7791,26.0348],[95.7977,26.0667],[95.8012,26.0676],[95.8038,26.0656],[95.8098,26.0571]]]}},{"type":"Feature","properties":{"nm":"","major":0},"geometry":{"type":"Polygon","coordinates":[[[95.6831,26.013],[95.6863,26.0043],[95.6856,26.0005],[95.6777,26.0086],[95.6686,26.0086],[95.6588,26.0056],[95.6545,26.0022],[95.6491,25.9932],[95.65,25.9683],[95.6485,25.956],[95.6457,25.9491],[95.6361,25.9443],[95.6188,25.9425],[95.6047,25.9388],[95.6003,25.935],[95.5965,25.9294],[95.5865,25.9041],[95.586,25.9011],[95.591,25.896],[95.5917,25.8916],[95.5898,25.8859],[95.5811,25.8796],[95.5697,25.8761],[95.569,25.878],[95.5718,25.8812],[95.5823,25.8868],[95.5852,25.8904],[95.5856,25.894],[95.5823,25.9047],[95.5889,25.9262],[95.5933,25.9349],[95.6055,25.9445],[95.6139,25.9468],[95.6333,25.9479],[95.6391,25.9506],[95.6417,25.9539],[95.6452,25.9725],[95.6439,25.9903],[95.6468,26.0004],[95.653,26.0096],[95.6605,26.0151],[95.6673,26.0173],[95.6766,26.0177],[95.6831,26.013]]]}},{"type":"Feature","properties":{"nm":"","major":0},"geometry":{"type":"Polygon","coordinates":[[[95.511,25.7722],[95.511,25.7743],[95.5162,25.7789],[95.5193,25.7909],[95.5177,25.8023],[95.5192,25.8089],[95.5258,25.8147],[95.5762,25.8433],[95.5825,25.8498],[95.5832,25.8462],[95.5813,25.8427],[95.5709,25.833],[95.5304,25.8145],[95.5253,25.8107],[95.521,25.8019],[95.5242,25.7848],[95.5187,25.7766],[95.5145,25.7728],[95.511,25.7722]]]}},{"type":"Feature","properties":{"nm":"","major":0},"geometry":{"type":"Polygon","coordinates":[[[95.49,25.7637],[95.4954,25.7679],[95.5082,25.7722],[95.5075,25.7699],[95.4967,25.7649],[95.49,25.7637]]]}},{"type":"Feature","properties":{"nm":"Chindwin River","major":1},"geometry":{"type":"Polygon","coordinates":[[[95.3905,25.5246],[95.37,25.5254],[95.3693,25.5233],[95.3771,25.5055],[95.3824,25.4575],[95.3776,25.4303],[95.3863,25.413],[95.3854,25.4081],[95.3717,25.382],[95.3561,25.3682],[95.3409,25.3617],[95.333,25.3531],[95.3274,25.3523],[95.3193,25.3538],[95.2914,25.3518],[95.2856,25.3464],[95.283,25.3381],[95.28,25.3426],[95.2819,25.3491],[95.2917,25.3565],[95.3256,25.3563],[95.3351,25.3605],[95.3461,25.3693],[95.3573,25.3739],[95.3636,25.3785],[95.3809,25.4073],[95.381,25.4122],[95.3734,25.435],[95.3767,25.4443],[95.378,25.4561],[95.3745,25.4905],[95.3688,25.5047],[95.3656,25.5231],[95.3671,25.5269],[95.3701,25.5285],[95.3908,25.5305],[95.4013,25.5341],[95.4153,25.5445],[95.4203,25.5532],[95.4234,25.5783],[95.4397,25.6069],[95.4407,25.6128],[95.4372,25.6204],[95.4247,25.6313],[95.4183,25.6469],[95.4111,25.6541],[95.4077,25.6634],[95.4118,25.6788],[95.4181,25.6887],[95.4355,25.704],[95.4378,25.708],[95.4399,25.7051],[95.4347,25.6966],[95.423,25.6859],[95.416,25.6759],[95.4138,25.6683],[95.4152,25.6613],[95.4235,25.6492],[95.4266,25.6374],[95.4313,25.6314],[95.4449,25.6202],[95.4472,25.6123],[95.4441,25.6033],[95.4295,25.5816],[95.426,25.5713],[95.4237,25.55],[95.42,25.5437],[95.401,25.5269],[95.3905,25.5246]]]}},{"type":"Feature","properties":{"nm":"Chindwin River","major":1},"geometry":{"type":"Polygon","coordinates":[[[94.8979,24.9154],[94.9037,24.9213],[94.9164,24.9436],[94.9299,24.9622],[94.9396,24.9708],[94.9408,24.9693],[94.9245,24.9335],[94.9173,24.9263],[94.9018,24.916],[94.8979,24.9154]]]}},{"type":"Feature","properties":{"nm":"","major":0},"geometry":{"type":"Polygon","coordinates":[[[95.5188,22.8489],[95.5162,22.8495],[95.5197,22.8522],[95.5213,22.851],[95.5188,22.8489]]]}},{"type":"Feature","properties":{"nm":"Chindwin River","major":1},"geometry":{"type":"Polygon","coordinates":[[[95.2044,25.2285],[95.2014,25.2247],[95.1968,25.2247],[95.1744,25.2483],[95.16,25.2561],[95.1538,25.2568],[95.1449,25.2541],[95.1361,25.2488],[95.1258,25.2368],[95.1116,25.2137],[95.1032,25.2063],[95.0941,25.2061],[95.0777,25.2108],[95.0719,25.1961],[95.0653,25.1674],[95.0654,25.1408],[95.0635,25.1374],[95.054,25.1301],[95.0417,25.1271],[95.0371,25.1236],[95.0357,25.1196],[95.0373,25.1132],[95.0477,25.0965],[95.0483,25.0917],[95.032,25.0752],[95.0015,25.069],[94.9943,25.0625],[94.9898,25.0545],[94.9879,25.0405],[94.9886,25.0089],[94.9871,24.9863],[94.9822,24.9749],[94.9759,24.9692],[94.9644,24.968],[94.9598,24.9707],[94.957,24.975],[94.9681,24.9747],[94.972,24.9777],[94.9751,24.9844],[94.9816,25.0102],[94.984,25.0477],[94.9894,25.064],[94.9948,25.0684],[95.0263,25.0797],[95.0358,25.0856],[95.0397,25.0915],[95.0405,25.0963],[95.0315,25.117],[95.0317,25.1227],[95.0375,25.1293],[95.0526,25.1341],[95.0577,25.1381],[95.0592,25.1425],[95.0585,25.1655],[95.0689,25.2011],[95.0747,25.2153],[95.0791,25.2186],[95.0866,25.2175],[95.0967,25.2116],[95.1011,25.2112],[95.106,25.2147],[95.1263,25.2463],[95.1359,25.2543],[95.1475,25.2593],[95.1556,25.2604],[95.1649,25.2599],[95.173,25.2565],[95.1841,25.2478],[95.1924,25.2366],[95.1993,25.2302],[95.2014,25.2344],[95.2011,25.2612],[95.2035,25.2688],[95.2084,25.2749],[95.2391,25.2896],[95.2479,25.295],[95.261,25.3064],[95.28,25.3134],[95.287,25.3197],[95.2887,25.3263],[95.2866,25.3328],[95.2901,25.3326],[95.2945,25.329],[95.2957,25.3237],[95.2875,25.3142],[95.2754,25.3074],[95.2617,25.3028],[95.2512,25.2931],[95.2302,25.2809],[95.2137,25.2741],[95.2088,25.2696],[95.206,25.2616],[95.2048,25.2507],[95.2066,25.2382],[95.2044,25.2285]]]}},{"type":"Feature","properties":{"nm":"Chindwin River","major":1},"geometry":{"type":"Polygon","coordinates":[[[94.9205,24.7957],[94.9138,24.7915],[94.8814,24.7909],[94.8752,24.7751],[94.8756,24.762],[94.8742,24.7587],[94.8705,24.7565],[94.8451,24.7551],[94.8407,24.7505],[94.8446,24.7452],[94.8442,24.7425],[94.8377,24.7393],[94.8183,24.7343],[94.7929,24.7345],[94.7894,24.7334],[94.782,24.7273],[94.7656,24.7288],[94.7462,24.7232],[94.7412,24.7193],[94.725,24.6884],[94.7153,24.6611],[94.7028,24.6394],[94.6968,24.6227],[94.6873,24.6124],[94.6792,24.5981],[94.6783,24.6023],[94.7019,24.6529],[94.7134,24.6723],[94.7169,24.685],[94.7289,24.7113],[94.7391,24.74],[94.7425,24.7438],[94.7488,24.7436],[94.761,24.7379],[94.7793,24.7352],[94.8231,24.7446],[94.8254,24.7463],[94.8262,24.7522],[94.8188,24.7731],[94.8211,24.7781],[94.8269,24.7805],[94.8341,24.7802],[94.8521,24.7728],[94.8657,24.7625],[94.8689,24.762],[94.8703,24.766],[94.8694,24.7734],[94.8729,24.7835],[94.8747,24.7973],[94.8768,24.7991],[94.881,24.8004],[94.8958,24.7972],[94.9066,24.797],[94.9159,24.8003],[94.9245,24.8115],[94.9293,24.8208],[94.9314,24.8294],[94.9296,24.8366],[94.9252,24.8434],[94.9174,24.8504],[94.9047,24.8546],[94.8864,24.8574],[94.8732,24.8633],[94.8677,24.8692],[94.8659,24.8747],[94.8668,24.8846],[94.8714,24.8939],[94.8707,24.8781],[94.8732,24.8703],[94.8772,24.8663],[94.8834,24.8633],[94.9033,24.8584],[94.9151,24.8584],[94.9347,24.8408],[94.937,24.8256],[94.9325,24.8071],[94.9205,24.7957]],[[94.8479,24.7711],[94.8403,24.7743],[94.8266,24.7737],[94.8246,24.7699],[94.8342,24.7534],[94.8435,24.7618],[94.8576,24.7606],[94.8581,24.7627],[94.8479,24.7711]]]}},{"type":"Feature","properties":{"nm":"Chindwin River","major":1},"geometry":{"type":"Polygon","coordinates":[[[94.6742,24.5666],[94.6709,24.5761],[94.6762,24.5949],[94.6783,24.5957],[94.6753,24.5675],[94.6742,24.5666]]]}},{"type":"Feature","properties":{"nm":"","major":0},"geometry":{"type":"Polygon","coordinates":[[[94.8754,24.4512],[94.8649,24.4513],[94.8596,24.4473],[94.8476,24.45],[94.8449,24.4491],[94.8483,24.4518],[94.8493,24.4551],[94.847,24.4619],[94.8417,24.4625],[94.8351,24.4685],[94.8443,24.4733],[94.8488,24.4796],[94.845,24.5075],[94.8405,24.5272],[94.8348,24.5411],[94.8345,24.5471],[94.8367,24.5492],[94.841,24.5481],[94.8456,24.5426],[94.8502,24.5323],[94.8598,24.5187],[94.8969,24.4958],[94.8985,24.4926],[94.8993,24.4865],[94.8949,24.4733],[94.8956,24.4596],[94.8754,24.4512]]]}},{"type":"Feature","properties":{"nm":"","major":0},"geometry":{"type":"Polygon","coordinates":[[[94.8631,24.449],[94.8622,24.4462],[94.8703,24.4365],[94.8719,24.4298],[94.8715,24.4197],[94.8635,24.3965],[94.8578,24.3935],[94.852,24.3941],[94.8394,24.4002],[94.8318,24.4113],[94.8269,24.4243],[94.8273,24.429],[94.8449,24.4491],[94.8476,24.45],[94.8596,24.4473],[94.8649,24.4513],[94.8719,24.4506],[94.8631,24.449]]]}},{"type":"Feature","properties":{"nm":"","major":0},"geometry":{"type":"Polygon","coordinates":[[[96.0424,24.2561],[96.0395,24.2611],[96.0394,24.2694],[96.0432,24.2841],[96.0457,24.2847],[96.0474,24.2708],[96.0424,24.2561]]]}},{"type":"Feature","properties":{"nm":"","major":0},"geometry":{"type":"Polygon","coordinates":[[[96.1175,24.2287],[96.1072,24.2353],[96.105,24.2413],[96.1054,24.2533],[96.107,24.2583],[96.1129,24.2637],[96.1168,24.2652],[96.1262,24.2642],[96.1299,24.2625],[96.1321,24.2589],[96.1338,24.2489],[96.1288,24.2376],[96.1175,24.2287]]]}},{"type":"Feature","properties":{"nm":"","major":0},"geometry":{"type":"Polygon","coordinates":[[[96.5522,24.2552],[96.5507,24.257],[96.5525,24.2597],[96.5581,24.2621],[96.5638,24.2616],[96.5659,24.259],[96.5614,24.2557],[96.5522,24.2552]]]}},{"type":"Feature","properties":{"nm":"","major":0},"geometry":{"type":"Polygon","coordinates":[[[94.6959,24.1312],[94.6921,24.1364],[94.6928,24.1378],[94.6997,24.1393],[94.7053,24.1375],[94.7131,24.1422],[94.7198,24.1407],[94.7237,24.1464],[94.7274,24.1454],[94.7413,24.1159],[94.7445,24.1125],[94.7498,24.1157],[94.7541,24.1157],[94.7616,24.1037],[94.7651,24.103],[94.7676,24.1003],[94.7653,24.0943],[94.7694,24.0868],[94.7629,24.0852],[94.7547,24.0874],[94.7421,24.0942],[94.7277,24.1121],[94.7191,24.1182],[94.7136,24.1188],[94.699,24.1305],[94.6959,24.1312]]]}},{"type":"Feature","properties":{"nm":"Ayeyarwady River","major":1},"geometry":{"type":"Polygon","coordinates":[[[96.635,24.3458],[96.6257,24.3533],[96.6133,24.3539],[96.6055,24.3578],[96.6004,24.3579],[96.5944,24.3533],[96.5868,24.3391],[96.5746,24.3279],[96.5724,24.3176],[96.5761,24.3083],[96.5656,24.2987],[96.5321,24.2884],[96.4877,24.2895],[96.4763,24.281],[96.4692,24.2678],[96.4689,24.2644],[96.4714,24.2648],[96.4729,24.2675],[96.4752,24.2675],[96.4756,24.2643],[96.4725,24.2576],[96.4595,24.2388],[96.4437,24.2253],[96.4246,24.2239],[96.4175,24.2293],[96.4143,24.2289],[96.4097,24.218],[96.4072,24.2153],[96.4035,24.214],[96.3867,24.2145],[96.3818,24.2124],[96.3786,24.2083],[96.3792,24.2063],[96.382,24.2061],[96.3892,24.2106],[96.3924,24.21],[96.3942,24.2074],[96.3791,24.1962],[96.3701,24.1835],[96.3668,24.1759],[96.3626,24.1732],[96.3442,24.1513],[96.3328,24.1314],[96.3203,24.1193],[96.3179,24.1135],[96.3188,24.111],[96.3227,24.1105],[96.3337,24.1154],[96.3503,24.1283],[96.3507,24.1238],[96.3462,24.1152],[96.3401,24.11],[96.3189,24.1034],[96.3072,24.1027],[96.3041,24.1002],[96.3005,24.0903],[96.298,24.0718],[96.2924,24.0541],[96.2929,24.051],[96.2942,24.0501],[96.2961,24.0513],[96.2985,24.0619],[96.3025,24.0662],[96.3045,24.0652],[96.3054,24.0599],[96.303,24.0517],[96.2922,24.0358],[96.2902,24.0295],[96.2988,24.0032],[96.3008,24.0007],[96.2927,23.9905],[96.2949,23.9862],[96.2907,23.9821],[96.2854,23.9731],[96.2824,23.9592],[96.2846,23.9486],[96.2874,23.9446],[96.2781,23.9365],[96.2679,23.9315],[96.2644,23.9278],[96.2583,23.9131],[96.2549,23.9203],[96.2637,23.9411],[96.2628,23.9711],[96.27,23.9846],[96.2738,24.0007],[96.2742,24.0116],[96.2807,24.0224],[96.2829,24.0601],[96.2819,24.0701],[96.2851,24.0839],[96.3009,24.1137],[96.3091,24.1256],[96.3245,24.1429],[96.3364,24.1537],[96.3416,24.1621],[96.3491,24.1869],[96.3558,24.1921],[96.3653,24.1937],[96.3676,24.1962],[96.3908,24.2395],[96.4142,24.2394],[96.4196,24.2431],[96.4407,24.2716],[96.4377,24.3001],[96.4392,24.3062],[96.4439,24.3109],[96.4492,24.3126],[96.4565,24.3114],[96.4611,24.3094],[96.4717,24.2983],[96.4793,24.2961],[96.488,24.2958],[96.4923,24.3012],[96.4862,24.3095],[96.4864,24.3114],[96.4909,24.3143],[96.502,24.3047],[96.5088,24.3029],[96.5457,24.3064],[96.5518,24.2989],[96.5546,24.2993],[96.5588,24.3035],[96.5646,24.3051],[96.5662,24.3086],[96.5642,24.3266],[96.5643,24.3466],[96.5732,24.3543],[96.5888,24.361],[96.6024,24.3648],[96.6557,24.3547],[96.6437,24.3514],[96.6427,24.3487],[96.6464,24.3432],[96.635,24.3458]],[[96.4645,24.2786],[96.4674,24.2849],[96.4746,24.2888],[96.4675,24.2921],[96.4521,24.3064],[96.4484,24.3071],[96.4435,24.3027],[96.4432,24.296],[96.4486,24.2752],[96.4419,24.2572],[96.4246,24.2399],[96.4241,24.237],[96.4272,24.2315],[96.4311,24.2297],[96.4473,24.2379],[96.4574,24.2477],[96.4604,24.2519],[96.459,24.2658],[96.4546,24.2646],[96.4531,24.2657],[96.4645,24.2786]],[[96.294,24.0007],[96.2867,24.0057],[96.2821,24.006],[96.2802,24.0007],[96.2832,23.9901],[96.2847,23.9889],[96.294,24.0007]],[[96.2747,23.961],[96.2795,23.9727],[96.2782,23.9752],[96.2695,23.9729],[96.2672,23.9684],[96.2667,23.9601],[96.2724,23.9422],[96.2767,23.9466],[96.2747,23.961]]]}},{"type":"Feature","properties":{"nm":"Chindwin River","major":1},"geometry":{"type":"Polygon","coordinates":[[[94.4263,23.6725],[94.4286,23.6667],[94.4272,23.6532],[94.4202,23.6344],[94.4197,23.6286],[94.4281,23.6078],[94.4287,23.5977],[94.4257,23.5748],[94.4288,23.5618],[94.4286,23.5324],[94.4252,23.5237],[94.4084,23.51],[94.3936,23.5037],[94.3892,23.4975],[94.3856,23.4858],[94.3792,23.479],[94.372,23.4744],[94.3646,23.4734],[94.3562,23.4697],[94.3476,23.4611],[94.3413,23.4441],[94.3376,23.4395],[94.332,23.4261],[94.3302,23.4142],[94.3239,23.3944],[94.323,23.383],[94.3291,23.3708],[94.3454,23.3607],[94.3461,23.3575],[94.3416,23.343],[94.3386,23.3221],[94.3411,23.3175],[94.3478,23.3206],[94.3626,23.323],[94.3688,23.3201],[94.3736,23.3153],[94.3751,23.3112],[94.3735,23.3047],[94.3666,23.293],[94.359,23.2886],[94.3435,23.2501],[94.3386,23.2414],[94.3143,23.2242],[94.3092,23.2081],[94.3112,23.2031],[94.3167,23.1988],[94.3244,23.208],[94.3273,23.2087],[94.332,23.2072],[94.335,23.2033],[94.338,23.1792],[94.3472,23.1555],[94.3471,23.1406],[94.3433,23.1242],[94.3446,23.1174],[94.3863,23.0822],[94.419,23.063],[94.4372,23.0478],[94.4443,23.0309],[94.4461,23.0283],[94.4488,23.0277],[94.4493,23.0247],[94.4327,23.0037],[94.4308,22.9961],[94.4276,22.9919],[94.4258,22.994],[94.4221,22.9924],[94.4121,22.9831],[94.4032,22.9791],[94.3923,22.9795],[94.3848,22.9863],[94.3674,22.9937],[94.3619,22.9944],[94.3656,22.9763],[94.3926,22.9467],[94.3977,22.935],[94.4052,22.9301],[94.4153,22.929],[94.4533,22.9369],[94.464,22.9374],[94.4737,22.9345],[94.4821,22.9341],[94.4878,22.9298],[94.5102,22.8972],[94.5198,22.8931],[94.5268,22.8868],[94.5304,22.8806],[94.5361,22.879],[94.5492,22.8798],[94.5712,22.8745],[94.5804,22.8787],[94.6125,22.9044],[94.6234,22.9047],[94.6257,22.9031],[94.6272,22.8967],[94.6305,22.8921],[94.6339,22.8915],[94.65,22.9008],[94.6514,22.9051],[94.6544,22.9049],[94.6561,22.9068],[94.6588,22.9141],[94.6616,22.9284],[94.6602,22.9449],[94.6636,22.9628],[94.6721,22.9766],[94.6741,22.9787],[94.6813,22.9808],[94.7045,22.9833],[94.7156,22.9836],[94.7204,22.9822],[94.7276,22.9784],[94.7361,22.967],[94.7414,22.9539],[94.7398,22.9363],[94.7445,22.9308],[94.7452,22.9],[94.7388,22.894],[94.7386,22.889],[94.7414,22.8846],[94.7496,22.8806],[94.7578,22.8722],[94.7564,22.8653],[94.7589,22.8543],[94.7531,22.8375],[94.7514,22.8388],[94.7523,22.8519],[94.7469,22.8498],[94.7328,22.8371],[94.7279,22.8357],[94.7439,22.8551],[94.7524,22.8611],[94.7537,22.8659],[94.7504,22.8753],[94.738,22.8791],[94.7362,22.8814],[94.7341,22.8963],[94.7351,22.9062],[94.7378,22.9014],[94.7407,22.903],[94.7411,22.9234],[94.7361,22.9344],[94.7325,22.9497],[94.7339,22.9587],[94.7289,22.9688],[94.7241,22.9731],[94.7214,22.9724],[94.7199,22.9758],[94.6835,22.9769],[94.6766,22.9755],[94.6712,22.9674],[94.6678,22.9576],[94.6653,22.9367],[94.6661,22.9252],[94.6628,22.9084],[94.6588,22.9013],[94.6527,22.8955],[94.6424,22.8899],[94.6278,22.888],[94.6258,22.8896],[94.622,22.9001],[94.617,22.8998],[94.5996,22.8869],[94.5747,22.8715],[94.567,22.8713],[94.5561,22.8751],[94.5502,22.8755],[94.5223,22.8718],[94.5111,22.8724],[94.4962,22.8801],[94.4927,22.8835],[94.4919,22.8893],[94.4974,22.9053],[94.4854,22.9254],[94.4764,22.9316],[94.4621,22.9317],[94.4574,22.9296],[94.4129,22.9241],[94.3977,22.9288],[94.3917,22.9343],[94.3779,22.9548],[94.3607,22.9726],[94.3579,22.981],[94.3582,22.9971],[94.3614,23.0008],[94.3673,23.002],[94.3955,22.9825],[94.4042,22.9832],[94.413,22.987],[94.427,23.0011],[94.4368,23.0156],[94.4404,23.0239],[94.4311,23.039],[94.4273,23.0481],[94.4165,23.0586],[94.3594,23.0948],[94.3454,23.1078],[94.3386,23.1205],[94.337,23.1304],[94.3426,23.1463],[94.3407,23.1566],[94.3342,23.1691],[94.3326,23.1762],[94.3332,23.1902],[94.3314,23.1984],[94.3289,23.2012],[94.3264,23.2014],[94.3181,23.1914],[94.3064,23.1946],[94.301,23.2094],[94.3012,23.2156],[94.3068,23.2276],[94.3112,23.2322],[94.3275,23.2374],[94.3352,23.243],[94.3543,23.289],[94.3638,23.2999],[94.3687,23.3107],[94.3667,23.3155],[94.361,23.3159],[94.3421,23.3118],[94.3372,23.3122],[94.3304,23.3179],[94.3284,23.3243],[94.3303,23.3319],[94.34,23.348],[94.342,23.3538],[94.3392,23.3613],[94.3294,23.3642],[94.3237,23.3692],[94.3186,23.3818],[94.318,23.3914],[94.3302,23.4373],[94.3373,23.4468],[94.3431,23.4627],[94.3534,23.4729],[94.371,23.4788],[94.3811,23.4887],[94.3886,23.5032],[94.421,23.5248],[94.4232,23.5285],[94.4255,23.5436],[94.4239,23.5519],[94.4246,23.5619],[94.4182,23.5796],[94.4177,23.5855],[94.4174,23.5908],[94.423,23.6023],[94.4227,23.6087],[94.4136,23.6212],[94.4157,23.6396],[94.4082,23.6847],[94.4136,23.7216],[94.4217,23.7359],[94.4546,23.7573],[94.4686,23.772],[94.5006,23.7918],[94.5425,23.8088],[94.5442,23.8114],[94.5446,23.8155],[94.5411,23.8203],[94.5301,23.8248],[94.5178,23.8355],[94.508,23.8503],[94.5019,23.8665],[94.5028,23.8715],[94.5131,23.8867],[94.5188,23.8907],[94.5333,23.8906],[94.5405,23.8917],[94.5427,23.8945],[94.5399,23.8984],[94.5262,23.9017],[94.5115,23.9076],[94.5054,23.9116],[94.5037,23.9146],[94.5065,23.9311],[94.4969,23.9423],[94.5002,23.9432],[94.5042,23.9403],[94.5105,23.9319],[94.5123,23.9241],[94.5099,23.9135],[94.5139,23.9097],[94.5287,23.904],[94.5394,23.9034],[94.5439,23.8998],[94.5487,23.8921],[94.5552,23.8916],[94.5803,23.8996],[94.6075,23.9129],[94.6209,23.9244],[94.6322,23.9406],[94.6337,23.9481],[94.6324,23.9534],[94.6256,23.9577],[94.6134,23.9604],[94.5826,23.973],[94.5711,23.985],[94.5525,24.0007],[94.5453,24.0022],[94.5393,24.0109],[94.5368,24.0187],[94.5429,24.0296],[94.5487,24.0328],[94.5611,24.0307],[94.5755,24.0472],[94.5824,24.0501],[94.595,24.0503],[94.5989,24.0552],[94.5947,24.0803],[94.5959,24.0881],[94.6009,24.0997],[94.6127,24.1106],[94.6133,24.1146],[94.6117,24.1197],[94.5972,24.1338],[94.5857,24.1509],[94.5834,24.1652],[94.5873,24.1777],[94.5912,24.1817],[94.5963,24.184],[94.6128,24.1846],[94.6188,24.1821],[94.6227,24.1779],[94.6262,24.1709],[94.6303,24.1507],[94.634,24.1458],[94.6386,24.1446],[94.6604,24.1515],[94.673,24.1623],[94.6868,24.1701],[94.6909,24.175],[94.6928,24.1802],[94.6923,24.1863],[94.6827,24.2102],[94.682,24.2163],[94.685,24.2346],[94.688,24.2429],[94.6986,24.2517],[94.7114,24.257],[94.7717,24.2656],[94.8122,24.2795],[94.8214,24.2872],[94.824,24.3069],[94.8219,24.3147],[94.8145,24.3277],[94.7807,24.3622],[94.7745,24.3712],[94.7667,24.3962],[94.763,24.4025],[94.7578,24.4067],[94.7488,24.4092],[94.7375,24.4168],[94.7308,24.4168],[94.7145,24.4063],[94.7069,24.4105],[94.703,24.4158],[94.7014,24.4213],[94.7044,24.4348],[94.7194,24.4466],[94.7292,24.4567],[94.7327,24.4635],[94.732,24.4687],[94.721,24.4907],[94.7175,24.5021],[94.7184,24.5069],[94.7249,24.5173],[94.7187,24.528],[94.6968,24.5415],[94.6889,24.5493],[94.6912,24.5498],[94.7018,24.5453],[94.7088,24.5398],[94.72,24.5343],[94.7297,24.5221],[94.7297,24.5158],[94.7242,24.5004],[94.7242,24.4953],[94.7267,24.4875],[94.7394,24.4658],[94.7348,24.4548],[94.7283,24.4472],[94.7092,24.4323],[94.7053,24.4249],[94.7062,24.42],[94.7103,24.4173],[94.7267,24.4223],[94.7417,24.4225],[94.7603,24.4149],[94.7649,24.4111],[94.7711,24.4006],[94.79,24.3875],[94.7923,24.3839],[94.7996,24.3514],[94.8033,24.3432],[94.8304,24.3189],[94.8325,24.3109],[94.8301,24.2967],[94.8308,24.2889],[94.8271,24.2822],[94.8018,24.2666],[94.7795,24.2584],[94.725,24.2544],[94.7128,24.2509],[94.7029,24.2458],[94.6939,24.2376],[94.6891,24.23],[94.6861,24.2146],[94.6889,24.2043],[94.6972,24.1884],[94.6983,24.1811],[94.6956,24.1739],[94.6622,24.145],[94.6482,24.1433],[94.6388,24.1372],[94.6342,24.1368],[94.6269,24.1478],[94.6207,24.1684],[94.6165,24.176],[94.6124,24.1788],[94.6,24.1798],[94.5947,24.1787],[94.5919,24.1754],[94.5928,24.1551],[94.5963,24.1469],[94.6062,24.1338],[94.6198,24.1239],[94.6216,24.1176],[94.6159,24.1035],[94.6039,24.0872],[94.6035,24.0782],[94.6092,24.0573],[94.6051,24.0491],[94.598,24.0457],[94.5824,24.0427],[94.5764,24.0393],[94.5702,24.0256],[94.5654,24.0223],[94.5558,24.0225],[94.5501,24.0254],[94.5454,24.025],[94.5434,24.0205],[94.5542,24.006],[94.5672,23.9935],[94.5966,23.9756],[94.6036,23.9681],[94.6328,23.9584],[94.6384,23.9472],[94.6328,23.9319],[94.6126,23.9088],[94.6032,23.9021],[94.5764,23.8923],[94.5166,23.8845],[94.5088,23.8734],[94.5076,23.8691],[94.5097,23.8569],[94.5125,23.8521],[94.5194,23.8459],[94.5323,23.8344],[94.5403,23.8306],[94.5496,23.8213],[94.5524,23.8144],[94.5505,23.8091],[94.5376,23.7994],[94.4895,23.7786],[94.4437,23.7448],[94.4265,23.7279],[94.4226,23.7164],[94.4182,23.71],[94.421,23.6781],[94.4263,23.6725]],[[94.415,23.6829],[94.4133,23.6751],[94.4174,23.6637],[94.4185,23.6557],[94.4207,23.6552],[94.4229,23.6669],[94.421,23.6781],[94.415,23.6829]],[[94.4217,23.5821],[94.4244,23.5883],[94.4221,23.5927],[94.4177,23.5855],[94.4217,23.5821]],[[94.7907,24.3752],[94.7879,24.3792],[94.7842,24.3801],[94.7826,24.3752],[94.7863,24.3636],[94.7888,24.3607],[94.7916,24.3603],[94.7923,24.367],[94.7907,24.3752]],[[94.5187,22.8798],[94.505,22.8884],[94.5012,22.8948],[94.4969,22.8863],[94.4989,22.8836],[94.5101,22.8772],[94.5182,22.8778],[94.5187,22.8798]]]}},{"type":"Feature","properties":{"nm":"","major":0},"geometry":{"type":"Polygon","coordinates":[[[94.6992,24.1224],[94.6962,24.1176],[94.6926,24.1153],[94.6898,24.1157],[94.688,24.1187],[94.6893,24.1222],[94.696,24.1296],[94.699,24.1305],[94.6992,24.1224]]]}},{"type":"Feature","properties":{"nm":"","major":0},"geometry":{"type":"Polygon","coordinates":[[[96.5031,24.0008],[96.4837,24.0008],[96.471,24.0077],[96.4636,24.0074],[96.4447,24.0008],[96.4328,23.9911],[96.4208,23.9678],[96.414,23.9651],[96.407,23.9646],[96.3963,23.9688],[96.3701,23.9672],[96.3615,23.9716],[96.3438,23.9737],[96.3423,23.97],[96.3445,23.9616],[96.3422,23.9568],[96.339,23.9563],[96.3315,23.9627],[96.3285,23.9632],[96.3195,23.9515],[96.3153,23.9483],[96.2949,23.9486],[96.2874,23.9446],[96.2848,23.9488],[96.2911,23.9557],[96.2951,23.9571],[96.2986,23.9568],[96.3063,23.9518],[96.3115,23.9518],[96.315,23.9545],[96.3198,23.9634],[96.3225,23.9655],[96.3313,23.968],[96.3373,23.9646],[96.3375,23.9735],[96.3425,23.9794],[96.3473,23.9813],[96.3523,23.981],[96.3642,23.9762],[96.3911,23.9775],[96.407,23.9696],[96.4148,23.9703],[96.4193,23.974],[96.4278,23.9941],[96.4335,24.0008],[96.4515,24.0109],[96.4679,24.0147],[96.4707,24.0174],[96.4691,24.0213],[96.4751,24.0351],[96.4794,24.0426],[96.4831,24.0449],[96.4841,24.0379],[96.4758,24.0218],[96.4757,24.0182],[96.4789,24.0156],[96.4951,24.0097],[96.5031,24.0008]]]}},{"type":"Feature","properties":{"nm":"","major":0},"geometry":{"type":"Polygon","coordinates":[[[96.4673,24.0238],[96.465,24.0205],[96.4623,24.022],[96.4591,24.0283],[96.4562,24.029],[96.4539,24.0274],[96.4524,24.0189],[96.4496,24.0156],[96.4456,24.0154],[96.4441,24.0174],[96.4437,24.0258],[96.4454,24.0327],[96.4499,24.0363],[96.4563,24.0377],[96.4625,24.0363],[96.4663,24.0327],[96.4673,24.0238]]]}},{"type":"Feature","properties":{"nm":"","major":0},"geometry":{"type":"Polygon","coordinates":[[[96.4229,24.0145],[96.4209,24.0185],[96.4233,24.0244],[96.4272,24.0275],[96.433,24.0283],[96.436,24.0259],[96.435,24.024],[96.4281,24.0229],[96.4264,24.0155],[96.4229,24.0145]]]}},{"type":"Feature","properties":{"nm":"","major":0},"geometry":{"type":"Polygon","coordinates":[[[96.336,24.0201],[96.3245,24.0206],[96.3205,24.0232],[96.3249,24.0267],[96.3297,24.0267],[96.3352,24.0245],[96.3372,24.0219],[96.336,24.0201]]]}},{"type":"Feature","properties":{"nm":"","major":0},"geometry":{"type":"Polygon","coordinates":[[[96.4146,24.0087],[96.4138,24.0036],[96.4122,24.0026],[96.4104,24.0102],[96.4023,24.0169],[96.3857,24.0144],[96.383,24.0163],[96.3842,24.0201],[96.3985,24.0241],[96.404,24.024],[96.4104,24.0218],[96.4129,24.0184],[96.4146,24.0087]]]}},{"type":"Feature","properties":{"nm":"","major":0},"geometry":{"type":"Polygon","coordinates":[[[96.5031,24.0008],[96.5106,24.0008],[96.5204,23.973],[96.5192,23.9675],[96.5109,23.9595],[96.5161,23.9391],[96.526,23.9205],[96.5306,23.9047],[96.5266,23.8928],[96.5271,23.8877],[96.53,23.8841],[96.5425,23.8808],[96.5527,23.8698],[96.5596,23.856],[96.5625,23.8368],[96.5592,23.8249],[96.5515,23.8247],[96.5417,23.821],[96.5362,23.8165],[96.5322,23.8073],[96.5186,23.7599],[96.5136,23.7501],[96.5008,23.7343],[96.4904,23.7265],[96.4878,23.7208],[96.4896,23.7128],[96.495,23.7077],[96.5089,23.6803],[96.5038,23.6783],[96.4997,23.6889],[96.4861,23.7091],[96.4821,23.7231],[96.4851,23.7286],[96.4961,23.7371],[96.5046,23.7462],[96.5089,23.7599],[96.5164,23.7757],[96.52,23.7888],[96.5245,23.7954],[96.5272,23.8064],[96.5355,23.8224],[96.5419,23.826],[96.551,23.8281],[96.555,23.8313],[96.558,23.8359],[96.5588,23.8425],[96.5549,23.8581],[96.5497,23.8677],[96.5395,23.8774],[96.5246,23.8827],[96.5216,23.8889],[96.5239,23.9049],[96.5202,23.9194],[96.5133,23.9331],[96.5066,23.9416],[96.5032,23.9563],[96.5072,23.9691],[96.5078,23.9799],[96.5031,24.0008]]]}},{"type":"Feature","properties":{"nm":"Ayeyarwady River","major":1},"geometry":{"type":"MultiPolygon","coordinates":[[[[95.3204,21.5315],[95.322,21.5405],[95.3313,21.5607],[95.3379,21.569],[95.3398,21.5745],[95.3394,21.5801],[95.3412,21.5872],[95.3437,21.5904],[95.3456,21.6154],[95.356,21.6382],[95.3565,21.6435],[95.354,21.6561],[95.3567,21.6669],[95.3638,21.6759],[95.3681,21.6984],[95.3769,21.7198],[95.3827,21.7276],[95.4034,21.7373],[95.4087,21.7421],[95.4161,21.7539],[95.4168,21.7587],[95.4138,21.7679],[95.4074,21.7784],[95.4086,21.7814],[95.413,21.7768],[95.4202,21.7612],[95.4261,21.762],[95.434,21.7693],[95.4376,21.7787],[95.4351,21.7985],[95.437,21.8187],[95.4395,21.8219],[95.4463,21.824],[95.4552,21.8206],[95.4581,21.8208],[95.4618,21.824],[95.4638,21.8286],[95.4627,21.8488],[95.4696,21.8615],[95.4863,21.8776],[95.4943,21.8935],[95.5034,21.9029],[95.512,21.9087],[95.5324,21.9154],[95.5732,21.9187],[95.5973,21.9261],[95.6283,21.9309],[95.6223,21.9394],[95.6201,21.9463],[95.6218,21.9521],[95.6344,21.9606],[95.6435,21.9626],[95.6472,21.9695],[95.6515,21.9728],[95.6678,21.9732],[95.6705,21.9766],[95.667,21.9937],[95.6734,21.993],[95.671,21.9863],[95.6737,21.9714],[95.672,21.9701],[95.6553,21.971],[95.6515,21.9696],[95.6489,21.9651],[95.6481,21.9594],[95.6459,21.9583],[95.639,21.959],[95.6326,21.956],[95.6233,21.9459],[95.6317,21.9349],[95.6386,21.9298],[95.6615,21.9282],[95.6772,21.9244],[95.6833,21.9244],[95.7232,21.9311],[95.732,21.9292],[95.7443,21.9235],[95.7576,21.9213],[95.7926,21.9268],[95.8049,21.9211],[95.8297,21.9142],[95.8432,21.914],[95.853,21.9188],[95.8673,21.9213],[95.8757,21.9167],[95.8634,21.9179],[95.8528,21.9151],[95.8462,21.9105],[95.8624,21.9094],[95.8754,21.9048],[95.8823,21.9007],[95.9008,21.8818],[95.9101,21.869],[95.9172,21.8644],[95.9381,21.8688],[95.9495,21.8692],[95.9524,21.8665],[95.9608,21.8667],[95.9821,21.874],[96.004,21.8956],[96.0124,21.9064],[96.0205,21.9213],[96.0259,21.9243],[96.0195,21.9427],[96.0201,21.9686],[96.0255,21.9861],[96.0376,22.006],[96.0376,22.0099],[96.0277,22.0226],[96.0189,22.0662],[96.0135,22.0731],[96.0014,22.0949],[96.001,22.1018],[96.0047,22.1176],[96.0042,22.1231],[95.9978,22.1314],[95.9976,22.1362],[96.0,22.1417],[95.9946,22.1527],[95.9889,22.1704],[95.9884,22.1745],[95.9931,22.1807],[95.9904,22.1846],[95.9826,22.223],[95.9813,22.2368],[95.9833,22.248],[95.9828,22.2544],[95.9863,22.2696],[95.9816,22.2831],[95.9855,22.2902],[95.9843,22.3111],[95.9814,22.3166],[95.986,22.318],[95.9839,22.3432],[95.9819,22.3506],[95.9762,22.3552],[95.9676,22.3572],[95.9617,22.3637],[95.9548,22.3951],[95.9553,22.4107],[95.9516,22.427],[95.953,22.4323],[95.9555,22.4293],[95.9582,22.4316],[95.9609,22.4389],[95.9617,22.4516],[95.956,22.469],[95.958,22.4745],[95.9632,22.477],[95.9684,22.4844],[95.9701,22.4998],[95.9745,22.5078],[95.9864,22.519],[95.9891,22.5248],[95.9884,22.5303],[95.979,22.5392],[95.972,22.5528],[95.9667,22.5691],[95.9491,22.5888],[95.9405,22.6085],[95.9316,22.6432],[95.9114,22.6544],[95.9022,22.6764],[95.9047,22.6819],[95.9057,22.69],[95.8963,22.7076],[95.8955,22.7136],[95.899,22.7221],[95.9039,22.7269],[95.9163,22.7327],[95.9455,22.74],[95.9527,22.7402],[95.9643,22.7466],[95.9672,22.7702],[95.964,22.8017],[95.9658,22.8093],[95.964,22.821],[95.9653,22.8359],[95.9623,22.8492],[95.9621,22.8604],[95.9663,22.9134],[95.9623,22.9295],[95.9641,22.9414],[95.9678,22.9524],[95.9755,22.9657],[95.9765,22.9714],[95.9755,22.9809],[95.9706,22.9951],[95.9703,23.0036],[95.9661,23.0178],[95.9703,23.0274],[95.9721,23.0366],[95.9678,23.0499],[95.9686,23.0618],[95.9723,23.102],[95.9763,23.1125],[95.9775,23.124],[95.9766,23.1382],[95.9781,23.1499],[95.9746,23.1714],[95.9756,23.1898],[95.9736,23.2102],[95.9813,23.2703],[95.9866,23.2875],[95.9858,23.2952],[95.9878,23.3118],[95.9928,23.3228],[95.9938,23.3354],[95.9918,23.3587],[95.9989,23.3425],[96.0001,23.3282],[95.9945,23.317],[95.9915,23.2998],[95.9925,23.2943],[95.9895,23.2891],[95.989,23.2808],[95.9905,23.2769],[95.9878,23.2641],[95.9875,23.254],[95.9892,23.2453],[95.9922,23.2402],[96.0004,23.2324],[96.0036,23.2255],[96.0016,23.2212],[95.9974,23.229],[95.9863,23.2373],[95.9848,23.2366],[95.9828,23.2171],[95.9853,23.2081],[95.987,23.2072],[95.9944,23.2097],[95.9964,23.2086],[95.9969,23.2061],[95.991,23.2021],[95.9905,23.1992],[95.9934,23.1992],[95.9944,23.1964],[95.9924,23.1889],[95.9942,23.1707],[95.9862,23.1613],[95.984,23.1528],[95.985,23.1494],[95.9942,23.1568],[95.9971,23.157],[95.9897,23.1455],[95.9939,23.1442],[95.9947,23.1421],[95.9899,23.1396],[95.9845,23.1237],[95.985,23.1166],[95.9939,23.1212],[96.0016,23.1219],[96.0038,23.1192],[95.9919,23.1148],[95.9864,23.1095],[95.98,23.0971],[95.981,23.0948],[95.9862,23.096],[95.9993,23.1035],[96.0043,23.1093],[96.0055,23.1065],[96.0008,23.0994],[95.9954,23.0967],[95.9949,23.0937],[95.9902,23.0939],[95.9859,23.0916],[95.9854,23.0891],[95.9887,23.0813],[95.9904,23.0522],[95.9931,23.0437],[95.9911,23.0359],[95.979,23.0251],[95.975,23.0194],[95.9743,23.0155],[95.9777,22.9994],[95.9849,22.979],[95.9834,22.9756],[95.9802,22.9747],[95.9774,22.9549],[95.9738,22.9519],[95.9705,22.9457],[95.9681,22.935],[95.972,22.9129],[95.9703,22.8866],[95.9665,22.8675],[95.9675,22.8611],[95.966,22.8487],[95.969,22.8318],[95.9705,22.7852],[95.9687,22.7494],[95.967,22.743],[95.9643,22.7402],[95.9539,22.7356],[95.9373,22.7347],[95.924,22.7301],[95.9163,22.7249],[95.9067,22.7214],[95.9032,22.7173],[95.9025,22.7109],[95.9126,22.6923],[95.9133,22.6865],[95.9091,22.6769],[95.9101,22.6719],[95.9207,22.6519],[95.9341,22.6473],[95.9378,22.6443],[95.9469,22.6071],[95.9647,22.5798],[95.9825,22.5656],[95.9879,22.5569],[95.9887,22.5525],[95.9862,22.5447],[96.0025,22.5209],[96.0042,22.5147],[96.0029,22.4906],[95.9871,22.475],[95.9849,22.469],[95.9871,22.4633],[95.9913,22.4596],[95.9955,22.4582],[96.0066,22.4593],[96.0096,22.4564],[96.0142,22.4366],[96.0178,22.4291],[96.016,22.4218],[96.0145,22.4235],[96.0118,22.4233],[96.0085,22.4093],[96.0011,22.4002],[96.0103,22.388],[96.0115,22.3834],[96.0085,22.3742],[95.9925,22.3616],[95.9895,22.3561],[95.992,22.3513],[96.0058,22.3426],[96.0295,22.3205],[96.0309,22.3171],[96.0304,22.3132],[96.0245,22.3047],[96.0102,22.3003],[96.0072,22.2971],[96.0102,22.284],[96.0072,22.2732],[96.0077,22.2654],[96.0129,22.2551],[96.0143,22.2429],[96.0121,22.2291],[96.0126,22.223],[96.021,22.2172],[96.0247,22.2122],[96.0269,22.2053],[96.0261,22.1784],[96.0286,22.1702],[96.0362,22.1571],[96.0374,22.1516],[96.0332,22.1472],[96.0328,22.1424],[96.0352,22.1334],[96.0387,22.1275],[96.0392,22.1194],[96.0349,22.1135],[96.0236,22.1036],[96.0224,22.1002],[96.0253,22.0953],[96.0381,22.0871],[96.0445,22.0799],[96.0472,22.0728],[96.044,22.0645],[96.0389,22.0577],[96.0339,22.0565],[96.0305,22.0515],[96.0297,22.0428],[96.0309,22.0352],[96.0349,22.0278],[96.0516,22.0099],[96.0654,22.0021],[96.0668,22.0039],[96.0694,21.9993],[96.0641,21.9918],[96.0577,21.97],[96.0518,21.9624],[96.0493,21.9615],[96.0471,21.9539],[96.0491,21.9461],[96.0481,21.9408],[96.0407,21.9287],[96.0297,21.9029],[96.0279,21.903],[96.0102,21.8908],[96.005,21.8837],[95.9991,21.8695],[95.9925,21.8669],[95.991,21.8643],[95.9838,21.8621],[95.9779,21.8623],[95.9529,21.8548],[95.9369,21.8456],[95.9303,21.8446],[95.9182,21.8502],[95.9084,21.8518],[95.9042,21.8555],[95.9008,21.8646],[95.8924,21.8766],[95.886,21.8832],[95.8639,21.8972],[95.8489,21.9011],[95.8376,21.9023],[95.8272,21.9006],[95.8196,21.9016],[95.799,21.9064],[95.7699,21.9096],[95.7448,21.9155],[95.7291,21.9127],[95.7126,21.9134],[95.7013,21.9051],[95.6962,21.9033],[95.6807,21.9046],[95.6406,21.9202],[95.6155,21.9171],[95.5897,21.9162],[95.5597,21.9108],[95.5474,21.9021],[95.5364,21.8982],[95.5147,21.8954],[95.5066,21.8928],[95.4892,21.87],[95.504,21.8549],[95.5062,21.8492],[95.5026,21.8428],[95.4876,21.8294],[95.4842,21.8229],[95.4719,21.8167],[95.4695,21.8121],[95.4712,21.7993],[95.4541,21.7802],[95.4536,21.7774],[95.4647,21.7671],[95.4708,21.7531],[95.4693,21.7441],[95.4505,21.7581],[95.4453,21.7588],[95.4416,21.7618],[95.4382,21.7611],[95.4313,21.7565],[95.4031,21.7295],[95.3847,21.7152],[95.3743,21.6929],[95.3744,21.6702],[95.3719,21.6527],[95.3544,21.6152],[95.3494,21.5734],[95.3497,21.5677],[95.3514,21.5652],[95.3478,21.5463],[95.336,21.5263],[95.3264,21.5284],[95.3204,21.5315]],[[95.3663,21.6633],[95.3648,21.6669],[95.3582,21.6605],[95.3574,21.6563],[95.3607,21.649],[95.3631,21.6515],[95.3663,21.6633]],[[95.4608,21.7634],[95.4524,21.771],[95.4457,21.7703],[95.445,21.7666],[95.4475,21.7631],[95.4618,21.7561],[95.4637,21.757],[95.4608,21.7634]],[[95.4616,21.8034],[95.4599,21.8126],[95.4579,21.8148],[95.4488,21.8169],[95.4437,21.8159],[95.4414,21.8139],[95.44,21.8091],[95.4405,21.7985],[95.4474,21.7928],[95.4499,21.7875],[95.4594,21.7944],[95.4616,21.8034]],[[95.5025,21.8492],[95.5001,21.8526],[95.4961,21.8544],[95.4863,21.8549],[95.4816,21.8583],[95.4787,21.8581],[95.4694,21.8466],[95.4686,21.8431],[95.4696,21.8401],[95.4792,21.8301],[95.5025,21.8492]],[[95.5491,21.9129],[95.5363,21.9119],[95.5262,21.908],[95.524,21.9057],[95.527,21.9039],[95.5361,21.9037],[95.5506,21.9104],[95.5491,21.9129]],[[95.7148,21.9249],[95.6688,21.917],[95.6452,21.9219],[95.6622,21.9142],[95.6832,21.9088],[95.6964,21.9099],[95.7085,21.9152],[95.7156,21.9233],[95.7148,21.9249]],[[95.7884,21.9169],[95.7761,21.9176],[95.7749,21.9155],[95.7965,21.9093],[95.8218,21.9066],[95.8228,21.9096],[95.7987,21.9185],[95.7884,21.9169]],[[95.9465,21.8626],[95.9443,21.8649],[95.9389,21.8653],[95.9227,21.8619],[95.9197,21.8589],[95.9232,21.8555],[95.9423,21.8573],[95.9465,21.8626]],[[96.0397,21.953],[96.0434,21.964],[96.0538,21.975],[96.055,21.9803],[96.054,21.9867],[96.0452,21.9991],[96.0425,22.0001],[96.039,21.9968],[96.0351,21.9886],[96.024,21.9526],[96.0286,21.9479],[96.037,21.9493],[96.0397,21.953]],[[96.0403,22.0664],[96.0423,22.0726],[96.0391,22.0799],[96.0317,22.0868],[96.0187,22.094],[96.0155,22.0921],[96.0125,22.0878],[96.0206,22.0772],[96.0278,22.0607],[96.0356,22.0627],[96.0403,22.0664]],[[96.031,22.1222],[96.0327,22.1254],[96.0308,22.1293],[96.0224,22.1334],[96.0214,22.1369],[96.0167,22.1422],[96.0049,22.1454],[96.0052,22.1401],[96.0007,22.1334],[96.0091,22.1238],[96.0094,22.119],[96.0042,22.1011],[96.0054,22.0967],[96.0088,22.0944],[96.0113,22.1038],[96.0157,22.1105],[96.016,22.1187],[96.0204,22.1167],[96.0273,22.1215],[96.031,22.1222]],[[96.008,22.2546],[96.003,22.2657],[96.0001,22.2677],[95.9976,22.267],[95.9952,22.2638],[95.9905,22.248],[95.9902,22.2202],[95.9964,22.2039],[95.9959,22.1954],[95.998,22.1885],[96.0032,22.1835],[96.003,22.1778],[95.9978,22.17],[95.9983,22.1653],[96.0012,22.1596],[96.0074,22.1537],[96.0219,22.1474],[96.0084,22.1605],[96.0059,22.1658],[96.0086,22.1773],[96.0131,22.1807],[96.0202,22.1817],[96.022,22.1867],[96.0217,22.2069],[96.0205,22.2101],[96.0123,22.2154],[96.0028,22.2262],[96.0018,22.2305],[96.0028,22.2331],[96.0067,22.2326],[96.008,22.2546]],[[96.0318,22.1575],[96.0207,22.1775],[96.0173,22.1755],[96.0101,22.166],[96.0271,22.1527],[96.0298,22.1532],[96.0318,22.1575]],[[95.9993,22.2806],[96.0043,22.2826],[96.0062,22.2875],[96.0053,22.29],[96.0008,22.2932],[95.9932,22.2923],[95.9902,22.2904],[95.986,22.2799],[95.9902,22.2744],[95.9932,22.2746],[95.9993,22.2806]],[[96.0235,22.3111],[96.0253,22.3148],[96.0223,22.3194],[96.0105,22.3297],[95.9947,22.3389],[95.9972,22.3272],[95.9915,22.3166],[95.9893,22.3086],[95.9907,22.2994],[95.9976,22.2978],[96.0178,22.3063],[96.0235,22.3111]],[[95.9805,22.4012],[95.995,22.4174],[96.0031,22.421],[96.0071,22.4261],[96.0095,22.4344],[96.0058,22.4504],[96.0014,22.4536],[95.9913,22.455],[95.9812,22.4635],[95.98,22.4702],[95.9814,22.477],[95.995,22.4935],[95.9975,22.5004],[95.998,22.5101],[95.9958,22.514],[95.9921,22.5147],[95.9871,22.5124],[95.9745,22.4993],[95.9726,22.4812],[95.9619,22.4715],[95.961,22.4658],[95.9669,22.4545],[95.9689,22.4422],[95.9632,22.4318],[95.9602,22.418],[95.9619,22.4004],[95.9679,22.387],[95.9698,22.3724],[95.9676,22.3669],[95.97,22.3627],[95.9765,22.3611],[95.9851,22.3641],[95.9972,22.3749],[96.0009,22.3763],[96.0038,22.3822],[96.0041,22.3855],[95.9994,22.3944],[95.9945,22.3992],[96.0029,22.4139],[96.0017,22.416],[95.997,22.4153],[95.984,22.3995],[95.9925,22.394],[95.9927,22.3924],[95.9861,22.3919],[95.9807,22.3972],[95.9805,22.4012]],[[95.9874,23.0457],[95.982,23.0531],[95.98,23.0354],[95.9815,23.0334],[95.9864,23.0409],[95.9874,23.0457]],[[95.9857,23.0813],[95.9813,23.0891],[95.9758,23.0795],[95.9753,23.0692],[95.9814,23.0649],[95.9816,23.061],[95.9836,23.0605],[95.9868,23.0744],[95.9857,23.0813]]],[[[95.998,23.425],[95.9978,23.4612],[96.0008,23.4718],[95.9986,23.4869],[96.0013,23.5101],[96.0051,23.5228],[96.0066,23.5433],[96.0123,23.5591],[96.0277,23.5871],[96.026,23.5894],[96.0173,23.5926],[96.0123,23.6004],[96.0133,23.6045],[96.0203,23.6054],[96.0223,23.6096],[96.0185,23.6166],[96.0175,23.624],[96.019,23.6398],[96.025,23.6563],[96.0298,23.6639],[96.04,23.6705],[96.0494,23.6703],[96.0613,23.6657],[96.0658,23.6666],[96.0721,23.6744],[96.0763,23.6767],[96.0813,23.6776],[96.0867,23.6755],[96.0919,23.6757],[96.0959,23.6792],[96.0969,23.6844],[96.0907,23.6977],[96.0942,23.6973],[96.1034,23.6872],[96.1101,23.6879],[96.1206,23.6917],[96.1199,23.6979],[96.1079,23.7025],[96.1022,23.706],[96.0997,23.7094],[96.1097,23.73],[96.1089,23.7351],[96.0851,23.7372],[96.0846,23.7344],[96.0927,23.7147],[96.09,23.6998],[96.0882,23.7003],[96.087,23.7042],[96.0903,23.7142],[96.0828,23.7289],[96.0813,23.7367],[96.0831,23.7404],[96.1082,23.7394],[96.1159,23.736],[96.1162,23.7323],[96.1122,23.7239],[96.1127,23.719],[96.1057,23.7142],[96.1039,23.7101],[96.1211,23.7018],[96.1273,23.6908],[96.1315,23.6947],[96.1329,23.698],[96.1234,23.7179],[96.1216,23.7252],[96.1234,23.7319],[96.1279,23.7374],[96.1368,23.7405],[96.1453,23.7412],[96.1495,23.7458],[96.1535,23.7543],[96.167,23.7657],[96.1964,23.7822],[96.2014,23.7879],[96.2051,23.7982],[96.2081,23.8158],[96.2268,23.8332],[96.2303,23.8415],[96.2334,23.8593],[96.2371,23.8676],[96.2389,23.8694],[96.2409,23.8658],[96.2453,23.868],[96.2484,23.8783],[96.2564,23.8918],[96.2556,23.9038],[96.2583,23.9131],[96.2601,23.9093],[96.2676,23.9031],[96.2698,23.8962],[96.27,23.8847],[96.2685,23.8795],[96.2578,23.8653],[96.2585,23.8481],[96.2563,23.8483],[96.2533,23.8536],[96.2518,23.8641],[96.2506,23.8648],[96.2401,23.8559],[96.2368,23.8353],[96.2388,23.8282],[96.2485,23.8316],[96.259,23.8442],[96.2602,23.8385],[96.2582,23.833],[96.2532,23.8291],[96.235,23.8202],[96.2315,23.8165],[96.2265,23.7995],[96.2255,23.7892],[96.2213,23.7835],[96.211,23.7764],[96.2103,23.7668],[96.2035,23.754],[96.2018,23.7448],[96.1973,23.7416],[96.1916,23.7409],[96.1572,23.7405],[96.1557,23.738],[96.1617,23.7359],[96.1639,23.7332],[96.1634,23.7302],[96.1612,23.7304],[96.1552,23.7357],[96.1502,23.7357],[96.1442,23.7181],[96.1435,23.7052],[96.145,23.6922],[96.1405,23.6741],[96.1285,23.6622],[96.123,23.6535],[96.12,23.6583],[96.1063,23.6326],[96.1021,23.6287],[96.0767,23.6207],[96.0715,23.6162],[96.0703,23.6129],[96.073,23.6081],[96.0782,23.6079],[96.0819,23.6047],[96.0807,23.6026],[96.069,23.5964],[96.0625,23.5875],[96.0568,23.585],[96.0347,23.5816],[96.0317,23.5788],[96.0272,23.5683],[96.0324,23.5644],[96.0347,23.5561],[96.0336,23.5486],[96.0314,23.5419],[96.02,23.5275],[96.014,23.5245],[96.0142,23.5213],[96.0068,23.5027],[96.007,23.4642],[96.0028,23.4436],[96.003,23.4369],[96.0063,23.4299],[95.9965,23.4204],[95.998,23.425]],[[96.0277,23.5454],[96.0299,23.5525],[96.0275,23.5586],[96.0175,23.5426],[96.0143,23.5307],[96.0175,23.5307],[96.0277,23.5454]],[[96.0653,23.6008],[96.064,23.6043],[96.0606,23.6054],[96.0476,23.5965],[96.0553,23.5901],[96.0585,23.5898],[96.0638,23.5951],[96.0653,23.6008]],[[96.0676,23.6609],[96.0459,23.6657],[96.04,23.665],[96.0352,23.662],[96.0295,23.6552],[96.0238,23.6396],[96.0218,23.6274],[96.026,23.6121],[96.0257,23.6061],[96.0228,23.6015],[96.017,23.5988],[96.021,23.5951],[96.0285,23.5914],[96.0349,23.5908],[96.0374,23.5974],[96.0382,23.6125],[96.0456,23.6207],[96.0504,23.6187],[96.0534,23.6214],[96.0496,23.626],[96.0372,23.6329],[96.0352,23.6366],[96.035,23.6441],[96.037,23.6512],[96.0417,23.6558],[96.0504,23.6567],[96.0559,23.6558],[96.0613,23.651],[96.0646,23.6506],[96.0686,23.659],[96.0676,23.6609]],[[96.0927,23.6675],[96.0907,23.6709],[96.079,23.6714],[96.076,23.6689],[96.0795,23.6645],[96.0765,23.6622],[96.0778,23.6609],[96.0912,23.6647],[96.0927,23.6675]],[[96.0842,23.6501],[96.1101,23.6539],[96.1133,23.6583],[96.1188,23.684],[96.1176,23.6865],[96.1121,23.6854],[96.1036,23.6787],[96.0994,23.6775],[96.0964,23.6744],[96.0957,23.6647],[96.0929,23.6606],[96.083,23.659],[96.0775,23.6557],[96.0711,23.6556],[96.0685,23.648],[96.0698,23.6464],[96.0773,23.6471],[96.0842,23.6501]],[[96.1375,23.681],[96.1392,23.6876],[96.1357,23.7127],[96.1343,23.7133],[96.1332,23.712],[96.1345,23.6934],[96.1315,23.6869],[96.1236,23.6831],[96.1216,23.6718],[96.1243,23.6691],[96.132,23.6716],[96.1375,23.681]],[[96.0516,23.6522],[96.0452,23.6512],[96.0422,23.6464],[96.0404,23.6389],[96.0459,23.6338],[96.0566,23.629],[96.0616,23.6246],[96.0636,23.6203],[96.074,23.6262],[96.0904,23.6313],[96.0986,23.6388],[96.1026,23.6475],[96.1016,23.6491],[96.0775,23.6423],[96.0658,23.6432],[96.0516,23.6522]],[[96.0613,23.6164],[96.0593,23.6176],[96.0528,23.6164],[96.0426,23.6116],[96.0419,23.6054],[96.0434,23.5981],[96.0616,23.6116],[96.0613,23.6164]],[[96.1413,23.7341],[96.1393,23.7357],[96.1316,23.733],[96.1286,23.7295],[96.1306,23.7204],[96.1348,23.7183],[96.1383,23.7224],[96.1413,23.7341]],[[96.2071,23.7773],[96.2058,23.7797],[96.1991,23.7783],[96.1799,23.7648],[96.1687,23.7591],[96.168,23.7565],[96.1802,23.7565],[96.1826,23.7552],[96.1821,23.7533],[96.1742,23.7522],[96.164,23.7476],[96.1635,23.7453],[96.1657,23.744],[96.1898,23.7455],[96.1941,23.7483],[96.2058,23.7659],[96.2071,23.7773]],[[96.2228,23.8053],[96.2196,23.8053],[96.2143,23.798],[96.2108,23.7911],[96.2116,23.7861],[96.2208,23.792],[96.2228,23.8053]],[[96.2663,23.8856],[96.2656,23.89],[96.2626,23.8907],[96.2528,23.8767],[96.2563,23.8751],[96.2628,23.8788],[96.2663,23.8856]]],[[[96.057,22.3086],[96.0538,22.3042],[96.0502,22.3028],[96.0437,22.2969],[96.0422,22.2891],[96.0464,22.2799],[96.0442,22.2737],[96.0408,22.2815],[96.0388,22.292],[96.0403,22.2989],[96.0494,22.3072],[96.0531,22.3127],[96.057,22.3357],[96.0596,22.325],[96.057,22.3086]]]]}},{"type":"Feature","properties":{"nm":"","major":0},"geometry":{"type":"Polygon","coordinates":[[[96.2971,23.8668],[96.2914,23.862],[96.2819,23.8613],[96.2807,23.8627],[96.2867,23.8682],[96.2859,23.87],[96.2792,23.868],[96.2872,23.8801],[96.3024,23.887],[96.3034,23.8931],[96.3072,23.8938],[96.3082,23.8901],[96.3066,23.8842],[96.2971,23.8668]]]}},{"type":"Feature","properties":{"nm":"","major":0},"geometry":{"type":"Polygon","coordinates":[[[96.22,23.7705],[96.23,23.7851],[96.2327,23.795],[96.2375,23.7995],[96.2394,23.7961],[96.2325,23.778],[96.2252,23.7711],[96.22,23.7705]]]}},{"type":"Feature","properties":{"nm":"","major":0},"geometry":{"type":"Polygon","coordinates":[[[96.0856,23.7445],[96.0906,23.7514],[96.0955,23.753],[96.1055,23.7552],[96.1112,23.7527],[96.1087,23.7504],[96.0973,23.7495],[96.0903,23.7445],[96.0856,23.7445]]]}},{"type":"Feature","properties":{"nm":"","major":0},"geometry":{"type":"Polygon","coordinates":[[[94.6707,23.6241],[94.6684,23.6216],[94.6418,23.6214],[94.6335,23.6112],[94.6278,23.6073],[94.6176,23.6084],[94.6132,23.6029],[94.6079,23.6003],[94.6023,23.5925],[94.5988,23.5908],[94.5787,23.5918],[94.5702,23.5979],[94.5684,23.6055],[94.5644,23.6062],[94.5555,23.6047],[94.5533,23.6006],[94.5521,23.5889],[94.5506,23.5859],[94.5472,23.5847],[94.5422,23.5863],[94.5369,23.5913],[94.5293,23.5894],[94.526,23.591],[94.5072,23.6103],[94.5039,23.6107],[94.5005,23.6013],[94.4927,23.5944],[94.4919,23.5976],[94.4973,23.6047],[94.5002,23.6137],[94.5034,23.6153],[94.5074,23.6151],[94.5132,23.6101],[94.528,23.5935],[94.5327,23.5956],[94.5479,23.5904],[94.548,23.6019],[94.5554,23.6111],[94.5629,23.6123],[94.5733,23.609],[94.5754,23.6037],[94.5746,23.6012],[94.5799,23.5957],[94.5981,23.5956],[94.6025,23.6016],[94.6109,23.6068],[94.6136,23.6122],[94.6292,23.6126],[94.6359,23.6239],[94.64,23.6264],[94.6542,23.6286],[94.6649,23.6271],[94.6634,23.6356],[94.6737,23.6535],[94.6763,23.662],[94.6752,23.6725],[94.6876,23.6873],[94.688,23.6967],[94.6916,23.6978],[94.6935,23.6901],[94.6913,23.6839],[94.6822,23.6753],[94.6786,23.6535],[94.6698,23.6358],[94.6707,23.6241]]]}},{"type":"Feature","properties":{"nm":"","major":0},"geometry":{"type":"Polygon","coordinates":[[[96.1,23.6019],[96.0966,23.604],[96.1046,23.6109],[96.1073,23.6102],[96.1,23.6019]]]}},{"type":"Feature","properties":{"nm":"","major":0},"geometry":{"type":"Polygon","coordinates":[[[95.4121,23.5561],[95.4133,23.5501],[95.4109,23.5428],[95.4042,23.5368],[95.3973,23.5342],[95.3957,23.5372],[95.4071,23.5501],[95.4056,23.5556],[95.4014,23.5604],[95.3948,23.5623],[95.3963,23.5565],[95.3944,23.5517],[95.3878,23.5504],[95.3626,23.5535],[95.3573,23.5521],[95.3544,23.557],[95.3677,23.5593],[95.372,23.5575],[95.3898,23.557],[95.3811,23.5607],[95.3823,23.5644],[95.3843,23.5667],[95.3941,23.5691],[95.4009,23.568],[95.4066,23.5641],[95.4121,23.5561]]]}},{"type":"Feature","properties":{"nm":"","major":0},"geometry":{"type":"Polygon","coordinates":[[[95.128,23.4665],[95.131,23.4594],[95.1315,23.4526],[95.126,23.4587],[95.1106,23.4587],[95.1009,23.4611],[95.0873,23.4613],[95.0702,23.4529],[95.0684,23.4495],[95.064,23.4481],[95.0602,23.4486],[95.0555,23.4568],[95.0458,23.4551],[95.0432,23.456],[95.0522,23.4627],[95.0562,23.4625],[95.0629,23.4559],[95.0664,23.455],[95.0781,23.4654],[95.0892,23.4691],[95.1148,23.4681],[95.1277,23.4771],[95.1282,23.4791],[95.1244,23.4828],[95.1182,23.483],[95.11,23.4793],[95.0942,23.4855],[95.1107,23.4852],[95.1154,23.4873],[95.1266,23.4872],[95.1318,23.4828],[95.1334,23.4762],[95.128,23.4665]]]}},{"type":"Feature","properties":{"nm":"","major":0},"geometry":{"type":"Polygon","coordinates":[[[95.131,23.4594],[95.128,23.4665],[95.1312,23.4718],[95.1387,23.456],[95.1477,23.4442],[95.1522,23.4334],[95.1585,23.4286],[95.1535,23.4261],[95.1465,23.4304],[95.1375,23.4471],[95.1315,23.4526],[95.131,23.4594]]]}},{"type":"Feature","properties":{"nm":"","major":0},"geometry":{"type":"Polygon","coordinates":[[[95.3272,23.3369],[95.321,23.3325],[95.3175,23.3327],[95.3093,23.3457],[95.2998,23.3448],[95.292,23.3465],[95.278,23.3553],[95.2707,23.3621],[95.2464,23.3604],[95.2414,23.3627],[95.2355,23.3682],[95.2337,23.3648],[95.2297,23.3746],[95.2312,23.3814],[95.2287,23.3888],[95.2239,23.3949],[95.2391,23.392],[95.2403,23.3898],[95.2381,23.3753],[95.2434,23.3696],[95.2568,23.3694],[95.2662,23.3715],[95.2744,23.3658],[95.2797,23.3599],[95.2954,23.3498],[95.3105,23.3517],[95.3155,23.3485],[95.3194,23.3435],[95.3297,23.3443],[95.3272,23.3369]]]}},{"type":"Feature","properties":{"nm":"Mu River","major":1},"geometry":{"type":"Polygon","coordinates":[[[95.3408,23.1673],[95.3367,23.1654],[95.3271,23.1644],[95.3248,23.1697],[95.326,23.1835],[95.3314,23.1982],[95.3346,23.202],[95.3544,23.2157],[95.3646,23.2251],[95.3722,23.237],[95.3722,23.2398],[95.3627,23.2404],[95.3518,23.2494],[95.327,23.2582],[95.3237,23.2628],[95.3267,23.2674],[95.3353,23.2745],[95.3403,23.2835],[95.3432,23.2957],[95.3516,23.3071],[95.3494,23.3101],[95.3426,23.3122],[95.3379,23.316],[95.3361,23.3261],[95.3272,23.3369],[95.3297,23.3443],[95.3408,23.3293],[95.3439,23.3176],[95.3516,23.3156],[95.3568,23.3095],[95.3489,23.2945],[95.3452,23.2803],[95.3297,23.2633],[95.3322,23.2598],[95.3446,23.2587],[95.354,23.2537],[95.3635,23.246],[95.3684,23.2453],[95.3714,23.2474],[95.3709,23.259],[95.3729,23.2611],[95.3763,23.2554],[95.3803,23.2414],[95.3781,23.2345],[95.3616,23.2152],[95.3334,23.1947],[95.3312,23.189],[95.3288,23.1709],[95.3305,23.169],[95.3352,23.1697],[95.3468,23.187],[95.3637,23.1895],[95.3694,23.1857],[95.3883,23.1649],[95.3915,23.1644],[95.3953,23.1573],[95.3971,23.1454],[95.3963,23.1392],[95.3991,23.133],[95.4083,23.1248],[95.4137,23.1152],[95.4182,23.1145],[95.4207,23.112],[95.4242,23.0973],[95.4302,23.0847],[95.4397,23.0715],[95.4437,23.0611],[95.4427,23.0547],[95.4445,23.0396],[95.4477,23.0357],[95.4564,23.0323],[95.4609,23.0272],[95.4613,23.0217],[95.4587,23.0116],[95.4555,23.0066],[95.4602,22.996],[95.4595,22.9843],[95.4615,22.9763],[95.4672,22.9729],[95.4761,22.9603],[95.4752,22.9575],[95.4824,22.9445],[95.4834,22.9378],[95.4931,22.9163],[95.4913,22.9115],[95.4831,22.9277],[95.4742,22.9406],[95.4717,22.9497],[95.468,22.9541],[95.4667,22.9605],[95.459,22.9713],[95.449,22.9999],[95.449,23.005],[95.4567,23.0203],[95.4547,23.0247],[95.4499,23.0261],[95.443,23.032],[95.44,23.0391],[95.4369,23.0661],[95.4315,23.0781],[95.4252,23.0831],[95.422,23.0932],[95.4188,23.0954],[95.4172,23.1065],[95.41,23.1108],[95.4043,23.1239],[95.3949,23.1321],[95.3906,23.1511],[95.3779,23.1708],[95.3667,23.1813],[95.358,23.184],[95.3535,23.1836],[95.3486,23.1789],[95.3408,23.1673]]]}},{"type":"Feature","properties":{"nm":"","major":0},"geometry":{"type":"Polygon","coordinates":[[[95.5467,22.8497],[95.5408,22.8464],[95.5373,22.8508],[95.5408,22.8506],[95.5459,22.854],[95.5474,22.8524],[95.5467,22.8497]]]}},{"type":"Feature","properties":{"nm":"","major":0},"geometry":{"type":"Polygon","coordinates":[[[95.327,23.2582],[95.3255,23.2564],[95.3131,23.2515],[95.2905,23.2489],[95.2848,23.2505],[95.2789,23.2568],[95.2736,23.2546],[95.2632,23.2543],[95.2526,23.2582],[95.2476,23.2572],[95.2404,23.2524],[95.2087,23.2491],[95.1975,23.2433],[95.172,23.2439],[95.1663,23.2464],[95.1503,23.2649],[95.1394,23.269],[95.12,23.282],[95.1138,23.2817],[95.1031,23.2743],[95.0934,23.2772],[95.0855,23.2763],[95.0774,23.2714],[95.0717,23.2636],[95.0583,23.256],[95.0495,23.2479],[95.0426,23.2366],[95.0337,23.2279],[95.0275,23.2274],[95.0195,23.2312],[95.0339,23.2357],[95.0418,23.2481],[95.0467,23.2525],[95.0516,23.2543],[95.0573,23.2612],[95.0643,23.2636],[95.0702,23.2698],[95.0679,23.2755],[95.0561,23.2926],[95.0566,23.2951],[95.0601,23.294],[95.0751,23.2769],[95.0894,23.2829],[95.0956,23.2832],[95.0999,23.2814],[95.1165,23.2849],[95.1234,23.2842],[95.1344,23.2788],[95.1426,23.2726],[95.156,23.2674],[95.165,23.2565],[95.1697,23.2523],[95.1757,23.2501],[95.1834,23.2492],[95.1925,23.2511],[95.1945,23.2531],[95.2025,23.2522],[95.2238,23.2548],[95.2538,23.2632],[95.264,23.2594],[95.2818,23.2613],[95.2967,23.2551],[95.3039,23.2572],[95.3156,23.2566],[95.3242,23.2614],[95.3237,23.2628],[95.327,23.2582]]]}},{"type":"Feature","properties":{"nm":"","major":0},"geometry":{"type":"Polygon","coordinates":[[[95.3486,23.1789],[95.3499,23.1774],[95.3505,23.169],[95.3481,23.1642],[95.3411,23.16],[95.3303,23.1495],[95.313,23.144],[95.3073,23.1451],[95.3046,23.1474],[95.2966,23.1467],[95.2926,23.1365],[95.2852,23.1332],[95.2818,23.1334],[95.2749,23.1392],[95.268,23.1332],[95.2578,23.1327],[95.2498,23.1348],[95.2451,23.1382],[95.2367,23.1398],[95.2177,23.1266],[95.2107,23.1257],[95.2055,23.1229],[95.1783,23.121],[95.1669,23.1241],[95.1631,23.1303],[95.1641,23.1349],[95.175,23.1267],[95.1956,23.1252],[95.2025,23.1261],[95.2129,23.1333],[95.2208,23.1344],[95.2372,23.1481],[95.2414,23.1476],[95.2453,23.1449],[95.2511,23.1382],[95.2632,23.1371],[95.2753,23.1443],[95.2835,23.1378],[95.2881,23.1389],[95.2909,23.146],[95.2966,23.1536],[95.3038,23.1529],[95.31,23.1552],[95.3115,23.1504],[95.315,23.1509],[95.3189,23.1543],[95.3269,23.1527],[95.3293,23.1537],[95.3314,23.1586],[95.3408,23.1673],[95.3486,23.1789]]]}},{"type":"Feature","properties":{"nm":"","major":0},"geometry":{"type":"Polygon","coordinates":[[[94.7297,23.0935],[94.7227,23.0942],[94.7148,23.092],[94.7025,23.0846],[94.6707,23.0603],[94.672,23.0544],[94.6699,23.0424],[94.661,23.0334],[94.6586,23.0279],[94.6603,23.0236],[94.656,23.0116],[94.6568,23.0001],[94.6599,22.9903],[94.6592,22.9855],[94.6562,22.9854],[94.6534,22.9909],[94.6507,23.0166],[94.6549,23.0261],[94.6556,23.0341],[94.6641,23.0516],[94.6623,23.057],[94.6546,23.0602],[94.6478,23.079],[94.6401,23.0819],[94.6353,23.0908],[94.6315,23.0926],[94.6278,23.0979],[94.6265,23.1027],[94.6265,23.1054],[94.6311,23.11],[94.6353,23.1174],[94.6381,23.1392],[94.6413,23.1402],[94.642,23.1246],[94.6403,23.1188],[94.6413,23.1168],[94.6388,23.1099],[94.6315,23.102],[94.6405,23.0922],[94.6537,23.0829],[94.6595,23.068],[94.6625,23.0642],[94.6667,23.0635],[94.6963,23.0869],[94.7089,23.0939],[94.7312,23.0989],[94.7566,23.1086],[94.7717,23.1103],[94.778,23.1305],[94.7908,23.1437],[94.7956,23.1508],[94.8065,23.1596],[94.8134,23.1622],[94.8184,23.1613],[94.8137,23.156],[94.8078,23.155],[94.7992,23.1477],[94.7829,23.1294],[94.7793,23.1223],[94.7783,23.1136],[94.7764,23.1099],[94.764,23.1036],[94.7469,23.1014],[94.7297,23.0935]]]}},{"type":"Feature","properties":{"nm":"","major":0},"geometry":{"type":"Polygon","coordinates":[[[95.1058,23.0558],[95.1157,23.0482],[95.1317,23.0258],[95.1529,23.012],[95.1619,23.0115],[95.1929,23.0155],[95.2008,23.0126],[95.2117,23.0117],[95.2206,23.0161],[95.2471,23.018],[95.2491,23.0203],[95.2716,23.0227],[95.2892,23.018],[95.295,23.0146],[95.3143,23.0165],[95.3202,23.0149],[95.3343,23.0184],[95.3533,23.0269],[95.3635,23.0272],[95.3776,23.0231],[95.3766,23.0217],[95.3707,23.021],[95.3578,23.0233],[95.3276,23.0101],[95.321,23.0094],[95.3073,23.0114],[95.3016,23.01],[95.2888,23.0125],[95.2697,23.0195],[95.2598,23.0174],[95.2531,23.014],[95.2392,23.0123],[95.2281,23.0129],[95.212,23.0067],[95.188,23.0098],[95.1645,23.0049],[95.132,23.0169],[95.124,23.0253],[95.1235,23.0283],[95.118,23.0329],[95.1098,23.045],[95.0969,23.0525],[95.0887,23.0527],[95.084,23.0504],[95.0523,23.0506],[95.0404,23.0453],[95.0332,23.0488],[95.027,23.0483],[95.0179,23.0459],[95.009,23.0401],[95.0023,23.0399],[95.001,23.0413],[95.0079,23.0491],[95.0176,23.0537],[95.0257,23.0556],[95.0302,23.0549],[95.0337,23.0575],[95.0346,23.0623],[95.0316,23.0673],[95.0252,23.0719],[95.0162,23.0847],[95.0117,23.0874],[95.0052,23.0883],[94.9937,23.0795],[94.9852,23.0788],[94.9743,23.0822],[94.9743,23.0861],[94.9772,23.0893],[94.9817,23.0898],[94.9864,23.0871],[94.9909,23.0868],[94.999,23.0949],[95.0057,23.0949],[95.0171,23.0895],[95.0266,23.0817],[95.0361,23.0708],[95.0411,23.0531],[95.0528,23.0539],[95.0575,23.0567],[95.0706,23.0565],[95.0884,23.0586],[95.0933,23.061],[95.071,23.0755],[95.0682,23.084],[95.0661,23.1003],[95.0606,23.1092],[95.0544,23.1142],[95.0427,23.1351],[95.0583,23.1209],[95.0706,23.1021],[95.073,23.0855],[95.0776,23.0779],[95.0928,23.0704],[95.1058,23.0558]]]}},{"type":"Feature","properties":{"nm":"","major":0},"geometry":{"type":"Polygon","coordinates":[[[94.0571,22.8462],[94.0556,22.8481],[94.0621,22.8614],[94.0813,22.8706],[94.0971,22.8758],[94.0908,22.8679],[94.0817,22.8678],[94.0673,22.8603],[94.0623,22.8509],[94.0571,22.8462]]]}},{"type":"Feature","properties":{"nm":"","major":0},"geometry":{"type":"Polygon","coordinates":[[[94.808,22.5591],[94.8067,22.5436],[94.8189,22.5084],[94.8198,22.5015],[94.8159,22.4925],[94.8172,22.4914],[94.818,22.4774],[94.8127,22.4643],[94.8167,22.4565],[94.8204,22.4545],[94.8332,22.453],[94.8397,22.4473],[94.8575,22.4396],[94.8651,22.4392],[94.8789,22.4413],[94.8854,22.4409],[94.8903,22.4379],[94.9078,22.4038],[94.9125,22.3979],[94.9249,22.398],[94.9633,22.4051],[94.9683,22.4035],[94.9785,22.3902],[94.984,22.3769],[94.9818,22.3652],[94.9848,22.3542],[94.9906,22.3428],[94.9955,22.3378],[95.0069,22.3365],[95.0224,22.3276],[95.0274,22.3223],[95.0351,22.3063],[95.0392,22.2903],[95.042,22.2666],[95.0458,22.2582],[95.0476,22.2481],[95.0553,22.2332],[95.0617,22.225],[95.0753,22.214],[95.0828,22.2025],[95.0843,22.1899],[95.0814,22.1858],[95.0778,22.1885],[95.077,22.187],[95.0814,22.1787],[95.0921,22.1709],[95.0941,22.1662],[95.089,22.1665],[95.0954,22.1507],[95.1008,22.1476],[95.1048,22.137],[95.1313,22.1071],[95.1721,22.0682],[95.1675,22.0664],[95.1585,22.0751],[95.1559,22.07],[95.1523,22.0523],[95.1528,22.0482],[95.1577,22.0411],[95.1519,22.03],[95.1497,22.0195],[95.1498,21.9931],[95.1423,21.9712],[95.1382,21.9515],[95.14,21.9395],[95.1577,21.8983],[95.1607,21.8719],[95.1672,21.8536],[95.1648,21.8448],[95.1661,21.8361],[95.1788,21.8049],[95.1788,21.7964],[95.1862,21.785],[95.1953,21.7829],[95.1965,21.7857],[95.1876,21.799],[95.1913,21.8061],[95.197,21.7919],[95.2071,21.7807],[95.2081,21.7756],[95.2067,21.7701],[95.2114,21.7642],[95.2119,21.7596],[95.2272,21.7445],[95.2322,21.7317],[95.2443,21.7191],[95.2499,21.7104],[95.2502,21.6971],[95.2466,21.6842],[95.2474,21.6603],[95.2502,21.656],[95.2671,21.6507],[95.2711,21.6462],[95.2733,21.6377],[95.2782,21.6329],[95.2925,21.6256],[95.3213,21.6177],[95.3412,21.5872],[95.3394,21.5801],[95.3316,21.5956],[95.3157,21.6105],[95.2893,21.6175],[95.2768,21.6262],[95.2702,21.6283],[95.2707,21.6216],[95.2783,21.6055],[95.2786,21.6012],[95.2762,21.5942],[95.2642,21.6063],[95.2638,21.6119],[95.2591,21.6248],[95.2527,21.6335],[95.2453,21.6378],[95.2382,21.6373],[95.2333,21.6391],[95.2306,21.6469],[95.2376,21.6607],[95.241,21.6736],[95.2388,21.6826],[95.2282,21.6903],[95.2247,21.6981],[95.2231,21.7201],[95.2172,21.7348],[95.2021,21.7444],[95.1915,21.7549],[95.1839,21.7666],[95.1799,21.781],[95.1717,21.798],[95.1667,21.8039],[95.1652,21.8037],[95.1564,21.811],[95.1497,21.8199],[95.1486,21.8346],[95.1469,21.8372],[95.1348,21.8408],[95.1242,21.8515],[95.1163,21.8552],[95.1104,21.8554],[95.0969,21.8459],[95.0859,21.8454],[95.0837,21.8412],[95.0796,21.838],[95.079,21.8446],[95.0748,21.8449],[95.0655,21.8382],[95.0665,21.8441],[95.0687,21.8464],[95.08,21.8502],[95.0962,21.8528],[95.1227,21.8662],[95.1264,21.8662],[95.1259,21.8642],[95.1183,21.8593],[95.1356,21.8449],[95.1432,21.8445],[95.1456,21.8484],[95.1434,21.8617],[95.1454,21.887],[95.1345,21.9115],[95.1327,21.9308],[95.1239,21.9723],[95.1169,21.981],[95.1169,21.9846],[95.1203,21.9918],[95.1308,22.0063],[95.1357,22.0166],[95.1424,22.0552],[95.1424,22.066],[95.1386,22.0814],[95.1282,22.0965],[95.1161,22.1081],[95.1197,22.1116],[95.118,22.1157],[95.1115,22.1201],[95.1036,22.132],[95.0994,22.1331],[95.0925,22.1432],[95.0888,22.1431],[95.0833,22.147],[95.0811,22.1534],[95.0785,22.1725],[95.0698,22.1894],[95.0676,22.1981],[95.0682,22.2027],[95.0715,22.2032],[95.0739,22.206],[95.0732,22.2092],[95.0707,22.2108],[95.0663,22.2094],[95.058,22.2242],[95.0518,22.2315],[95.0429,22.249],[95.0356,22.2693],[95.0332,22.2654],[95.0302,22.2657],[95.0335,22.29],[95.0328,22.2973],[95.0253,22.3129],[95.0084,22.3199],[95.0018,22.3243],[94.9956,22.3334],[94.9852,22.3361],[94.98,22.3409],[94.9762,22.3519],[94.9786,22.3661],[94.9758,22.3843],[94.9713,22.3927],[94.9619,22.4],[94.9552,22.3991],[94.953,22.3968],[94.937,22.3962],[94.9254,22.3927],[94.9143,22.3922],[94.9081,22.3937],[94.9042,22.3976],[94.8882,22.4297],[94.8847,22.4326],[94.8644,22.4343],[94.8499,22.4377],[94.8286,22.4513],[94.8189,22.4508],[94.811,22.4558],[94.8089,22.4654],[94.815,22.4859],[94.8068,22.4939],[94.8043,22.503],[94.7895,22.5328],[94.7901,22.5397],[94.7853,22.5568],[94.7664,22.5838],[94.7594,22.59],[94.7577,22.5936],[94.7541,22.6335],[94.7698,22.6591],[94.7724,22.6708],[94.769,22.6976],[94.766,22.7013],[94.763,22.7015],[94.7596,22.6989],[94.7519,22.7053],[94.7236,22.7139],[94.7184,22.7186],[94.7126,22.7353],[94.7131,22.7409],[94.7113,22.7477],[94.705,22.7569],[94.696,22.7657],[94.6828,22.7856],[94.6815,22.7897],[94.6841,22.8047],[94.6915,22.8113],[94.7033,22.8165],[94.7242,22.8332],[94.7245,22.8263],[94.7194,22.8205],[94.7043,22.8128],[94.697,22.807],[94.6916,22.7937],[94.693,22.7779],[94.7107,22.7603],[94.7159,22.7498],[94.721,22.7304],[94.727,22.7286],[94.7424,22.7137],[94.766,22.7068],[94.7717,22.7009],[94.7776,22.672],[94.7754,22.6609],[94.7706,22.6497],[94.7618,22.6361],[94.7589,22.6209],[94.7603,22.609],[94.7641,22.5971],[94.7919,22.5555],[94.7999,22.5547],[94.804,22.5618],[94.808,22.5591]],[[94.8143,22.5115],[94.8033,22.545],[94.7987,22.5487],[94.796,22.5438],[94.7966,22.5396],[94.8034,22.5198],[94.8131,22.5101],[94.8143,22.5115]],[[95.0057,22.3314],[95.004,22.328],[95.0062,22.3254],[95.0193,22.3214],[95.02,22.3237],[95.0057,22.3314]],[[95.1315,22.1008],[95.1354,22.092],[95.14,22.0887],[95.1419,22.0928],[95.1315,22.1008]],[[95.1531,21.8895],[95.1494,21.8854],[95.1492,21.8799],[95.1524,21.8728],[95.1543,21.8836],[95.1531,21.8895]],[[95.1592,21.8251],[95.1561,21.8221],[95.1561,21.8172],[95.1628,21.8106],[95.1632,21.8175],[95.1592,21.8251]],[[95.209,21.7571],[95.2045,21.7671],[95.1937,21.7687],[95.191,21.7671],[95.2011,21.7536],[95.2176,21.7431],[95.2218,21.7426],[95.2211,21.7466],[95.209,21.7571]],[[95.2433,21.6968],[95.245,21.7071],[95.2433,21.7106],[95.2369,21.7156],[95.2283,21.7188],[95.2269,21.7137],[95.2328,21.6926],[95.2348,21.691],[95.2399,21.6924],[95.2433,21.6968]],[[95.2472,21.65],[95.2421,21.653],[95.2365,21.6442],[95.2372,21.6421],[95.2542,21.6431],[95.2625,21.6392],[95.264,21.6415],[95.2571,21.6477],[95.2472,21.65]]]}},{"type":"Feature","properties":{"nm":"","major":0},"geometry":{"type":"Polygon","coordinates":[[[95.9194,22.0809],[95.916,22.0623],[95.9205,22.0409],[95.92,22.0357],[95.9096,22.0233],[95.9003,22.0272],[95.8885,22.0288],[95.8665,22.0428],[95.8656,22.046],[95.8673,22.0729],[95.871,22.0832],[95.8778,22.0875],[95.888,22.0862],[95.8909,22.0882],[95.8897,22.0921],[95.8902,22.1061],[95.8926,22.1158],[95.8966,22.1213],[95.9032,22.122],[95.9099,22.116],[95.917,22.0974],[95.9194,22.0809]]]}},{"type":"Feature","properties":{"nm":"","major":0},"geometry":{"type":"Polygon","coordinates":[[[94.1149,22.748],[94.1194,22.7487],[94.1221,22.7446],[94.1219,22.7407],[94.1168,22.7353],[94.1125,22.7406],[94.1039,22.7396],[94.0998,22.7485],[94.1015,22.751],[94.1047,22.7515],[94.1149,22.748]]]}},{"type":"Feature","properties":{"nm":"","major":0},"geometry":{"type":"Polygon","coordinates":[[[94.804,22.5618],[94.8097,22.5689],[94.8144,22.5664],[94.8345,22.5865],[94.8453,22.5946],[94.8505,22.5965],[94.8564,22.6027],[94.8605,22.6145],[94.8691,22.6218],[94.8765,22.6318],[94.8946,22.6502],[94.917,22.6662],[94.9325,22.6748],[94.9434,22.6787],[94.9521,22.6948],[94.9568,22.7132],[94.9626,22.7192],[94.9675,22.7357],[94.9769,22.7362],[94.9771,22.7335],[94.9701,22.7199],[94.9681,22.719],[94.9654,22.7096],[94.9568,22.6958],[94.9555,22.6829],[94.9491,22.6746],[94.9318,22.6693],[94.9237,22.6651],[94.9171,22.6579],[94.9138,22.6584],[94.9055,22.6526],[94.8934,22.6422],[94.8819,22.6263],[94.8682,22.6108],[94.8614,22.5982],[94.8552,22.5928],[94.8385,22.5833],[94.8262,22.5725],[94.8221,22.5653],[94.808,22.5591],[94.804,22.5618]]]}},{"type":"Feature","properties":{"nm":"","major":0},"geometry":{"type":"Polygon","coordinates":[[[94.8486,22.6603],[94.8441,22.6634],[94.8441,22.6669],[94.8465,22.6697],[94.8515,22.6699],[94.8542,22.6658],[94.8486,22.6603]]]}},{"type":"Feature","properties":{"nm":"","major":0},"geometry":{"type":"Polygon","coordinates":[[[94.8328,22.6193],[94.8298,22.6225],[94.8328,22.6262],[94.8382,22.6226],[94.8328,22.6193]]]}},{"type":"Feature","properties":{"nm":"Mu River","major":1},"geometry":{"type":"Polygon","coordinates":[[[95.5077,22.5137],[95.5159,22.5162],[95.521,22.5156],[95.528,22.5091],[95.5334,22.4956],[95.5409,22.4901],[95.5495,22.4888],[95.5547,22.4846],[95.5565,22.478],[95.5535,22.4573],[95.5513,22.4539],[95.5449,22.4534],[95.5528,22.4736],[95.5493,22.481],[95.5357,22.4853],[95.528,22.4949],[95.5233,22.5068],[95.5196,22.5116],[95.5129,22.5123],[95.5036,22.5077],[95.5003,22.5082],[95.4978,22.5219],[95.4944,22.5256],[95.4862,22.5281],[95.4699,22.5388],[95.4656,22.5659],[95.47,22.5742],[95.4762,22.5946],[95.4761,22.6013],[95.4714,22.6164],[95.4751,22.6157],[95.4788,22.6127],[95.4816,22.6022],[95.4784,22.5861],[95.4693,22.5689],[95.4711,22.5508],[95.4746,22.5425],[95.4822,22.5354],[95.4985,22.5309],[95.5045,22.5151],[95.5077,22.5137]]]}},{"type":"Feature","properties":{"nm":"","major":0},"geometry":{"type":"Polygon","coordinates":[[[95.445,22.6035],[95.4413,22.6108],[95.4427,22.6138],[95.4492,22.612],[95.4509,22.6079],[95.445,22.6035]]]}},{"type":"Feature","properties":{"nm":"","major":0},"geometry":{"type":"Polygon","coordinates":[[[94.8309,22.6023],[94.8307,22.6074],[94.8325,22.6093],[94.8344,22.6043],[94.8309,22.6023]]]}},{"type":"Feature","properties":{"nm":"","major":0},"geometry":{"type":"Polygon","coordinates":[[[94.8541,22.4223],[94.8402,22.4099],[94.8116,22.4021],[94.8064,22.4012],[94.8047,22.4027],[94.8143,22.409],[94.8246,22.4102],[94.8327,22.4137],[94.8357,22.4133],[94.8409,22.4163],[94.8477,22.4219],[94.8558,22.4361],[94.8644,22.4343],[94.8541,22.4223]]]}},{"type":"Feature","properties":{"nm":"","major":0},"geometry":{"type":"Polygon","coordinates":[[[95.951,22.198],[95.9345,22.1993],[95.9358,22.2041],[95.9303,22.2129],[95.9306,22.2163],[95.9338,22.2184],[95.9404,22.2186],[95.95,22.2122],[95.9596,22.2099],[95.9611,22.206],[95.9577,22.2014],[95.951,22.198]]]}},{"type":"Feature","properties":{"nm":"","major":0},"geometry":{"type":"Polygon","coordinates":[[[94.7307,22.188],[94.7389,22.1875],[94.7454,22.1813],[94.748,22.1727],[94.756,22.168],[94.7655,22.1652],[94.7732,22.1538],[94.7826,22.1485],[94.7925,22.1477],[94.7972,22.1443],[94.7858,22.1424],[94.7795,22.1435],[94.7698,22.1494],[94.7661,22.1549],[94.7652,22.1591],[94.7559,22.1647],[94.7455,22.1673],[94.7385,22.1806],[94.7345,22.1832],[94.7288,22.1842],[94.7165,22.1979],[94.7096,22.1944],[94.7056,22.1962],[94.7098,22.1999],[94.7203,22.2041],[94.7307,22.188]]]}},{"type":"Feature","properties":{"nm":"","major":0},"geometry":{"type":"Polygon","coordinates":[[[94.8231,22.1401],[94.8306,22.1236],[94.843,22.119],[94.8447,22.1162],[94.8562,22.1116],[94.8712,22.1169],[94.8823,22.1244],[94.8884,22.1306],[94.8951,22.1286],[94.8777,22.1133],[94.8585,22.1061],[94.8528,22.1102],[94.8436,22.1118],[94.8356,22.1166],[94.8271,22.1178],[94.8227,22.1219],[94.8199,22.1315],[94.8102,22.1416],[94.8139,22.1414],[94.8171,22.1435],[94.8231,22.1401]]]}},{"type":"Feature","properties":{"nm":"","major":0},"geometry":{"type":"Polygon","coordinates":[[[94.9197,22.1264],[94.914,22.128],[94.9061,22.1367],[94.9132,22.1379],[94.9315,22.1306],[94.9258,22.1271],[94.9197,22.1264]]]}},{"type":"Feature","properties":{"nm":"","major":0},"geometry":{"type":"Polygon","coordinates":[[[94.9507,22.1224],[94.9418,22.1263],[94.9386,22.1304],[94.9522,22.1303],[94.9552,22.1266],[94.9549,22.1234],[94.9507,22.1224]]]}},{"type":"Feature","properties":{"nm":"","major":0},"geometry":{"type":"Polygon","coordinates":[[[94.7274,22.0605],[94.7232,22.0611],[94.7261,22.0644],[94.731,22.066],[94.7517,22.0691],[94.7573,22.0738],[94.7622,22.0756],[94.7667,22.075],[94.7554,22.0664],[94.7465,22.0631],[94.735,22.0626],[94.7274,22.0605]]]}},{"type":"Feature","properties":{"nm":"","major":0},"geometry":{"type":"Polygon","coordinates":[[[94.8729,21.8624],[94.8778,21.8628],[94.8867,21.854],[94.8948,21.8529],[94.8981,21.8489],[94.9004,21.8492],[94.9118,21.8402],[94.9268,21.8421],[94.9434,21.8388],[94.9672,21.838],[94.989,21.8309],[94.9921,21.8274],[94.9858,21.8257],[94.9685,21.8314],[94.9591,21.8301],[94.9565,21.8267],[94.952,21.8103],[94.9355,21.7838],[94.931,21.7835],[94.9333,21.7917],[94.9481,21.8176],[94.9496,21.8307],[94.9473,21.8331],[94.931,21.8363],[94.9109,21.8359],[94.9053,21.8371],[94.8978,21.8453],[94.8841,21.8504],[94.8681,21.8594],[94.8599,21.8615],[94.8488,21.8614],[94.8436,21.8574],[94.8313,21.8522],[94.8147,21.8509],[94.8004,21.8535],[94.8046,21.8563],[94.8282,21.8552],[94.8326,21.858],[94.8378,21.858],[94.8462,21.8644],[94.8537,21.8678],[94.8589,21.8679],[94.8729,21.8624]]]}},{"type":"Feature","properties":{"nm":"","major":0},"geometry":{"type":"Polygon","coordinates":[[[95.9903,21.8647],[95.988,21.847],[95.9902,21.8368],[95.9927,21.8323],[96.0065,21.8218],[96.0023,21.8202],[95.99,21.8293],[95.9779,21.8311],[95.9794,21.8339],[95.9838,21.8362],[95.9834,21.8522],[95.9848,21.8589],[95.9838,21.8621],[95.9903,21.8647]]]}},{"type":"Feature","properties":{"nm":"","major":0},"geometry":{"type":"Polygon","coordinates":[[[96.017,21.8295],[96.0133,21.8246],[96.0133,21.8394],[96.0079,21.849],[96.0084,21.852],[96.0153,21.8458],[96.017,21.8295]]]}},{"type":"Feature","properties":{"nm":"","major":0},"geometry":{"type":"Polygon","coordinates":[[[95.3724,21.5804],[95.3692,21.5889],[95.3721,21.5944],[95.3764,21.5852],[95.3754,21.5813],[95.3724,21.5804]]]}}]}