{"type":"FeatureCollection","features":[{"type":"Feature","properties":{"Road_Type":"Main","Route":"AH 1"},"geometry":{"type":"LineString","coordinates":[[94.3084,24.2469],[94.3112,24.2464],[94.3102,24.2437],[94.2995,24.2315],[94.304,24.2231],[94.3013,24.1968],[94.2767,24.1124],[94.2745,24.0802],[94.2725,24.0785],[94.2718,24.0713],[94.2547,24.0524],[94.2542,24.046],[94.2311,24.0222],[94.2124,23.989],[94.209,23.9872],[94.2093,23.9834],[94.2019,23.9726],[94.2012,23.9629],[94.1953,23.9514],[94.1949,23.9435],[94.1967,23.9335],[94.1901,23.9311],[94.1904,23.926],[94.186,23.9207],[94.1745,23.887],[94.176,23.8846],[94.1747,23.881],[94.172,23.8794],[94.1597,23.8529],[94.1568,23.8501],[94.157,23.8481],[94.146,23.8302],[94.1468,23.799],[94.1421,23.7932],[94.1439,23.784],[94.1556,23.7611],[94.1553,23.7477],[94.1588,23.7448],[94.159,23.7355],[94.1602,23.7339],[94.151,23.7109],[94.151,23.7013],[94.1432,23.6891],[94.1419,23.6789],[94.1354,23.6605],[94.1234,23.6139],[94.1257,23.5794],[94.1291,23.5596],[94.127,23.557],[94.1271,23.5404],[94.1198,23.5198],[94.1211,23.5134],[94.1167,23.5102],[94.1213,23.4962],[94.1225,23.478],[94.1169,23.4703],[94.1137,23.4543],[94.1104,23.4499],[94.1096,23.4312],[94.1056,23.4195],[94.1053,23.4105],[94.1019,23.3966],[94.0993,23.3935],[94.1014,23.3654],[94.1003,23.3446],[94.0963,23.3287],[94.1032,23.3195],[94.1058,23.305],[94.1115,23.3024],[94.1138,23.2988],[94.111,23.2934],[94.1133,23.2893],[94.1126,23.2721],[94.1189,23.2422],[94.1185,23.2369],[94.1215,23.2344],[94.1276,23.2344],[94.1311,23.2325]]}},{"type":"Feature","properties":{"Road_Type":"Main","Route":""},"geometry":{"type":"LineString","coordinates":[[96.0229,23.1093],[96.0279,23.1102],[96.0449,23.1059]]}},{"type":"Feature","properties":{"Road_Type":"Main","Route":""},"geometry":{"type":"LineString","coordinates":[[95.9215,21.8018],[95.9423,21.8064],[95.949,21.8124],[95.9554,21.8112],[95.9752,21.8223],[95.9826,21.8183]]}},{"type":"Feature","properties":{"Road_Type":"Main","Route":"AH 1"},"geometry":{"type":"LineString","coordinates":[[95.83,22.0063],[95.8408,22.0052],[95.8434,22.0029],[95.846,21.9928],[95.8698,21.957],[95.896,21.9382],[95.9154,21.9353],[95.9272,21.936],[95.9393,21.9291],[95.9444,21.9279],[95.9585,21.9141],[95.9703,21.8959],[95.9768,21.8928],[95.9834,21.8829],[96.0049,21.8725],[96.0091,21.8785],[96.0175,21.8826],[96.0302,21.8942],[96.0386,21.8962],[96.0502,21.9085],[96.0579,21.9202],[96.0653,21.9239],[96.0681,21.9296]]}},{"type":"Feature","properties":{"Road_Type":"Main","Route":""},"geometry":{"type":"LineString","coordinates":[[96.1568,27.2457],[96.1658,27.2434],[96.1645,27.2398],[96.1669,27.2373],[96.17,27.2369],[96.1701,27.2314],[96.1781,27.2241],[96.181,27.2155],[96.185,27.2113],[96.1851,27.2081],[96.1951,27.2109],[96.201,27.21],[96.202,27.2133],[96.2056,27.2152],[96.2117,27.2147],[96.2141,27.2176],[96.2235,27.219],[96.2258,27.2209],[96.2312,27.218],[96.2336,27.2205],[96.2377,27.2198],[96.2383,27.2222],[96.2414,27.2208],[96.2458,27.2149],[96.25,27.2164],[96.2517,27.2151],[96.2538,27.2167],[96.2576,27.2161],[96.261,27.2067],[96.2598,27.2045],[96.2611,27.204],[96.2608,27.2001],[96.2668,27.1914],[96.2611,27.1862],[96.2599,27.1816],[96.2552,27.1758],[96.2557,27.1725],[96.2537,27.1704],[96.2547,27.1686],[96.2497,27.1661],[96.2486,27.1605],[96.2524,27.1501],[96.2505,27.1445],[96.2544,27.1424],[96.2522,27.1397],[96.264,27.1292],[96.2646,27.1268],[96.2628,27.1241],[96.2658,27.1242],[96.2675,27.1142],[96.2641,27.1129],[96.2655,27.1099],[96.2625,27.1087],[96.2599,27.1037],[96.2576,27.1046],[96.2569,27.1022],[96.2549,27.1015],[96.2564,27.0997],[96.2561,27.0931],[96.2583,27.0901],[96.2579,27.0878],[96.2555,27.0871],[96.2544,27.0892],[96.251,27.0895],[96.2499,27.0863],[96.2451,27.0863],[96.2429,27.0821],[96.2345,27.077],[96.2322,27.0688],[96.2292,27.0665],[96.2306,27.0654],[96.2302,27.0621],[96.2239,27.0544],[96.2231,27.0466],[96.2197,27.0383],[96.2283,27.034],[96.2202,27.029],[96.2235,27.0232],[96.2301,27.02],[96.2263,27.0145],[96.2282,27.0089],[96.2252,27.0055],[96.2196,27.0063],[96.2095,26.9985],[96.2036,26.9962],[96.203,26.9939],[96.1998,26.9941],[96.1904,26.9838],[96.1836,26.9826],[96.1854,26.9798],[96.1843,26.9769],[96.1824,26.9769],[96.1812,26.9803],[96.1753,26.9785],[96.1689,26.9789],[96.1689,26.9738],[96.1734,26.9694],[96.1727,26.9672],[96.1745,26.965],[96.1831,26.9591],[96.1901,26.9567],[96.1892,26.9557],[96.1918,26.9551],[96.1939,26.9516],[96.2044,26.9507],[96.2077,26.9484],[96.2052,26.9423],[96.2079,26.94],[96.2073,26.9386],[96.2105,26.9369],[96.2104,26.9351],[96.207,26.9356],[96.2077,26.9321],[96.2046,26.9302],[96.2067,26.9298],[96.2165,26.9349],[96.2095,26.9265],[96.2151,26.9264],[96.2122,26.9239],[96.2153,26.9213],[96.2154,26.9177],[96.2119,26.9071],[96.2131,26.905],[96.2164,26.9048],[96.2162,26.9],[96.2069,26.8884],[96.2041,26.8796],[96.2085,26.8772],[96.2075,26.8734],[96.2103,26.8644],[96.2131,26.8652],[96.2153,26.8616],[96.2081,26.8452],[96.2048,26.8444],[96.2038,26.8358],[96.2059,26.8293],[96.2019,26.8191],[96.2034,26.8045],[96.2066,26.7964],[96.2095,26.797],[96.2066,26.7948],[96.2099,26.7921],[96.204,26.7807],[96.2093,26.779],[96.2091,26.7753],[96.2065,26.7741],[96.2121,26.7705],[96.2094,26.7689],[96.2132,26.7679],[96.2161,26.7655],[96.2148,26.7641],[96.2231,26.7597],[96.2205,26.7579],[96.2212,26.752],[96.2142,26.744],[96.2174,26.7417],[96.2146,26.7375],[96.202,26.7247],[96.1975,26.7247],[96.1909,26.7169],[96.1898,26.7141],[96.1919,26.7064],[96.1972,26.7025]]}},{"type":"Feature","properties":{"Road_Type":"Main","Route":""},"geometry":{"type":"LineString","coordinates":[[95.0916,22.1889],[95.0904,22.1858],[95.0832,22.1837],[95.0885,22.1764],[95.0967,22.1693],[95.1027,22.1471],[95.1071,22.1369],[95.1156,22.1276],[95.1217,22.1178],[95.1255,22.1153],[95.1319,22.1168],[95.1364,22.1155]]}},{"type":"Feature","properties":{"Road_Type":"Main","Route":""},"geometry":{"type":"LineString","coordinates":[[94.9373,21.8476],[94.9357,21.8498],[94.9493,21.885],[94.9673,21.912],[94.9813,21.9199],[94.9842,21.9235],[94.9904,21.9257],[95.0,21.9319],[95.0064,21.9418],[95.0134,21.9459],[95.0204,21.9455],[95.0312,21.9535],[95.0445,21.9553],[95.0712,21.9701],[95.0823,21.9717],[95.0832,21.9805],[95.0967,21.997],[95.1064,22.0196],[95.1119,22.0282],[95.1178,22.0463],[95.1225,22.0709],[95.123,22.0969],[95.1191,22.1023],[95.1139,22.0992],[95.1055,22.0975],[95.1001,22.0924],[95.0734,22.0945]]}},{"type":"Feature","properties":{"Road_Type":"Main","Route":"AH 1"},"geometry":{"type":"LineString","coordinates":[[95.83,22.0063],[95.8266,22.0047],[95.8247,22.0003],[95.8157,21.9958],[95.8079,21.9942],[95.7916,21.9835],[95.7891,21.9814],[95.7856,21.9734],[95.7461,21.9718],[95.7157,21.9821],[95.7113,21.9821],[95.695,21.9959],[95.6897,21.9938],[95.6858,21.9841],[95.6715,21.9795],[95.6419,21.9865],[95.5938,21.9575],[95.5772,21.9219],[95.5641,21.9314],[95.5533,21.9425],[95.549,21.9437],[95.5446,21.9412],[95.5251,21.9434],[95.4938,21.9307],[95.4919,21.9286],[95.4694,21.924],[95.457,21.9283],[95.4319,21.9262],[95.4163,21.9314],[95.407,21.9366],[95.3869,21.9286],[95.373,21.9267],[95.3351,21.9355],[95.2862,21.9553]]}},{"type":"Feature","properties":{"Road_Type":"Main","Route":"AH 1"},"geometry":{"type":"LineString","coordinates":[[95.0088,21.7782],[94.9644,21.8176],[94.9471,21.8435],[94.9373,21.8476],[94.9332,21.8471],[94.9311,21.8494],[94.917,21.873],[94.9072,21.8983],[94.8972,21.9151],[94.8892,21.9243],[94.8773,21.9319],[94.8778,21.9347]]}},{"type":"Feature","properties":{"Road_Type":"Main","Route":""},"geometry":{"type":"LineString","coordinates":[[95.697,22.5712],[95.6969,22.5905],[95.6951,22.5979],[95.6908,22.6091],[95.6882,22.6118],[95.6687,22.6509],[95.6482,22.6966],[95.6421,22.7135],[95.64,22.7398],[95.6365,22.747],[95.6278,22.7854],[95.6017,22.8198],[95.5938,22.8334],[95.5922,22.8457],[95.5866,22.8639],[95.5864,22.8794],[95.5883,22.8926],[95.5842,22.9065],[95.584,22.9248],[95.5816,22.9329],[95.5621,22.932],[95.5612,22.9279],[95.5475,22.9216],[95.5275,22.9054],[95.5168,22.9021],[95.5024,22.9012]]}},{"type":"Feature","properties":{"Road_Type":"Main","Route":""},"geometry":{"type":"LineString","coordinates":[[95.5024,22.9012],[95.4941,22.9011],[95.4925,22.9061],[95.4888,22.9076],[95.4886,22.9094],[95.4864,22.9093],[95.483,22.9142],[95.4811,22.9199],[95.4823,22.9215],[95.4799,22.9249],[95.4718,22.9243],[95.4483,22.9364],[95.4327,22.9397],[95.4281,22.9381],[95.4077,22.9483],[95.3919,22.9454],[95.382,22.9464],[95.3728,22.9453]]}},{"type":"Feature","properties":{"Road_Type":"Main","Route":""},"geometry":{"type":"LineString","coordinates":[[94.1311,23.2325],[94.1346,23.2296],[94.1417,23.23],[94.1463,23.2251],[94.1519,23.224],[94.1561,23.2279],[94.1534,23.234],[94.1559,23.2357],[94.1575,23.2443],[94.1624,23.2462],[94.1712,23.2453],[94.1762,23.2471],[94.1798,23.2444],[94.1827,23.2377],[94.1863,23.2151],[94.185,23.2065],[94.1867,23.2032],[94.1912,23.2025],[94.1942,23.2038],[94.1984,23.202],[94.2059,23.2063],[94.2094,23.202],[94.2129,23.2006],[94.221,23.2008],[94.2228,23.2021],[94.226,23.2003],[94.2381,23.1985],[94.2419,23.1998],[94.2479,23.198],[94.2503,23.1989],[94.2534,23.1959],[94.2602,23.1935],[94.2624,23.1902],[94.2707,23.1923],[94.2735,23.1959],[94.2775,23.1963],[94.281,23.1987],[94.2908,23.1974],[94.2916,23.1996],[94.2945,23.201],[94.2952,23.2112],[94.2993,23.2061],[94.3138,23.2083],[94.3187,23.2123],[94.323,23.2107],[94.3241,23.2087],[94.3237,23.213],[94.3254,23.216],[94.3299,23.2188],[94.3306,23.2137],[94.3316,23.216],[94.3317,23.2112],[94.3328,23.2141],[94.3353,23.2104],[94.3356,23.2125],[94.3384,23.2141],[94.3488,23.2125],[94.3506,23.208],[94.3548,23.2089],[94.372,23.1996],[94.3818,23.1999],[94.3895,23.1981],[94.3934,23.2001],[94.3986,23.1979],[94.4035,23.1997],[94.4063,23.1974],[94.4095,23.1983],[94.4137,23.1971],[94.4143,23.1986],[94.417,23.1988],[94.4238,23.1969],[94.4284,23.1996],[94.4311,23.1983],[94.4345,23.2],[94.4392,23.1991],[94.4416,23.2014],[94.4515,23.1974],[94.4651,23.2001],[94.4759,23.2096],[94.4827,23.2106],[94.4884,23.2161],[94.4922,23.2165],[94.4952,23.2214],[94.5038,23.2271],[94.5223,23.2286],[94.5313,23.2268],[94.5334,23.2224],[94.5387,23.2199],[94.547,23.2095],[94.5525,23.2061],[94.5649,23.2074],[94.5691,23.2064],[94.5748,23.209],[94.5857,23.2046],[94.6012,23.2099],[94.6101,23.2052],[94.6184,23.2039],[94.6305,23.2083],[94.6324,23.2112],[94.6444,23.2159],[94.6624,23.2157],[94.6701,23.2188],[94.6791,23.2249],[94.6802,23.2272],[94.6887,23.2314],[94.7265,23.2318],[94.7442,23.2357],[94.7637,23.2204],[94.7675,23.2196],[94.7713,23.2157],[94.7687,23.214],[94.7759,23.209],[94.7779,23.205],[94.7884,23.1983],[94.7896,23.1945],[94.7837,23.1804],[94.7842,23.1767],[94.7878,23.176],[94.7907,23.171],[94.7908,23.1649],[94.795,23.1627],[94.8047,23.1609],[94.8033,23.1563],[94.8072,23.1512],[94.8153,23.1563],[94.8238,23.1483],[94.8311,23.1464],[94.8333,23.1437],[94.8349,23.1353],[94.8375,23.1331],[94.8366,23.1282],[94.8437,23.1252],[94.845,23.1261],[94.8478,23.1191],[94.8529,23.1169],[94.8547,23.1144],[94.8549,23.1085],[94.8581,23.1066],[94.8686,23.1067],[94.8703,23.1032],[94.8723,23.1037],[94.8756,23.1018],[94.8786,23.0931],[94.8801,23.0922],[94.8792,23.0893],[94.882,23.0872],[94.8831,23.081],[94.8917,23.0671],[94.9256,23.0549],[94.9303,23.0558],[94.9344,23.054],[94.94,23.0558],[94.9437,23.0531],[94.9459,23.0543],[94.9499,23.0526],[94.9528,23.0581],[94.9624,23.0519],[94.9742,23.0552],[94.9881,23.0474],[94.9897,23.043],[94.9877,23.0396],[94.9887,23.0361],[94.9933,23.0335],[94.9964,23.0275],[95.0076,23.0226],[95.0138,23.0237],[95.0253,23.0212],[95.0291,23.0218],[95.0402,23.0165],[95.0458,23.0173],[95.0482,23.0142],[95.055,23.0113],[95.0616,23.0131],[95.0712,23.0194],[95.0845,23.0251],[95.0918,23.0227],[95.0979,23.0238],[95.1052,23.028],[95.1051,23.0192],[95.107,23.0136],[95.1228,22.9975],[95.1582,22.9938],[95.1613,22.9921],[95.1639,22.9947],[95.1725,22.9957],[95.1789,22.9891],[95.1862,22.9705],[95.2051,22.9548],[95.2121,22.9514],[95.218,22.9438],[95.2337,22.9327],[95.2469,22.938],[95.2656,22.9482],[95.2703,22.9492],[95.2822,22.949],[95.2974,22.9447],[95.3095,22.9443],[95.3159,22.9477],[95.3565,22.9482],[95.3728,22.9453]]}},{"type":"Feature","properties":{"Road_Type":"Main","Route":""},"geometry":{"type":"LineString","coordinates":[[95.8729,23.7901],[95.8749,23.7982],[95.8902,23.8127],[95.903,23.8209],[95.9061,23.8254],[95.9081,23.8296],[95.9085,23.8386],[95.9119,23.8525],[95.9156,23.8563],[95.9149,23.8589],[95.9203,23.8781],[95.9201,23.8826],[95.9276,23.8903],[95.9334,23.8914],[95.9365,23.8859],[95.9386,23.8855],[95.9489,23.8905],[95.9549,23.8871],[95.9605,23.89],[95.9691,23.8892],[95.9784,23.8949],[95.9845,23.8912],[95.9903,23.8959],[95.99,23.9043],[95.9971,23.905],[95.998,23.9018],[96.0035,23.9024],[96.0027,23.9048],[96.0067,23.9075],[96.0081,23.9135],[96.0073,23.917],[96.0085,23.9209],[96.0111,23.9214],[96.0094,23.9244],[96.0119,23.9273],[96.016,23.9252],[96.0205,23.9287],[96.0305,23.9266],[96.0437,23.9309],[96.0445,23.9401],[96.0484,23.943],[96.0502,23.953],[96.0509,23.9589],[96.0489,23.9732],[96.0506,23.9873],[96.0541,23.9905],[96.0513,24.006],[96.0427,24.0188],[96.0395,24.0361],[96.0407,24.0416],[96.0481,24.0511],[96.0522,24.061],[96.0515,24.0687],[96.0531,24.0711],[96.0538,24.0791],[96.0528,24.1061],[96.0574,24.115],[96.0597,24.1313],[96.0651,24.1409],[96.0704,24.1426],[96.0712,24.145],[96.0698,24.1477],[96.0724,24.1543],[96.0704,24.1566],[96.0701,24.1616],[96.0775,24.1757],[96.0918,24.1838],[96.1024,24.1811],[96.1066,24.1823],[96.1082,24.186],[96.1118,24.1881],[96.1163,24.1879],[96.1217,24.19],[96.1336,24.2071],[96.1408,24.213],[96.1404,24.2184]]}},{"type":"Feature","properties":{"Road_Type":"Main","Route":"AH 1"},"geometry":{"type":"LineString","coordinates":[[96.0274,21.8601],[96.0174,21.8502],[96.0033,21.8409],[95.9961,21.8397],[95.9887,21.8284],[95.9842,21.8262],[95.9849,21.8215],[95.9787,21.8126]]}},{"type":"Feature","properties":{"Road_Type":"Main","Route":"AH 1"},"geometry":{"type":"LineString","coordinates":[[96.0482,21.8685],[96.0324,21.8647],[96.0274,21.8601]]}},{"type":"Feature","properties":{"Road_Type":"Main","Route":""},"geometry":{"type":"LineString","coordinates":[[96.0029,21.866],[95.9933,21.8516],[95.9955,21.839]]}},{"type":"Feature","properties":{"Road_Type":"Main","Route":""},"geometry":{"type":"LineString","coordinates":[[96.0029,21.866],[96.0429,21.8562]]}},{"type":"Feature","properties":{"Road_Type":"Main","Route":""},"geometry":{"type":"LineString","coordinates":[[95.9753,22.8845],[95.9861,22.8898],[95.9919,22.8907],[95.999,22.8873],[96.0003,22.8891],[96.0023,22.8891],[96.0059,22.8861],[96.0044,22.885],[96.011,22.8824],[96.017,22.8836]]}},{"type":"Feature","properties":{"Road_Type":"Main","Route":""},"geometry":{"type":"LineString","coordinates":[[96.0148,22.7308],[96.0094,22.738],[96.0112,22.7424],[96.0144,22.744],[96.013,22.7453],[96.0145,22.7464],[96.0178,22.7649]]}},{"type":"Feature","properties":{"Road_Type":"Main","Route":"AH 1"},"geometry":{"type":"LineString","coordinates":[[94.0989,22.6482],[94.1013,22.651],[94.0988,22.6602],[94.0893,22.6683],[94.0794,22.6833],[94.0785,22.6965],[94.0828,22.7062],[94.072,22.721],[94.0723,22.7373],[94.0814,22.7571],[94.0814,22.7723],[94.0428,22.7885],[94.0313,22.796],[94.0251,22.7975],[94.0093,22.796],[93.9932,22.8005],[93.9871,22.8035],[93.9833,22.8085],[93.9868,22.8134],[93.9885,22.8232],[93.9976,22.8247],[94.0058,22.8301],[94.0066,22.833],[94.0112,22.8346],[94.0202,22.8428],[94.0229,22.8502],[94.0279,22.8542],[94.0325,22.864],[94.0425,22.8634],[94.0535,22.8738],[94.0526,22.878],[94.0307,22.9129],[94.0328,22.9187],[94.0277,22.9288],[94.0279,22.9368],[94.0262,22.9402],[94.0281,22.9451],[94.0257,22.9525],[94.0219,22.9576],[94.0211,22.9719],[94.0244,22.9876],[94.0227,22.9909],[94.0392,23.0057],[94.0239,23.0475],[94.024,23.0535],[94.017,23.0843],[94.0253,23.12],[94.0307,23.1304],[94.0684,23.1682],[94.0605,23.1889]]}},{"type":"Feature","properties":{"Road_Type":"Main","Route":""},"geometry":{"type":"LineString","coordinates":[[94.0605,23.1889],[94.0178,23.1975],[93.9745,23.2088],[93.9566,23.2169],[93.9517,23.2141],[93.954,23.214],[93.9529,23.2121],[93.9544,23.2103],[93.9465,23.2058],[93.9542,23.2035],[93.9458,23.1999],[93.9466,23.1971],[93.9502,23.1945],[93.9464,23.1907],[93.9438,23.1914],[93.9439,23.1932],[93.9388,23.1978],[93.9366,23.1966],[93.9347,23.199],[93.9328,23.1972],[93.9308,23.1986],[93.9269,23.197],[93.924,23.2],[93.9198,23.2003],[93.9179,23.2024],[93.9139,23.2006],[93.9076,23.201],[93.9057,23.1952],[93.9047,23.1978],[93.9021,23.1989],[93.9014,23.202]]}},{"type":"Feature","properties":{"Road_Type":"Main","Route":"AH 1"},"geometry":{"type":"LineString","coordinates":[[94.8778,21.9347],[94.8248,21.9311],[94.7508,21.9417],[94.7457,21.9396],[94.6957,21.8964],[94.6835,21.8888],[94.677,21.8868],[94.6672,21.8791],[94.6631,21.8784],[94.6521,21.8828],[94.6407,21.8845],[94.636,21.8784],[94.6315,21.8772],[94.624,21.8799],[94.6221,21.8777],[94.6197,21.8807],[94.6181,21.8794],[94.6081,21.8816],[94.607,21.8796],[94.6042,21.8802],[94.6026,21.8757],[94.5964,21.8698],[94.5838,21.8646],[94.5787,21.8649],[94.5751,21.8625],[94.564,21.8673],[94.5596,21.8707],[94.5547,21.8786],[94.549,21.8798],[94.5486,21.8821],[94.5459,21.8802],[94.5323,21.8797],[94.5314,21.8832],[94.5294,21.8838],[94.5296,21.8914],[94.5233,21.8917],[94.5093,21.8985],[94.5075,21.9043],[94.5055,21.9042],[94.5059,21.9074],[94.5038,21.9068],[94.5007,21.9091],[94.4938,21.9069],[94.4897,21.8989],[94.4797,21.8962],[94.4791,21.8942],[94.4755,21.8939],[94.4717,21.8908],[94.4685,21.8914],[94.4675,21.8894],[94.4639,21.888],[94.463,21.8916],[94.459,21.892],[94.4527,21.8889],[94.4507,21.8903],[94.4451,21.8893],[94.4414,21.8843],[94.4417,21.8807],[94.4401,21.8792],[94.4387,21.8848],[94.4367,21.8847],[94.4356,21.8879],[94.4338,21.8848],[94.4328,21.89],[94.4292,21.8873],[94.4272,21.8879],[94.4235,21.8829],[94.4191,21.8822],[94.4183,21.8796],[94.414,21.8788],[94.414,21.8826],[94.4084,21.8826],[94.3988,21.8867],[94.3926,21.8859],[94.3899,21.887],[94.392,21.8938],[94.3876,21.8969],[94.3814,21.8977],[94.3751,21.896],[94.376,21.8989],[94.3741,21.8993],[94.3814,21.9161],[94.3768,21.9209],[94.3734,21.9212],[94.369,21.9251]]}},{"type":"Feature","properties":{"Road_Type":"Main","Route":""},"geometry":{"type":"LineString","coordinates":[[95.3728,22.9453],[95.3775,22.9269],[95.3796,22.9113],[95.3875,22.9],[95.3953,22.8929],[95.4071,22.865],[95.4079,22.8533],[95.4164,22.8237],[95.4194,22.8196],[95.4192,22.8112],[95.4263,22.7725],[95.4297,22.7674]]}},{"type":"Feature","properties":{"Road_Type":"Main","Route":""},"geometry":{"type":"LineString","coordinates":[[96.0376,22.5548],[96.0211,22.552],[96.0113,22.5536],[95.9968,22.548],[95.9903,22.5623],[95.9766,22.5772],[95.9733,22.586],[95.9695,22.5865],[95.9567,22.5789],[95.9542,22.5789],[95.9464,22.5874],[95.9395,22.5923],[95.932,22.5913],[95.9181,22.5942],[95.9147,22.594],[95.9007,22.5872],[95.8901,22.5863],[95.8758,22.5882],[95.8685,22.5844],[95.8613,22.5855],[95.8434,22.5816],[95.8004,22.5782],[95.7908,22.5753],[95.7832,22.5758],[95.7636,22.5727],[95.743,22.5764],[95.7079,22.5707],[95.697,22.5712]]}},{"type":"Feature","properties":{"Road_Type":"Main","Route":""},"geometry":{"type":"LineString","coordinates":[[95.4158,22.7545],[95.4184,22.748],[95.4249,22.7415],[95.4281,22.7404],[95.4395,22.7417],[95.4459,22.7468],[95.4506,22.7472],[95.4538,22.7634],[95.4785,22.7515],[95.492,22.7502],[95.5152,22.7558],[95.5238,22.7554],[95.5365,22.7583],[95.5647,22.7546],[95.6178,22.7667],[95.6214,22.7678],[95.6207,22.7704],[95.631,22.7704]]}},{"type":"Feature","properties":{"Road_Type":"Main","Route":""},"geometry":{"type":"LineString","coordinates":[[95.0734,22.0945],[95.0552,22.0963],[95.0415,22.0946],[95.036,22.0966],[95.0065,22.1008],[94.9945,22.0989],[94.9878,22.095],[94.982,22.0945],[94.9696,22.0849],[94.9632,22.0897],[94.9463,22.0902],[94.9389,22.0882],[94.9271,22.0795],[94.9159,22.079],[94.9087,22.0824],[94.9045,22.0814],[94.9003,22.0824],[94.8993,22.072],[94.8922,22.0526],[94.8972,22.0377],[94.8929,21.9693],[94.8774,21.94],[94.8778,21.9347]]}},{"type":"Feature","properties":{"Road_Type":"Main","Route":""},"geometry":{"type":"LineString","coordinates":[[95.1377,22.1133],[95.1513,22.1221],[95.1549,22.1224],[95.1882,22.1401],[95.2122,22.1556],[95.2226,22.1589],[95.2533,22.163],[95.2644,22.1731],[95.2693,22.1838],[95.2725,22.1874],[95.2818,22.1837],[95.2891,22.1879],[95.2976,22.1847],[95.3015,22.1898],[95.3138,22.1863],[95.3217,22.1983],[95.3197,22.2031],[95.3212,22.2108],[95.3318,22.2134],[95.3375,22.2174],[95.349,22.2189],[95.3577,22.2248],[95.3576,22.2273],[95.3636,22.2386],[95.3679,22.2408],[95.3688,22.2443],[95.3724,22.2459],[95.3752,22.2507],[95.3832,22.2551],[95.3856,22.2604],[95.3978,22.2649],[95.4063,22.2603],[95.4093,22.2609],[95.4139,22.2628],[95.4167,22.2664],[95.4327,22.2734],[95.4523,22.287],[95.4574,22.2861],[95.4689,22.2803],[95.4888,22.2777],[95.4985,22.2748],[95.5357,22.2758],[95.5504,22.2779],[95.5648,22.2876],[95.5731,22.2879],[95.5825,22.2913],[95.5876,22.2945],[95.5912,22.2948],[95.596,22.2994],[95.6177,22.3086],[95.7007,22.3056],[95.7032,22.3068]]}},{"type":"Feature","properties":{"Road_Type":"Main","Route":""},"geometry":{"type":"LineString","coordinates":[[95.83,22.0063],[95.8147,22.0191],[95.8105,22.0244],[95.8077,22.0319],[95.8001,22.0413],[95.7761,22.0651],[95.7715,22.0848],[95.7688,22.1122],[95.7612,22.1343],[95.7651,22.1518],[95.7552,22.1667],[95.7389,22.2025],[95.7358,22.2047],[95.7323,22.2112],[95.7322,22.2523],[95.7344,22.2672],[95.7156,22.2853],[95.7039,22.3062],[95.7004,22.3086],[95.6979,22.3159],[95.6944,22.3406],[95.6853,22.3528],[95.6786,22.3684],[95.6803,22.3752],[95.6726,22.3843],[95.6702,22.3922],[95.6703,22.4379],[95.6718,22.4389],[95.6681,22.4624],[95.6725,22.4819],[95.6759,22.4877],[95.6792,22.5141],[95.6943,22.5542],[95.6944,22.5596],[95.6972,22.56],[95.697,22.5712]]}},{"type":"Feature","properties":{"Road_Type":"Main","Route":""},"geometry":{"type":"LineString","coordinates":[[95.5172,23.2026],[95.5448,23.2008],[95.5571,23.1978],[95.5642,23.1925],[95.5721,23.1913],[95.5785,23.185],[95.5828,23.1832],[95.5907,23.1742],[95.6043,23.1727],[95.6097,23.1676],[95.6129,23.1678],[95.6251,23.1774],[95.631,23.1781],[95.6353,23.1749],[95.6445,23.1764],[95.6562,23.1857],[95.6652,23.1881],[95.681,23.1834],[95.6831,23.1875],[95.6886,23.1812],[95.6955,23.1777],[95.7012,23.1724],[95.7123,23.1694],[95.7136,23.1679],[95.7234,23.1694],[95.7265,23.1676],[95.7297,23.1694],[95.7288,23.174],[95.7326,23.1746],[95.7337,23.1781],[95.7374,23.1788],[95.7388,23.1805],[95.7376,23.1855],[95.7526,23.1888],[95.7557,23.198],[95.7611,23.2],[95.7664,23.1979],[95.7705,23.2005],[95.7721,23.1987],[95.7794,23.1993],[95.7817,23.2172],[95.7894,23.2247],[95.7864,23.2348],[95.7896,23.2415],[95.7945,23.2438],[95.801,23.2395],[95.8042,23.2414],[95.8073,23.2406],[95.8111,23.245],[95.8115,23.2479],[95.8177,23.2543],[95.8179,23.2638],[95.8103,23.2738],[95.8093,23.279],[95.8137,23.2826],[95.8167,23.3059],[95.821,23.3078],[95.8203,23.3112],[95.8219,23.3169],[95.8242,23.3192],[95.821,23.3246],[95.8267,23.3488],[95.8349,23.3568],[95.8341,23.3608],[95.8355,23.3651],[95.8332,23.3687],[95.8395,23.3879],[95.8374,23.3932],[95.8368,23.4042],[95.8343,23.4091],[95.8345,23.4188],[95.8375,23.4311],[95.8419,23.4344],[95.8402,23.4402],[95.8421,23.4431],[95.8399,23.4497],[95.8427,23.4533],[95.8414,23.459],[95.8462,23.4606],[95.8487,23.4714],[95.8615,23.4801],[95.868,23.4902],[95.8749,23.4927],[95.8746,23.4963],[95.877,23.5018],[95.8733,23.5094],[95.8735,23.5179],[95.871,23.5201],[95.869,23.5287],[95.8724,23.5347],[95.8703,23.5408],[95.871,23.5474],[95.8661,23.5519],[95.8657,23.5592],[95.8611,23.5729],[95.8541,23.5772],[95.8437,23.586],[95.8428,23.5884],[95.8358,23.5919],[95.8352,23.5945],[95.8381,23.5985],[95.8368,23.6066],[95.8344,23.6089],[95.8386,23.6227],[95.8384,23.6269],[95.8409,23.6292],[95.8496,23.6599],[95.8512,23.6771],[95.8599,23.6973],[95.8705,23.7333],[95.8706,23.76],[95.8748,23.7709],[95.8747,23.7783],[95.8713,23.7838],[95.8729,23.7901]]}},{"type":"Feature","properties":{"Road_Type":"Main","Route":""},"geometry":{"type":"LineString","coordinates":[[95.6799,23.7899],[95.703,23.7981],[95.7274,23.8004],[95.7313,23.8052],[95.7424,23.8045],[95.7573,23.8106],[95.7693,23.8097],[95.7901,23.811],[95.7954,23.8083],[95.8002,23.8082],[95.809,23.8028],[95.8136,23.803],[95.8238,23.7984],[95.8313,23.8005],[95.8357,23.7999],[95.8376,23.8033],[95.8414,23.804],[95.8537,23.7976],[95.8646,23.7955],[95.8729,23.7901]]}},{"type":"Feature","properties":{"Road_Type":"Main","Route":""},"geometry":{"type":"LineString","coordinates":[[96.1404,24.2184],[96.1542,24.2221],[96.16,24.228],[96.1618,24.2323],[96.1804,24.2338],[96.1875,24.2407],[96.1954,24.2396],[96.1921,24.2532],[96.1918,24.2676],[96.195,24.2809],[96.1923,24.287],[96.1905,24.3021],[96.206,24.329],[96.1964,24.3448],[96.1973,24.3663],[96.1869,24.41],[96.1881,24.4171],[96.184,24.4361],[96.1831,24.4647],[96.1935,24.5245],[96.2005,24.5393],[96.2006,24.5682],[96.202,24.5767],[96.2064,24.5871],[96.2072,24.6005]]}},{"type":"Feature","properties":{"Road_Type":"Main","Route":""},"geometry":{"type":"MultiLineString","coordinates":[[[96.034,23.0745],[96.0235,23.0846],[96.0194,23.0959],[96.0286,23.1267],[96.0316,23.1613]],[[96.0324,23.4672],[96.0332,23.4689],[96.0343,23.4682]],[[96.091,23.5655],[96.0915,23.577],[96.0958,23.5883],[96.096,23.5987],[96.1017,23.6017],[96.109,23.5996],[96.1178,23.601],[96.1218,23.6032],[96.1264,23.6134],[96.1299,23.6164],[96.1322,23.6252],[96.1372,23.6276],[96.145,23.6346],[96.1505,23.6607],[96.1492,23.6649],[96.1506,23.6726],[96.1672,23.6832],[96.171,23.6931],[96.1751,23.6955],[96.1879,23.7123],[96.1913,23.7151],[96.2029,23.7192],[96.2123,23.726],[96.231,23.7256],[96.2358,23.7323],[96.2405,23.7329],[96.2497,23.7376],[96.2531,23.7365],[96.2678,23.7392],[96.2782,23.7442],[96.2794,23.7536],[96.2827,23.7619],[96.2829,23.7809],[96.2856,23.7823],[96.2977,23.7815],[96.3043,23.7881],[96.307,23.7991],[96.3071,23.815],[96.314,23.8233],[96.3188,23.8347],[96.3312,23.8485],[96.332,23.8535],[96.3379,23.8589],[96.3443,23.8708],[96.351,23.8749],[96.3617,23.8867],[96.402,23.8866],[96.4099,23.889],[96.4135,23.8913],[96.4211,23.9025],[96.4246,23.9121],[96.4299,23.9153],[96.4394,23.9149],[96.4469,23.9294],[96.4579,23.9401],[96.4588,23.9481],[96.4691,23.9642],[96.4729,23.9834],[96.4771,23.9909],[96.4719,24.0264],[96.4752,24.0342],[96.48,24.0385],[96.482,24.0476],[96.4904,24.051],[96.5004,24.052],[96.5071,24.0505],[96.5146,24.0546],[96.5158,24.0576],[96.5243,24.0654],[96.532,24.0667],[96.5364,24.0706],[96.544,24.0717],[96.5507,24.0778],[96.5655,24.0795]],[[96.6075,24.0999],[96.6084,24.1063],[96.6029,24.1201],[96.6029,24.133],[96.6094,24.1565],[96.6067,24.1727],[96.6067,24.1825],[96.6115,24.1872],[96.6141,24.1956],[96.618,24.1973],[96.6202,24.2046],[96.6945,24.2049]]]}},{"type":"Feature","properties":{"Road_Type":"Main","Route":""},"geometry":{"type":"LineString","coordinates":[[95.5172,23.2026],[95.5155,23.2043],[95.5144,23.211],[95.5174,23.2226],[95.5192,23.2439],[95.5185,23.2468],[95.5149,23.2476],[95.5141,23.2686],[95.5183,23.2789],[95.5191,23.2852],[95.5238,23.2922],[95.5223,23.2978],[95.5153,23.308],[95.5171,23.3153],[95.5239,23.3225],[95.5275,23.32],[95.5441,23.3379],[95.5445,23.3395],[95.539,23.3429],[95.5387,23.3449],[95.5414,23.3468],[95.5409,23.3524],[95.5422,23.3544],[95.5603,23.3679],[95.5709,23.365],[95.5801,23.3702],[95.5932,23.3926],[95.5966,23.3953],[95.6007,23.4065],[95.6084,23.4184],[95.6264,23.4334],[95.6387,23.4345],[95.6639,23.4611],[95.6664,23.466],[95.6682,23.4801],[95.6675,23.4912],[95.6724,23.514],[95.6745,23.5777],[95.672,23.5863],[95.6873,23.6101],[95.7064,23.6324],[95.7029,23.6372],[95.7029,23.646],[95.6972,23.6562],[95.6961,23.6612],[95.6827,23.6652],[95.6878,23.6783],[95.6876,23.6826],[95.6848,23.6867],[95.6892,23.6927],[95.6933,23.7091],[95.6948,23.7237],[95.6893,23.7499],[95.6848,23.7594],[95.6799,23.7899]]}},{"type":"Feature","properties":{"Road_Type":"Main","Route":""},"geometry":{"type":"LineString","coordinates":[[94.1173,23.2498],[94.1104,23.248],[94.0978,23.2248],[94.0987,23.2219]]}},{"type":"Feature","properties":{"Road_Type":"Main","Route":""},"geometry":{"type":"LineString","coordinates":[[95.0734,22.0945],[95.0673,22.109],[95.0658,22.1163],[95.0621,22.1228],[95.0542,22.1302],[95.0543,22.1411],[95.0575,22.1517],[95.0576,22.1753],[95.0617,22.185],[95.0614,22.1887],[95.066,22.194],[95.072,22.1908],[95.0843,22.1879],[95.0949,22.1895],[95.0898,22.1988],[95.0894,22.2036],[95.0931,22.2079],[95.1216,22.2627],[95.126,22.2639],[95.1292,22.278],[95.1316,22.3144],[95.1288,22.3177],[95.1244,22.3319],[95.125,22.3607],[95.1302,22.3721],[95.1483,22.3883],[95.1681,22.4159],[95.1911,22.4408],[95.2011,22.4989],[95.2093,22.5144],[95.2133,22.5172],[95.2339,22.5458],[95.2438,22.5768],[95.2606,22.5899],[95.2634,22.5965],[95.2624,22.6199],[95.2698,22.6387],[95.2763,22.648],[95.3116,22.6771],[95.3185,22.6851],[95.3405,22.695],[95.3617,22.7174],[95.3752,22.7291],[95.4086,22.7485],[95.4297,22.7674]]}},{"type":"Feature","properties":{"Road_Type":"Main","Route":"AH 1"},"geometry":{"type":"LineString","coordinates":[[94.0605,23.1889],[94.0639,23.1975],[94.0682,23.2018],[94.0972,23.2202],[94.1013,23.2256],[94.1226,23.2285],[94.1249,23.2273],[94.1326,23.2278],[94.1311,23.2325]]}},{"type":"Feature","properties":{"Road_Type":"Main","Route":""},"geometry":{"type":"LineString","coordinates":[[95.5024,22.9012],[95.5033,22.9294],[95.4985,22.9408],[95.4916,22.9423],[95.488,22.9687],[95.4808,22.9681],[95.4821,22.9752],[95.4803,22.978],[95.4884,23.0375],[95.4921,23.0505],[95.4993,23.06],[95.4997,23.0663],[95.4941,23.075],[95.4767,23.0855],[95.4607,23.1061],[95.4517,23.1098],[95.4404,23.1187],[95.4238,23.1375],[95.4182,23.141],[95.4103,23.1547],[95.4483,23.1607],[95.453,23.1671],[95.4571,23.1696],[95.5023,23.196],[95.5168,23.1998],[95.5172,23.2026]]}},{"type":"Feature","properties":{"Road_Type":"Main","Route":""},"geometry":{"type":"LineString","coordinates":[[95.6799,23.7899],[95.6779,23.7896],[95.6761,23.801],[95.6724,23.805],[95.6599,23.8118],[95.657,23.8172],[95.6517,23.8223],[95.6505,23.8264],[95.6444,23.8336],[95.6356,23.8485],[95.6267,23.8504],[95.6107,23.8575],[95.601,23.8557],[95.5832,23.8581],[95.5749,23.8527],[95.5755,23.8512],[95.5705,23.849],[95.5701,23.8474],[95.5678,23.8477],[95.5641,23.8444],[95.5584,23.8433],[95.5532,23.8388],[95.5504,23.8408],[95.5441,23.8391],[95.5323,23.8469],[95.5291,23.8472],[95.5283,23.8459],[95.5253,23.8475],[95.5249,23.8532],[95.5194,23.8682],[95.5159,23.8683],[95.51,23.8752],[95.5008,23.8822],[95.498,23.8874],[95.4965,23.8866],[95.4877,23.8935],[95.4878,23.9015],[95.4857,23.9032],[95.4806,23.9281],[95.4832,23.9288],[95.4832,23.9321],[95.479,23.9354],[95.4796,23.9374],[95.4772,23.9402],[95.48,23.9451],[95.4786,23.9492],[95.4799,23.9519],[95.4769,23.9559],[95.4729,23.9571],[95.4704,23.9602],[95.4722,23.9688],[95.4618,23.9799],[95.4623,23.9861],[95.4675,23.999],[95.4687,24.0082],[95.4675,24.0217],[95.4651,24.0284],[95.4687,24.0374],[95.4673,24.0435],[95.4614,24.0458],[95.4592,24.0445],[95.4565,24.0467],[95.4482,24.0449],[95.4402,24.0489],[95.4314,24.0506],[95.4226,24.0502],[95.4082,24.0571],[95.4048,24.0568],[95.3976,24.0619],[95.3935,24.0609],[95.3916,24.0638],[95.3862,24.0671],[95.3779,24.0672],[95.376,24.0708],[95.373,24.0721],[95.3757,24.0747],[95.3747,24.0793]]}},{"type":"Feature","properties":{"Road_Type":"Main","Route":""},"geometry":{"type":"LineString","coordinates":[[96.1404,24.2184],[96.1352,24.2384],[96.1385,24.2586],[96.133,24.2703],[96.1271,24.2737],[96.1187,24.273],[96.115,24.2742],[96.1093,24.2782],[96.1008,24.2814],[96.0692,24.2845],[96.0628,24.291],[96.0661,24.3092],[96.0603,24.3157],[96.0603,24.3185],[96.0572,24.3241],[96.0503,24.3274],[96.0454,24.326],[96.0088,24.3288],[95.9988,24.3279],[95.9882,24.3307],[95.9791,24.3473],[95.9655,24.3554],[95.9608,24.362],[95.9558,24.3611],[95.9443,24.3651],[95.9384,24.3745],[95.9328,24.377],[95.9283,24.377],[95.9187,24.3746],[95.9142,24.3756],[95.9093,24.3731],[95.909,24.3743],[95.8996,24.377],[95.8902,24.3824],[95.8827,24.3834],[95.8764,24.389],[95.8696,24.3888],[95.8662,24.3914],[95.8641,24.3962],[95.8565,24.399],[95.8514,24.3986],[95.8446,24.4009],[95.8372,24.3972],[95.8233,24.3968],[95.8172,24.3983],[95.8096,24.4032],[95.7978,24.4059],[95.7872,24.4056],[95.7794,24.4028],[95.7732,24.4092],[95.7463,24.4193],[95.7412,24.4258],[95.7362,24.4372],[95.73,24.4456],[95.7258,24.4486],[95.7257,24.4529],[95.7276,24.4556],[95.7269,24.4624],[95.7221,24.4739],[95.7128,24.4896],[95.6993,24.5055],[95.7009,24.5088],[95.6983,24.5103],[95.6922,24.5195],[95.6826,24.5259],[95.6743,24.5257],[95.664,24.5207],[95.6605,24.5221],[95.6514,24.5216],[95.6394,24.5136],[95.6345,24.4906],[95.6271,24.4807],[95.6276,24.4708],[95.6213,24.4628],[95.6206,24.4549],[95.6227,24.4391],[95.62,24.427],[95.6214,24.422],[95.6207,24.415],[95.613,24.4017],[95.6052,24.399],[95.6048,24.3956],[95.5979,24.3885],[95.5932,24.3755],[95.5948,24.3672],[95.587,24.3616],[95.5814,24.3474],[95.5686,24.3333],[95.5652,24.3318],[95.5596,24.3204],[95.5532,24.3162],[95.5487,24.3098],[95.5468,24.3024],[95.5434,24.3002],[95.5473,24.2904],[95.5455,24.2866],[95.5461,24.2773],[95.5412,24.2673],[95.5427,24.2612],[95.5345,24.2586],[95.5321,24.2503],[95.5261,24.2454],[95.5233,24.2452],[95.5197,24.2415],[95.5069,24.2395],[95.494,24.2291],[95.4864,24.2124],[95.4872,24.2077],[95.4858,24.2014],[95.4743,24.1872],[95.4658,24.1844],[95.4629,24.1825],[95.4604,24.1777],[95.4553,24.1765],[95.4489,24.1706],[95.4319,24.1653],[95.4286,24.1598],[95.4292,24.1538],[95.4223,24.1472],[95.4235,24.1431],[95.4199,24.1428],[95.4092,24.1332],[95.4067,24.1256],[95.3995,24.1248],[95.3967,24.1224],[95.3925,24.1143],[95.3921,24.109],[95.3866,24.1036],[95.384,24.0966],[95.3807,24.0931],[95.3773,24.0938],[95.376,24.0923],[95.3747,24.0793]]}},{"type":"Feature","properties":{"Road_Type":"Secondary","Route":""},"geometry":{"type":"LineString","coordinates":[[95.2181,21.8058],[95.2389,21.7892],[95.2492,21.7852],[95.2529,21.7865],[95.2624,21.7854],[95.3124,21.7756],[95.317,21.777],[95.3179,21.7745],[95.3269,21.7733],[95.3431,21.7653],[95.3506,21.7663],[95.3518,21.77],[95.349,21.784],[95.3616,21.7902],[95.3732,21.8056],[95.3726,21.812],[95.3906,21.8142],[95.4073,21.8136],[95.4207,21.827],[95.4216,21.8354],[95.426,21.8354],[95.4273,21.8431],[95.4307,21.8497],[95.4362,21.8521],[95.4389,21.8551],[95.4394,21.8597],[95.4447,21.8707],[95.4534,21.8781],[95.4598,21.8973],[95.4585,21.918],[95.4606,21.922],[95.4662,21.9251]]}},{"type":"Feature","properties":{"Road_Type":"Secondary","Route":""},"geometry":{"type":"LineString","coordinates":[[94.895,22.2868],[94.9013,22.3012],[94.9003,22.3067],[94.8956,22.3149],[94.8963,22.3238],[94.9001,22.3381],[94.9,22.3494],[94.8969,22.362],[94.8982,22.3707],[94.9056,22.38],[94.9067,22.3877],[94.8985,22.3957],[94.8937,22.4055],[94.8864,22.4145],[94.8813,22.4198],[94.8698,22.4272],[94.8607,22.4219],[94.8566,22.4215],[94.8517,22.4271],[94.8431,22.4278],[94.8362,22.4261],[94.828,22.4165],[94.8155,22.4135],[94.8044,22.4051],[94.7936,22.4054],[94.7851,22.4038],[94.7591,22.4084],[94.7413,22.4227],[94.7368,22.4309],[94.7356,22.4376],[94.731,22.4401],[94.7317,22.4451],[94.7269,22.4528],[94.7284,22.4561],[94.7259,22.4585],[94.7265,22.4622],[94.7235,22.4736],[94.718,22.4763],[94.7186,22.4805],[94.7163,22.4862],[94.7142,22.4881],[94.711,22.4882],[94.7063,22.4924],[94.7005,22.492],[94.6993,22.495],[94.6956,22.4954],[94.6903,22.4993],[94.6884,22.5022],[94.6883,22.5087],[94.6795,22.518],[94.6796,22.5288],[94.6714,22.5403],[94.6664,22.5432],[94.6642,22.5506],[94.661,22.5514],[94.6579,22.5545],[94.6586,22.5557],[94.657,22.5578],[94.6573,22.5605],[94.6592,22.5612],[94.6585,22.5656],[94.663,22.5689],[94.6617,22.5732],[94.6655,22.5834],[94.6648,22.5907],[94.6687,22.5935],[94.6692,22.6002],[94.6733,22.6034],[94.6716,22.6086],[94.6744,22.6136],[94.6741,22.6247],[94.6757,22.6277],[94.6799,22.6295],[94.6791,22.6325],[94.6808,22.6337],[94.6795,22.6368],[94.6829,22.6401],[94.6851,22.6484],[94.6882,22.6523],[94.6898,22.6625],[94.6889,22.664],[94.6901,22.6679],[94.6929,22.6697],[94.6914,22.6744],[94.6941,22.6864],[94.6939,22.6925],[94.6972,22.696],[94.6949,22.6985],[94.6962,22.7005],[94.6948,22.7078],[94.6991,22.715],[94.6929,22.718],[94.6937,22.7218],[94.6911,22.725],[94.6925,22.7334],[94.6909,22.7345],[94.6854,22.7487],[94.6902,22.7604],[94.6908,22.7672],[94.6883,22.7705],[94.6878,22.775],[94.6838,22.7782],[94.6787,22.7781],[94.676,22.78],[94.6753,22.7888],[94.6761,22.8212],[94.6793,22.8253],[94.6948,22.8321],[94.696,22.8357]]}},{"type":"Feature","properties":{"Road_Type":"Secondary","Route":""},"geometry":{"type":"LineString","coordinates":[[95.6823,21.8703],[95.6834,21.8837],[95.6874,21.8954],[95.7091,21.8909],[95.7138,21.8937],[95.7264,21.8961],[95.7428,21.9022],[95.7533,21.9079],[95.7634,21.9059],[95.7643,21.9077],[95.772,21.9094],[95.7742,21.9075],[95.7868,21.9055],[95.7956,21.9004],[95.8142,21.8932],[95.8219,21.896],[95.8282,21.8939],[95.8375,21.8939],[95.8445,21.8893],[95.8464,21.8852],[95.8545,21.8786],[95.8589,21.863],[95.8671,21.851],[95.873,21.8452],[95.8977,21.8344],[95.9121,21.8317],[95.9344,21.8242],[95.9454,21.8178],[95.9486,21.8122]]}},{"type":"Feature","properties":{"Road_Type":"Secondary","Route":""},"geometry":{"type":"MultiLineString","coordinates":[[[94.2949,23.2111],[94.2956,23.2266],[94.2996,23.2377],[94.2997,23.2482],[94.3035,23.2491],[94.3063,23.2612],[94.3037,23.2712],[94.3066,23.2742],[94.3065,23.2786],[94.3088,23.2814],[94.311,23.2949],[94.3088,23.2983],[94.3097,23.3036],[94.3087,23.3063],[94.3098,23.3077],[94.3083,23.3123],[94.3096,23.3192],[94.3128,23.3218],[94.3154,23.3407],[94.3184,23.3427],[94.3177,23.351],[94.322,23.3694],[94.3158,23.3702],[94.3172,23.3787],[94.3203,23.3841],[94.3199,23.3981],[94.326,23.4271],[94.3379,23.4534],[94.3374,23.4564],[94.3393,23.4567],[94.3433,23.4648],[94.3548,23.4786],[94.3663,23.4894],[94.3726,23.489],[94.3766,23.4908],[94.3776,23.4935],[94.3808,23.4939],[94.3801,23.5007],[94.3822,23.507],[94.3962,23.5206],[94.4006,23.5272],[94.4043,23.5276],[94.4073,23.5316],[94.4119,23.5328],[94.4178,23.5398],[94.4164,23.5441],[94.414,23.5457],[94.4186,23.5562],[94.4216,23.5719]],[[94.4216,23.5719],[94.4205,23.5857],[94.4185,23.5905]],[[94.4216,23.5719],[94.4203,23.5903],[94.4185,23.5905]],[[94.126,23.5773],[94.1283,23.5857],[94.1345,23.5979],[94.1419,23.6036],[94.1487,23.613],[94.1561,23.6134],[94.1566,23.6198],[94.1688,23.6288],[94.1743,23.6391],[94.182,23.6389],[94.1828,23.6416],[94.1878,23.6419],[94.1943,23.6354],[94.2061,23.6304],[94.2152,23.6378],[94.2214,23.6333],[94.2243,23.6323],[94.2282,23.6333],[94.2309,23.6306],[94.2355,23.6311],[94.2437,23.6361],[94.2409,23.6279],[94.243,23.6265],[94.2443,23.6319],[94.2474,23.6351],[94.2572,23.6404],[94.2598,23.6378],[94.258,23.6349],[94.2607,23.6337],[94.2699,23.6361],[94.2711,23.6328],[94.2776,23.6322],[94.2845,23.6367],[94.2881,23.6361],[94.2931,23.6383],[94.2972,23.6354],[94.3,23.6362],[94.3028,23.6328],[94.3056,23.6333],[94.3066,23.6311],[94.3114,23.6309],[94.3133,23.6277],[94.3168,23.6281],[94.3196,23.6313],[94.3214,23.6297],[94.3237,23.6332],[94.3257,23.633],[94.3279,23.6295],[94.3303,23.63],[94.3309,23.6319],[94.3342,23.6297],[94.3344,23.6415],[94.3356,23.6393],[94.342,23.6385],[94.3426,23.6366],[94.3438,23.6407],[94.3454,23.6407],[94.3466,23.6371],[94.3479,23.6379],[94.3493,23.636],[94.3498,23.6419],[94.3522,23.6424],[94.3539,23.6404],[94.3595,23.6412],[94.361,23.6436],[94.3604,23.646],[94.3673,23.6511],[94.3696,23.6512],[94.3707,23.6547],[94.3758,23.6553],[94.3864,23.6628],[94.3898,23.6588],[94.3943,23.6597],[94.3951,23.6536],[94.4068,23.6425],[94.4086,23.6425],[94.4112,23.638],[94.4125,23.6328],[94.4072,23.6352],[94.404,23.6338],[94.4017,23.6272],[94.4052,23.6176],[94.4108,23.6139],[94.4133,23.6075],[94.416,23.6067],[94.4191,23.5951],[94.4177,23.5927],[94.4185,23.5905]]]}},{"type":"Feature","properties":{"Road_Type":"Secondary","Route":""},"geometry":{"type":"LineString","coordinates":[[95.5942,21.9577],[95.5939,21.9724],[95.5891,21.9855],[95.5876,21.9951],[95.5772,22.0111],[95.5732,22.0145],[95.5687,22.0384],[95.5553,22.0703],[95.5502,22.0822],[95.5331,22.1079],[95.5311,22.1165],[95.5274,22.123],[95.5264,22.1307],[95.5211,22.1444],[95.5225,22.1474],[95.5212,22.1545],[95.5239,22.1607],[95.5243,22.169],[95.5093,22.1867],[95.5049,22.1969],[95.5048,22.2013],[95.4965,22.2169],[95.478,22.2291],[95.4655,22.2328],[95.4548,22.256],[95.4492,22.2857]]}},{"type":"Feature","properties":{"Road_Type":"Secondary","Route":""},"geometry":{"type":"LineString","coordinates":[[95.4492,22.2857],[95.4527,22.2922],[95.4542,22.2995],[95.4542,22.3155],[95.4522,22.3381],[95.4479,22.3509],[95.4486,22.3672],[95.4409,22.3816],[95.4361,22.3885],[95.4275,22.3956],[95.3918,22.4195],[95.3839,22.4217],[95.37,22.4209],[95.3669,22.4275],[95.3631,22.4304],[95.3389,22.463]]}},{"type":"Feature","properties":{"Road_Type":"Secondary","Route":""},"geometry":{"type":"LineString","coordinates":[[95.2096,21.6373],[95.2152,21.642]]}},{"type":"Feature","properties":{"Road_Type":"Main","Route":"AH 1"},"geometry":{"type":"MultiLineString","coordinates":[[[95.1794,21.8095],[95.1675,21.8017]],[[95.1759,21.7],[95.1872,21.7283],[95.1852,21.7384],[95.1891,21.7486],[95.187,21.754],[95.1732,21.7693],[95.1628,21.7948],[95.163,21.798],[95.19,21.8164],[95.1947,21.815],[95.2088,21.8051],[95.2171,21.8048],[95.2459,21.8327],[95.2544,21.8472]],[[95.2545,21.8473],[95.2843,21.9044],[95.2873,21.935],[95.2862,21.9553]]]}},{"type":"Feature","properties":{"Road_Type":"Secondary","Route":""},"geometry":{"type":"LineString","coordinates":[[95.6971,22.5682],[95.6927,22.5677],[95.6916,22.5635],[95.6748,22.5624],[95.6666,22.5576],[95.6329,22.5484],[95.6141,22.5471],[95.589,22.5483],[95.5665,22.543],[95.5604,22.5385],[95.527,22.5258],[95.5102,22.5226],[95.5018,22.5177],[95.4891,22.5176],[95.4691,22.5114],[95.4613,22.5074],[95.4581,22.5075],[95.4423,22.4968],[95.4343,22.5002],[95.4204,22.5025],[95.4035,22.4969],[95.3973,22.4878],[95.3863,22.4849],[95.3769,22.4762],[95.3716,22.4764],[95.3704,22.4732],[95.3588,22.4672],[95.3415,22.4644],[95.2988,22.449],[95.2846,22.4508],[95.2641,22.447],[95.254,22.4395],[95.2391,22.4332],[95.234,22.4332],[95.2157,22.4425],[95.1997,22.4419],[95.1974,22.4439],[95.1912,22.4411]]}},{"type":"Feature","properties":{"Road_Type":"Secondary","Route":""},"geometry":{"type":"MultiLineString","coordinates":[[[94.6015,23.884],[94.5925,23.8817],[94.587,23.8759],[94.5799,23.8729],[94.5767,23.8686],[94.5738,23.8669],[94.5704,23.868],[94.5675,23.8621],[94.5622,23.8619],[94.5601,23.8584],[94.5604,23.8551],[94.5561,23.8486],[94.5587,23.8472],[94.5667,23.8473],[94.5691,23.8422],[94.5724,23.8409],[94.5681,23.8349],[94.5661,23.8267],[94.5701,23.8144],[94.5643,23.8091],[94.5662,23.8049],[94.5627,23.7989],[94.5549,23.7918],[94.5479,23.7896],[94.5447,23.7854],[94.5347,23.7852],[94.5272,23.7892],[94.5226,23.7872],[94.5189,23.7884],[94.5166,23.7829],[94.5113,23.7836],[94.5076,23.7787],[94.5002,23.7784],[94.5003,23.7796],[94.4942,23.7751],[94.4934,23.7723],[94.4854,23.7653],[94.484,23.7596],[94.4856,23.7556],[94.4824,23.7499],[94.4827,23.7412],[94.4793,23.7334],[94.4746,23.7302],[94.4695,23.732],[94.4655,23.7278],[94.4633,23.7279],[94.46,23.7159],[94.4645,23.6968],[94.4696,23.6924],[94.4705,23.6837],[94.4761,23.6785],[94.4795,23.6781],[94.4807,23.6755],[94.4852,23.6751],[94.4854,23.6657],[94.4902,23.6617],[94.4908,23.6547],[94.4959,23.6491],[94.4948,23.6457],[94.4906,23.6442],[94.4866,23.6344],[94.4806,23.6294],[94.4861,23.6213],[94.4853,23.6148],[94.4866,23.6145],[94.4875,23.6081],[94.5003,23.6011],[94.4986,23.5936],[94.5,23.5796],[94.507,23.5697],[94.5205,23.5587],[94.5213,23.5554],[94.5238,23.5535],[94.5225,23.5499],[94.5267,23.5499],[94.5279,23.5465],[94.5381,23.5427],[94.5436,23.5422],[94.552,23.5445],[94.5533,23.5425],[94.558,23.5417],[94.558,23.5397],[94.5634,23.5356],[94.5652,23.5366],[94.5647,23.5321],[94.5736,23.5245],[94.5725,23.5217],[94.5749,23.5182],[94.5707,23.5111],[94.5734,23.5079],[94.5899,23.5072],[94.595,23.5008],[94.5979,23.5003],[94.6009,23.4972],[94.6092,23.4952],[94.6102,23.4878],[94.6207,23.4786],[94.6192,23.472],[94.6265,23.4708],[94.628,23.4655],[94.6328,23.4611],[94.6318,23.457],[94.6339,23.4517],[94.6331,23.4487],[94.637,23.4448],[94.6407,23.4439],[94.6395,23.4394],[94.6429,23.4357],[94.6403,23.4312],[94.6418,23.4301],[94.6445,23.42],[94.6471,23.4198],[94.6485,23.4178],[94.6494,23.4122],[94.6471,23.406],[94.6445,23.405],[94.6447,23.3994],[94.647,23.3951],[94.6461,23.3924],[94.6493,23.3886],[94.6505,23.3829],[94.6495,23.3819],[94.6527,23.3756],[94.652,23.3745],[94.6545,23.373],[94.6564,23.3688],[94.6527,23.3627],[94.654,23.3573],[94.6585,23.3533],[94.6586,23.3499],[94.6612,23.3488],[94.6606,23.3455],[94.6623,23.3424],[94.6686,23.3411],[94.6711,23.3344],[94.684,23.3255],[94.6946,23.3102],[94.6943,23.3056],[94.6732,23.2909],[94.6687,23.2799],[94.6537,23.2608],[94.647,23.2483],[94.6378,23.2428],[94.6281,23.2424],[94.625,23.2401],[94.6234,23.2374],[94.6239,23.2321],[94.6106,23.2224],[94.6054,23.2147],[94.5975,23.211],[94.5968,23.2086]],[[94.6017,23.8841],[94.6092,23.8822],[94.6114,23.884],[94.6127,23.8808],[94.6157,23.8834],[94.6241,23.8843],[94.6258,23.8858],[94.6261,23.8841],[94.6274,23.8855],[94.6274,23.8828],[94.63,23.8831],[94.6302,23.8802],[94.6329,23.8808],[94.6352,23.8768],[94.6401,23.8769],[94.6414,23.8695],[94.6445,23.8664],[94.6442,23.8648],[94.6481,23.8686],[94.6497,23.8654],[94.6553,23.8622],[94.6564,23.8555],[94.6619,23.8515],[94.6737,23.8618],[94.6881,23.8675],[94.6896,23.8772],[94.692,23.8781],[94.6947,23.8832],[94.7073,23.891],[94.7125,23.8993],[94.716,23.8964],[94.726,23.898],[94.7248,23.9001],[94.7282,23.9077],[94.7408,23.9128],[94.7462,23.9175],[94.757,23.9213],[94.7723,23.931],[94.776,23.9315],[94.7802,23.937],[94.7855,23.9391],[94.7876,23.9473],[94.7792,23.9595],[94.7785,23.9664],[94.7745,23.9682],[94.7711,23.9757],[94.7728,23.9793],[94.7897,23.9851],[94.786,23.9983],[94.7863,24.0101],[94.7841,24.0174],[94.7901,24.0282],[94.7898,24.0322],[94.7966,24.0389],[94.8003,24.0364],[94.8121,24.0418],[94.814,24.0449],[94.8117,24.0513],[94.8133,24.0551],[94.8218,24.0641],[94.8187,24.0684],[94.8237,24.0725],[94.8309,24.0745],[94.83,24.0787],[94.8345,24.08],[94.8373,24.0786],[94.8451,24.0806],[94.8463,24.0938],[94.8434,24.0975],[94.8441,24.1],[94.8481,24.1027],[94.868,24.1042],[94.8705,24.1072],[94.8717,24.1128],[94.8702,24.1153],[94.8669,24.1158],[94.8662,24.1214],[94.863,24.1274],[94.8547,24.1326],[94.8559,24.139],[94.8543,24.1438],[94.8566,24.1518],[94.855,24.1541],[94.8521,24.1548],[94.8531,24.1568],[94.8498,24.1618],[94.8493,24.1662]],[[94.8492,24.1665],[94.8367,24.1736],[94.8331,24.1786],[94.8191,24.1906],[94.8199,24.199],[94.8103,24.2084],[94.81,24.2121],[94.8066,24.2145],[94.8045,24.2265],[94.8141,24.2378],[94.8166,24.2459],[94.815,24.2655],[94.8119,24.2693]],[[94.8152,24.2655],[94.8178,24.2677],[94.8283,24.2663],[94.8282,24.2684],[94.8323,24.2722],[94.832,24.2756],[94.8555,24.2919],[94.8572,24.2941],[94.8565,24.2959],[94.8631,24.2981],[94.8628,24.3]],[[94.8629,24.3003],[94.8596,24.3059],[94.8603,24.3084],[94.8684,24.3176],[94.8734,24.3197],[94.8771,24.3257],[94.8862,24.3349],[94.886,24.3387],[94.8906,24.3435],[94.8989,24.3672],[94.8962,24.3735],[94.8986,24.3832],[94.8982,24.3874],[94.9051,24.386],[94.9072,24.3873],[94.9128,24.396],[94.9185,24.4139],[94.9162,24.421],[94.9208,24.4264],[94.9292,24.4282],[94.9402,24.4364],[94.9447,24.4376],[94.9448,24.4443],[94.9496,24.4454],[94.9528,24.4491],[94.9535,24.4546],[94.9602,24.4592],[94.962,24.4631],[94.9653,24.465],[94.9871,24.4664],[94.9911,24.4676],[94.9947,24.4726],[94.9947,24.4832],[94.9979,24.4867],[94.9957,24.4953],[95.0005,24.5059],[94.997,24.5135],[94.9996,24.5163],[94.9986,24.5188],[95.004,24.5243],[95.0109,24.5274],[95.0097,24.5367],[95.0133,24.5499],[95.0042,24.5679],[94.9923,24.577],[94.992,24.5825],[94.9885,24.5856],[94.9885,24.5882],[94.9916,24.5878],[94.9953,24.5935],[95.0053,24.6004],[95.0111,24.5988],[95.0246,24.6045],[95.0484,24.6076],[95.051,24.6095],[95.0514,24.6129],[95.0491,24.6209],[95.0524,24.6262],[95.055,24.6357],[95.0643,24.649],[95.0605,24.6607],[95.0641,24.6709],[95.0698,24.6757],[95.0774,24.6871],[95.0855,24.6892],[95.0871,24.6921],[95.0869,24.6987],[95.0993,24.7018],[95.0997,24.7035],[95.0921,24.7161],[95.0798,24.7242],[95.0776,24.7268],[95.0767,24.7328],[95.0721,24.7392],[95.0619,24.7461],[95.0612,24.7489],[95.0487,24.7635],[95.05,24.7645],[95.0483,24.7665],[95.051,24.7697],[95.0517,24.7782],[95.0554,24.7816],[95.0557,24.7887],[95.0599,24.7951],[95.065,24.8118],[95.0619,24.8228],[95.0671,24.8298],[95.0643,24.8353],[95.0647,24.8409],[95.0686,24.8485],[95.0778,24.8535],[95.0774,24.8565],[95.0704,24.8596],[95.0526,24.8567],[95.0451,24.8571],[95.0324,24.8649],[95.01,24.8672],[95.0099,24.8696],[94.9918,24.8665],[94.9808,24.8684],[94.978,24.8712],[94.9787,24.875],[94.9743,24.8813]],[[94.9742,24.8816],[94.9762,24.8876],[94.9688,24.9012],[94.972,24.9134],[94.966,24.9266],[94.9507,24.9175],[94.9471,24.9136],[94.9416,24.9134],[94.9412,24.9107],[94.9373,24.9091],[94.9346,24.8983],[94.9364,24.8952],[94.9364,24.8885],[94.9338,24.8865],[94.9336,24.8782],[94.9297,24.8739],[94.924,24.872],[94.9232,24.8655]]]}},{"type":"Feature","properties":{"Road_Type":"Secondary","Route":""},"geometry":{"type":"LineString","coordinates":[[95.2923,25.3272],[95.2881,25.3336],[95.2728,25.3336],[95.2669,25.3357],[95.2576,25.3323],[95.2462,25.3361],[95.2348,25.3691],[95.2297,25.3695],[95.2157,25.3624],[95.2064,25.3636],[95.2069,25.3717],[95.1921,25.3797],[95.1895,25.3835],[95.1904,25.411],[95.1806,25.419],[95.1794,25.4228],[95.1802,25.4279],[95.1713,25.4317],[95.1679,25.4393],[95.1629,25.4385],[95.1544,25.441],[95.1498,25.4508],[95.1434,25.4529],[95.1117,25.4469],[95.096,25.4491],[95.088,25.4486],[95.085,25.4457],[95.0702,25.4448],[95.0652,25.4372],[95.0592,25.4216],[95.0563,25.4195],[95.0491,25.4211],[95.0436,25.4199],[95.0351,25.4224],[95.0263,25.4182],[95.0161,25.4245],[95.0131,25.4406],[95.0034,25.4444],[95.0021,25.4478],[94.9979,25.4495],[94.9962,25.4533],[94.9916,25.4567],[94.9916,25.4495],[94.9886,25.4512],[94.9861,25.4491],[94.9624,25.4508],[94.9592,25.4493],[94.9547,25.4438],[94.9536,25.4454],[94.9509,25.4454]]}},{"type":"Feature","properties":{"Road_Type":"Secondary","Route":""},"geometry":{"type":"LineString","coordinates":[[94.5408,22.8525],[94.533,22.8523],[94.5275,22.8547],[94.5209,22.8604],[94.5175,22.8583],[94.5104,22.8629],[94.5068,22.8615],[94.5009,22.8618],[94.4963,22.8644]]}},{"type":"Feature","properties":{"Road_Type":"Secondary","Route":""},"geometry":{"type":"LineString","coordinates":[[94.5323,22.8532],[94.5348,22.8472],[94.5406,22.8456]]}},{"type":"Feature","properties":{"Road_Type":"Secondary","Route":""},"geometry":{"type":"LineString","coordinates":[[94.3824,22.9297],[94.3804,22.9353],[94.3744,22.9401],[94.3648,22.9316],[94.3577,22.9309],[94.3505,22.925],[94.3417,22.9282],[94.3384,22.9258],[94.3393,22.9275],[94.3371,22.928],[94.3366,22.9304],[94.3392,22.9316],[94.3372,22.9325],[94.3363,22.9399],[94.3322,22.9362],[94.3306,22.9316],[94.331,22.917],[94.3254,22.9119]]}},{"type":"Feature","properties":{"Road_Type":"Secondary","Route":""},"geometry":{"type":"LineString","coordinates":[[95.8026,26.8269],[95.8026,26.8193],[95.7974,26.8144],[95.7977,26.8097],[95.7912,26.8021],[95.7897,26.7939],[95.7936,26.7807],[95.787,26.765],[95.7818,26.7595],[95.7789,26.7525],[95.7796,26.7449],[95.7771,26.742],[95.7799,26.7347],[95.7769,26.7314],[95.7781,26.7279],[95.7769,26.7238],[95.7738,26.7205],[95.7716,26.714],[95.7616,26.7027],[95.7617,26.7055],[95.7589,26.7048],[95.7587,26.7024],[95.7577,26.7037],[95.7554,26.7031],[95.7544,26.6943],[95.7461,26.6815],[95.7438,26.6749],[95.7449,26.6676],[95.7491,26.6615],[95.7475,26.6553],[95.7487,26.6494],[95.7469,26.6456],[95.7446,26.643],[95.7418,26.6435],[95.74,26.6414],[95.7408,26.6398],[95.7395,26.6405],[95.7394,26.6386],[95.7319,26.6343],[95.7316,26.6327],[95.7343,26.6301],[95.731,26.6321],[95.7264,26.6314],[95.7194,26.6271],[95.7169,26.6273],[95.712,26.6233],[95.7064,26.6229],[95.7063,26.6204],[95.7007,26.6188],[95.6988,26.6152],[95.6993,26.6061],[95.6957,26.6021],[95.6967,26.5981],[95.6941,26.5969],[95.6958,26.5934],[95.6939,26.5907],[95.6958,26.5877],[95.6931,26.5837],[95.6924,26.5787],[95.6873,26.5738],[95.6835,26.5756],[95.6832,26.5776],[95.6781,26.5816],[95.676,26.5796],[95.6753,26.5827],[95.6718,26.5793],[95.6663,26.5771],[95.6669,26.5789],[95.6592,26.5742],[95.6549,26.5739],[95.6459,26.5696],[95.6394,26.5688],[95.6359,26.5709],[95.6324,26.5705],[95.6303,26.5746],[95.631,26.576],[95.6296,26.5756],[95.6229,26.5666],[95.6147,26.5649],[95.6104,26.5599],[95.6037,26.5589],[95.6018,26.5529],[95.5974,26.5531],[95.5945,26.546],[95.5913,26.5425],[95.5938,26.5397],[95.5942,26.5361],[95.5911,26.5246],[95.5842,26.5171],[95.5716,26.5151],[95.5627,26.5115],[95.5579,26.5145],[95.5549,26.5129],[95.5543,26.5165],[95.5514,26.5147],[95.5508,26.517],[95.5454,26.5168],[95.544,26.5133],[95.5307,26.508],[95.53,26.5041],[95.5273,26.502],[95.5311,26.4992],[95.53,26.496],[95.5314,26.4925],[95.5354,26.4904],[95.5351,26.4877],[95.5364,26.4874],[95.5344,26.4851],[95.5362,26.4805],[95.5372,26.4815],[95.5385,26.4799],[95.5361,26.4779],[95.5352,26.4757],[95.5367,26.477],[95.5361,26.476],[95.5402,26.4735],[95.5395,26.4711],[95.542,26.4702],[95.5404,26.4702],[95.5301,26.4492],[95.5283,26.4494],[95.5246,26.4428],[95.5225,26.4429],[95.5248,26.4409],[95.5188,26.4313],[95.5186,26.4287],[95.515,26.4279],[95.5087,26.4199],[95.4998,26.4165],[95.4951,26.4118],[95.4922,26.4118],[95.4917,26.4101],[95.4877,26.4084],[95.4831,26.4093],[95.4793,26.4054],[95.4745,26.4043],[95.4661,26.3974],[95.4622,26.3963],[95.4616,26.3923],[95.4566,26.3856],[95.4563,26.3807],[95.4531,26.3759],[95.4525,26.3681],[95.4482,26.3622],[95.4465,26.3555],[95.4498,26.3463],[95.4449,26.3443],[95.4463,26.3432],[95.445,26.3407],[95.4479,26.3393],[95.4458,26.3375],[95.4457,26.3352],[95.4482,26.3351],[95.4471,26.3339],[95.4485,26.3324],[95.4469,26.3327],[95.4411,26.3271],[95.443,26.3253],[95.4489,26.3268],[95.4481,26.3256],[95.4523,26.3248],[95.4476,26.3184],[95.4466,26.3145],[95.4415,26.311],[95.4415,26.3092],[95.4445,26.309],[95.4418,26.2989],[95.4458,26.2971],[95.445,26.2888],[95.4465,26.2842],[95.4414,26.2803],[95.4413,26.2774],[95.4463,26.2725],[95.4449,26.2686],[95.4484,26.2665],[95.4524,26.2666],[95.4529,26.2585],[95.4512,26.257],[95.4515,26.2532],[95.4539,26.2517],[95.4537,26.2457],[95.4508,26.2331],[95.4541,26.235],[95.455,26.2327],[95.4537,26.2319],[95.4534,26.2313],[95.4578,26.2308],[95.4552,26.229],[95.4587,26.2296],[95.457,26.2277],[95.4645,26.2297],[95.4636,26.2274],[95.4657,26.2288],[95.4623,26.2246],[95.4643,26.2255],[95.4652,26.2243],[95.4616,26.2179],[95.4631,26.215],[95.4717,26.2113],[95.4707,26.2094],[95.4747,26.2069],[95.4817,26.2076],[95.4858,26.2059],[95.4902,26.2022],[95.4892,26.2005],[95.4927,26.1949],[95.4978,26.193],[95.4975,26.1901],[95.5015,26.1885],[95.504,26.1838],[95.5085,26.1834],[95.5106,26.1781],[95.5088,26.171],[95.5129,26.1707],[95.5129,26.1681],[95.5157,26.1694],[95.5136,26.1653],[95.5166,26.1648],[95.5171,26.1619],[95.5209,26.1621],[95.5196,26.1602],[95.5216,26.1556],[95.5183,26.1532],[95.5177,26.1508],[95.5196,26.147],[95.5166,26.1417],[95.5164,26.1389],[95.5193,26.1373],[95.5186,26.1355],[95.5213,26.1329],[95.5207,26.1349],[95.5227,26.1337],[95.5246,26.1353],[95.5241,26.1371],[95.5261,26.1379],[95.5261,26.1355],[95.5299,26.1372],[95.5358,26.1359],[95.5341,26.1334],[95.5378,26.1329],[95.5372,26.1315],[95.5391,26.1301],[95.5375,26.1304],[95.5391,26.1288],[95.5355,26.1273],[95.5407,26.1241],[95.5384,26.1193],[95.5453,26.1175],[95.5496,26.1094],[95.5591,26.1096],[95.5618,26.1086],[95.562,26.1059],[95.5637,26.1069],[95.5645,26.1008],[95.5661,26.0996],[95.5636,26.094],[95.571,26.0936],[95.5822,26.097],[95.5829,26.0937],[95.5883,26.0931],[95.5891,26.0915],[95.5973,26.0933],[95.6016,26.089],[95.6006,26.0884],[95.6066,26.0873],[95.6138,26.0924],[95.6216,26.0945],[95.6326,26.101],[95.6371,26.1011],[95.6372,26.099],[95.6395,26.0979],[95.639,26.0957],[95.641,26.0958],[95.6446,26.0902],[95.6438,26.0904],[95.6432,26.0903],[95.6459,26.0894],[95.6446,26.0882],[95.6407,26.0891],[95.6401,26.0875],[95.6399,26.0843],[95.6419,26.0827],[95.6407,26.0819],[95.643,26.0794],[95.6441,26.0719],[95.646,26.0693],[95.6488,26.0692],[95.6509,26.0623],[95.6626,26.0501],[95.6643,26.05],[95.6634,26.0463],[95.6666,26.0472],[95.6633,26.04],[95.6639,26.0367],[95.6684,26.0345],[95.6648,26.0251],[95.6675,26.0228]]}},{"type":"Feature","properties":{"Road_Type":"Secondary","Route":""},"geometry":{"type":"LineString","coordinates":[[94.4922,22.8744],[94.4911,22.8747],[94.491,22.8776],[94.4886,22.8772],[94.479,22.8693],[94.4677,22.8628],[94.4656,22.8631],[94.4602,22.8671],[94.4488,22.8716],[94.4378,22.8795],[94.4251,22.895],[94.4209,22.9034],[94.4126,22.9057],[94.4092,22.9115],[94.4041,22.9144],[94.3983,22.9266],[94.3913,22.929],[94.3848,22.9279],[94.383,22.929]]}},{"type":"Feature","properties":{"Road_Type":"Secondary","Route":""},"geometry":{"type":"LineString","coordinates":[[94.6994,22.834],[94.6868,22.8426],[94.681,22.8502],[94.6755,22.8522],[94.6713,22.8578],[94.6662,22.8587],[94.6636,22.8628],[94.658,22.86],[94.6548,22.8607],[94.6563,22.8639],[94.6541,22.8667],[94.6474,22.8675],[94.64,22.8705],[94.638,22.8728],[94.6383,22.8784],[94.6359,22.8822],[94.6339,22.8819],[94.6298,22.8847],[94.6063,22.8662],[94.6021,22.8653],[94.5964,22.8663],[94.5954,22.8678],[94.5925,22.867],[94.5845,22.8691],[94.577,22.8627],[94.5727,22.8611],[94.5673,22.8627],[94.5623,22.8607]]}},{"type":"Feature","properties":{"Road_Type":"Secondary","Route":""},"geometry":{"type":"LineString","coordinates":[[94.4963,22.8644],[94.475,22.8675]]}},{"type":"Feature","properties":{"Road_Type":"Secondary","Route":""},"geometry":{"type":"LineString","coordinates":[[94.5621,22.8603],[94.5517,22.8548],[94.547,22.8459],[94.5418,22.8454]]}},{"type":"Feature","properties":{"Road_Type":"Secondary","Route":""},"geometry":{"type":"LineString","coordinates":[[94.2921,23.1996],[94.2909,23.194],[94.2926,23.1915],[94.298,23.1905],[94.3027,23.1829],[94.3048,23.1824],[94.3036,23.1722],[94.3013,23.1698],[94.3016,23.165],[94.3043,23.1636],[94.3071,23.159],[94.3053,23.1553],[94.3052,23.1458],[94.3036,23.1433],[94.3045,23.1259],[94.3029,23.1231],[94.3051,23.1161],[94.3025,23.1119],[94.3023,23.1083],[94.2956,23.1046],[94.2931,23.1006],[94.2891,23.1001],[94.2882,23.093],[94.2852,23.0904],[94.2867,23.0844],[94.2852,23.0833],[94.2864,23.0815],[94.284,23.0616],[94.2886,23.0515],[94.2837,23.0462],[94.2829,23.0422],[94.285,23.0371],[94.2836,23.0318],[94.2882,23.0161],[94.2894,23.0025],[94.2954,22.9925],[94.295,22.9886],[94.2975,22.9852],[94.3033,22.9665],[94.3112,22.9571],[94.3103,22.9423],[94.3153,22.9318],[94.3203,22.9286],[94.324,22.9132],[94.3333,22.9059],[94.3339,22.9004],[94.3323,22.8977],[94.3334,22.8957],[94.3396,22.8952],[94.3444,22.8862],[94.3435,22.8781],[94.345,22.878],[94.3473,22.8744],[94.3475,22.8708],[94.3538,22.8634],[94.3557,22.8496],[94.3633,22.8406],[94.363,22.8309],[94.3676,22.8294],[94.3682,22.8254],[94.3667,22.8227],[94.3704,22.8201],[94.3734,22.8144],[94.3714,22.8074],[94.3754,22.8068],[94.3809,22.7967],[94.3817,22.7919],[94.3884,22.7781],[94.3863,22.7732],[94.3969,22.7621],[94.3985,22.7513],[94.4023,22.743],[94.4035,22.7319],[94.4015,22.7264],[94.4047,22.7191],[94.405,22.7104],[94.4138,22.6967],[94.4161,22.6962],[94.4194,22.6911],[94.4212,22.6907],[94.4201,22.6855],[94.4237,22.6829],[94.4229,22.6812],[94.4255,22.6763],[94.4214,22.6741],[94.4211,22.6707],[94.426,22.6635],[94.426,22.6606],[94.4285,22.6578],[94.4305,22.6511],[94.4366,22.6502],[94.439,22.6464],[94.4393,22.6401],[94.4414,22.6393],[94.4401,22.6372],[94.4424,22.6356],[94.4456,22.6255],[94.4493,22.625],[94.4459,22.6235],[94.4467,22.622],[94.4455,22.6213],[94.4499,22.6215],[94.4505,22.6204],[94.4478,22.6182],[94.4495,22.6161],[94.4514,22.6164],[94.4517,22.6079],[94.4564,22.6021],[94.4623,22.5992],[94.4595,22.5964],[94.4601,22.5918],[94.465,22.5927],[94.4667,22.5911],[94.4656,22.585],[94.4672,22.5822],[94.4711,22.5809],[94.4726,22.5852],[94.4776,22.5868],[94.481,22.5841],[94.489,22.5826],[94.4951,22.5862],[94.4988,22.584],[94.502,22.5841],[94.5045,22.5807],[94.5174,22.5823],[94.5193,22.5793],[94.5218,22.58],[94.5221,22.5772],[94.5246,22.5767],[94.5256,22.5733],[94.5299,22.5708],[94.5289,22.5689],[94.5308,22.5697],[94.5389,22.5668],[94.5425,22.5563],[94.5461,22.556],[94.5504,22.5517],[94.5569,22.5492],[94.559,22.5457],[94.5673,22.5428],[94.5673,22.5384],[94.5707,22.5329],[94.579,22.5327],[94.5828,22.5394],[94.5912,22.5394],[94.595,22.5376],[94.5956,22.5332],[94.6011,22.5317],[94.6007,22.527],[94.6029,22.5239],[94.6007,22.5218],[94.6054,22.5189],[94.6076,22.5193],[94.6106,22.5139],[94.6149,22.5111],[94.6155,22.4954],[94.6182,22.4979],[94.6222,22.4975],[94.6258,22.4944],[94.6263,22.4909],[94.6292,22.4897],[94.6297,22.4871],[94.6315,22.4879],[94.6351,22.4857],[94.6398,22.4854],[94.644,22.4835],[94.6453,22.4805],[94.6539,22.4783],[94.6556,22.4604],[94.667,22.442],[94.6697,22.4359],[94.6689,22.4311],[94.6726,22.4289],[94.6737,22.4225],[94.6789,22.4157],[94.678,22.4119],[94.6727,22.4076],[94.673,22.4042],[94.6659,22.3941],[94.6616,22.3821],[94.6705,22.3777],[94.675,22.3727],[94.6771,22.3654],[94.6861,22.3551],[94.6883,22.3495],[94.6948,22.3447],[94.6993,22.3428],[94.7073,22.3433],[94.7127,22.3419],[94.7264,22.3309],[94.7297,22.3298],[94.7348,22.3302],[94.7451,22.335],[94.7563,22.3273],[94.7645,22.3268],[94.7745,22.3235],[94.7792,22.3183],[94.7915,22.3107],[94.7982,22.3107],[94.8064,22.3073],[94.8133,22.3004],[94.8199,22.2991],[94.8223,22.3005],[94.8245,22.2993],[94.8407,22.2998],[94.8636,22.2933],[94.874,22.2969],[94.8891,22.2945],[94.8929,22.2909],[94.9021,22.2726],[94.9078,22.2676],[94.9171,22.2632],[94.9241,22.2556],[94.927,22.2488],[94.9343,22.2467],[94.9383,22.2381],[94.941,22.2356],[94.9561,22.2339],[94.9696,22.2295],[94.9871,22.2294],[95.0001,22.2235],[95.0096,22.211],[95.0192,22.2032],[95.03,22.1974],[95.0451,22.1931],[95.0568,22.1873],[95.0614,22.1887]]}},{"type":"Feature","properties":{"Road_Type":"Main","Route":""},"geometry":{"type":"LineString","coordinates":[[96.1853,23.7096],[96.1544,23.7247],[96.1519,23.7308],[96.1387,23.7497],[96.1383,23.7678],[96.1426,23.7772]]}},{"type":"Feature","properties":{"Road_Type":"Secondary","Route":""},"geometry":{"type":"LineString","coordinates":[[96.3423,24.1781],[96.3445,24.1786],[96.3506,24.1917],[96.3674,24.2099],[96.372,24.2202],[96.3733,24.2309],[96.3806,24.2374],[96.3835,24.2638],[96.3946,24.2816],[96.4083,24.2937],[96.4109,24.3033],[96.4278,24.3177],[96.4353,24.3378],[96.4485,24.3501],[96.4689,24.3553],[96.476,24.3621],[96.4801,24.3716],[96.4894,24.382],[96.5018,24.3877],[96.5053,24.392],[96.5119,24.3921],[96.5208,24.3878],[96.5563,24.3843],[96.5674,24.3719],[96.5786,24.3648],[96.5891,24.3688],[96.5917,24.3673],[96.5976,24.3766],[96.5982,24.3849],[96.6148,24.3888],[96.6691,24.3891],[96.6827,24.382]]}},{"type":"Feature","properties":{"Road_Type":"Secondary","Route":""},"geometry":{"type":"LineString","coordinates":[[95.8729,23.7901],[95.885,23.7822],[95.8908,23.7837],[95.8964,23.7826],[95.9102,23.7713],[95.9232,23.7682],[95.9389,23.7741],[95.9472,23.7744],[95.9507,23.7778],[95.9674,23.7833],[95.9697,23.7816],[95.9731,23.7831],[95.9749,23.7822],[95.9728,23.7784],[95.9794,23.7788],[95.9892,23.7826],[95.9923,23.7809],[95.9912,23.7792],[95.9927,23.7766],[95.991,23.775],[95.9922,23.7727],[95.9943,23.7732],[95.9982,23.7705],[96.0013,23.771],[96.0013,23.7697],[96.0047,23.7716],[96.0117,23.7706],[96.0143,23.7667],[96.0131,23.7599],[96.0314,23.7554],[96.0311,23.7443],[96.0287,23.7359],[96.0499,23.7397],[96.0613,23.7449],[96.0655,23.7437],[96.0712,23.7368],[96.0762,23.7347],[96.0817,23.7418],[96.0964,23.7493],[96.1281,23.7517],[96.1492,23.7505],[96.1483,23.7623],[96.1437,23.7685],[96.1426,23.7772],[96.1492,23.7838],[96.154,23.7858],[96.1551,23.7882],[96.1657,23.7903],[96.1677,23.7924],[96.1726,23.7862],[96.1773,23.7884],[96.1824,23.7943],[96.1893,23.7947],[96.1997,23.7929],[96.2019,23.7962],[96.2059,23.7982],[96.2093,23.8077],[96.2088,23.8105],[96.2126,23.816],[96.2118,23.82],[96.2197,23.8286],[96.2203,23.8344],[96.219,23.8372],[96.2219,23.8389],[96.223,23.8449],[96.2271,23.8493],[96.2269,23.8534],[96.2307,23.8571],[96.2344,23.8689],[96.2342,23.8772],[96.237,23.8806],[96.2477,23.8872],[96.2507,23.8925],[96.2512,23.9044],[96.25,23.9089],[96.2564,23.9419],[96.256,23.9464],[96.2578,23.9478],[96.2543,23.9612],[96.2586,23.9702],[96.2594,23.9757],[96.2582,23.9784],[96.2614,23.9848],[96.2601,23.9883],[96.2624,23.9975],[96.2605,24.0027],[96.2664,24.009],[96.2669,24.0138],[96.2714,24.0179],[96.274,24.024],[96.2728,24.0476],[96.2683,24.0533],[96.2694,24.0582],[96.2644,24.0654],[96.2631,24.0793],[96.2726,24.0875],[96.276,24.0888],[96.2763,24.0919],[96.2799,24.0911],[96.2812,24.0928],[96.2804,24.1035],[96.2828,24.1073],[96.2792,24.1151],[96.282,24.1176],[96.2829,24.1257],[96.286,24.1309],[96.2841,24.138],[96.286,24.1424],[96.2968,24.1442],[96.3039,24.1428],[96.3081,24.1461],[96.3077,24.1502],[96.3096,24.1527],[96.3125,24.1535],[96.3135,24.1564],[96.3189,24.1602],[96.3189,24.1664],[96.3153,24.1718],[96.3186,24.177],[96.312,24.1962],[96.3205,24.2007]]}},{"type":"Feature","properties":{"Road_Type":"Secondary","Route":""},"geometry":{"type":"LineString","coordinates":[[96.3423,24.1781],[96.3335,24.1818],[96.3285,24.1819],[96.3242,24.1864],[96.3207,24.2004],[96.3122,24.2096],[96.3114,24.2182],[96.3129,24.2235],[96.3094,24.2312],[96.3012,24.231],[96.2911,24.2395],[96.2641,24.2473],[96.2531,24.246],[96.2473,24.2489],[96.233,24.2468],[96.2232,24.2484],[96.216,24.2459],[96.2087,24.2494],[96.2046,24.2476],[96.199,24.2489],[96.1926,24.2523]]}},{"type":"Feature","properties":{"Road_Type":"Secondary","Route":""},"geometry":{"type":"LineString","coordinates":[[96.6769,24.4749],[96.6657,24.4712],[96.6568,24.477],[96.6448,24.476],[96.6346,24.4779],[96.6296,24.4772]]}},{"type":"Feature","properties":{"Road_Type":"Secondary","Route":""},"geometry":{"type":"LineString","coordinates":[[96.1668,26.9802],[96.1656,26.985],[96.1598,26.9905],[96.1493,26.9916],[96.1423,26.9951],[96.1259,26.9937],[96.1158,26.9999],[96.1121,27.0003],[96.0969,26.996],[96.086,26.9955],[96.0679,26.9898],[96.0588,26.9917],[96.0502,26.9908],[96.0297,26.9844],[96.023,26.9777],[96.011,26.9746],[96.0029,26.9754],[95.9906,26.9708],[95.9828,26.964],[95.976,26.9607],[95.9704,26.961],[95.9666,26.9558],[95.9633,26.9554],[95.9437,26.9428],[95.9368,26.9413],[95.9135,26.9256],[95.8961,26.9337],[95.891,26.9335],[95.8864,26.9278],[95.8865,26.9227],[95.884,26.9152],[95.8855,26.9102],[95.8848,26.9068],[95.874,26.9003],[95.8628,26.8894],[95.8609,26.8848],[95.8646,26.8768],[95.8502,26.8515],[95.8354,26.8369],[95.8336,26.8258],[95.8344,26.8129],[95.8225,26.8028],[95.821,26.7989],[95.8179,26.7964],[95.8175,26.7843],[95.8132,26.7866],[95.8135,26.7817],[95.8095,26.7806],[95.8073,26.7829],[95.7922,26.7757]]}},{"type":"Feature","properties":{"Road_Type":"Main","Route":""},"geometry":{"type":"LineString","coordinates":[[96.1426,23.7772],[96.1295,23.7924],[96.1234,23.8057],[96.1165,23.8124],[96.1157,23.8224],[96.1168,23.8271],[96.1104,23.8311],[96.1085,23.8349],[96.1087,23.8412],[96.1151,23.8409],[96.1182,23.8437],[96.1185,23.8467],[96.116,23.8532],[96.1162,23.8607],[96.1132,23.8636],[96.1157,23.8767],[96.1154,23.8853],[96.1056,23.8908],[96.104,23.8969],[96.1058,23.9243],[96.1105,23.947],[96.1021,23.955],[96.0933,23.9563],[96.0911,23.954],[96.0856,23.9587],[96.0769,23.9596],[96.074,23.9654],[96.0677,23.9638],[96.0613,23.9652],[96.0594,23.9636],[96.0501,23.9647]]}},{"type":"Feature","properties":{"Road_Type":"Secondary","Route":""},"geometry":{"type":"LineString","coordinates":[[96.4771,24.0357],[96.4625,24.0478],[96.452,24.0713],[96.4433,24.0788],[96.3929,24.1373],[96.3856,24.1396]]}},{"type":"Feature","properties":{"Road_Type":"Secondary","Route":""},"geometry":{"type":"LineString","coordinates":[[96.6134,24.1935],[96.6035,24.1934],[96.5909,24.2099],[96.5878,24.2114],[96.545,24.2087],[96.5106,24.2177],[96.4867,24.2],[96.4843,24.1997],[96.4466,24.2081],[96.4342,24.2154],[96.43,24.2163],[96.4124,24.1943],[96.3894,24.1432],[96.3856,24.1396]]}},{"type":"Feature","properties":{"Road_Type":"Secondary","Route":""},"geometry":{"type":"LineString","coordinates":[[94.9885,24.5882],[94.9825,24.5953],[94.9833,24.6021],[94.9806,24.6116],[94.9734,24.6161],[94.9648,24.63],[94.9476,24.6368],[94.9386,24.6466],[94.9288,24.6468],[94.9208,24.6537],[94.9182,24.6543],[94.9161,24.6519],[94.9102,24.6514],[94.898,24.6576],[94.8895,24.659],[94.8779,24.6527],[94.8723,24.6544],[94.8454,24.6497],[94.8306,24.655],[94.8211,24.6556],[94.8153,24.654],[94.8047,24.6571],[94.7945,24.649],[94.7918,24.6493],[94.7875,24.6534],[94.7774,24.6513],[94.7749,24.6542],[94.7731,24.6611],[94.769,24.6609],[94.7646,24.6641],[94.7604,24.6628],[94.7541,24.6638],[94.7404,24.6798],[94.7322,24.6847]]}},{"type":"Feature","properties":{"Road_Type":"Secondary","Route":""},"geometry":{"type":"LineString","coordinates":[[96.0335,23.4689],[96.0284,23.4758],[96.0167,23.482],[96.0122,23.4825],[96.0097,23.4944],[96.0105,23.5006],[96.013,23.5036]]}},{"type":"Feature","properties":{"Road_Type":"Secondary","Route":""},"geometry":{"type":"LineString","coordinates":[[94.5691,24.6798],[94.5689,24.6813],[94.5691,24.6798],[94.5757,24.6784],[94.5785,24.6795],[94.5819,24.6771],[94.5986,24.6832],[94.6026,24.6833],[94.6029,24.6818],[94.6081,24.6885],[94.6104,24.6878],[94.6134,24.691],[94.6203,24.7025],[94.6237,24.7043],[94.6249,24.71],[94.6298,24.7121],[94.6304,24.7097],[94.6328,24.7093],[94.633,24.7079],[94.6339,24.7099],[94.6355,24.7085],[94.6363,24.7104],[94.6373,24.7097],[94.632,24.6893],[94.6339,24.6897],[94.6418,24.6996],[94.6427,24.6985],[94.6503,24.7041],[94.6585,24.7162],[94.6661,24.7156],[94.6725,24.7178],[94.6805,24.7274],[94.6816,24.7263],[94.6849,24.7277],[94.6956,24.7352],[94.6988,24.7416],[94.7031,24.7458],[94.7087,24.7482],[94.7109,24.7466],[94.7123,24.7475],[94.715,24.7439],[94.7167,24.7439],[94.7264,24.757],[94.7297,24.7558],[94.732,24.7519],[94.7355,24.7514],[94.735,24.7482],[94.7382,24.7453],[94.7452,24.7464],[94.7451,24.7521],[94.7468,24.7544],[94.7459,24.7593],[94.752,24.778],[94.7552,24.7816],[94.7591,24.7799],[94.7635,24.7847],[94.7685,24.7849],[94.7723,24.7885],[94.7765,24.7884],[94.7816,24.7923],[94.7902,24.7929],[94.7957,24.8057],[94.7951,24.8122],[94.8041,24.8232],[94.8049,24.8337],[94.815,24.8474],[94.8217,24.85],[94.8226,24.8518],[94.8198,24.8556],[94.8215,24.8574],[94.8362,24.8594],[94.8429,24.8498],[94.8629,24.8488],[94.8658,24.8461],[94.8705,24.8448],[94.8757,24.8456],[94.8777,24.8501],[94.8898,24.8556],[94.8936,24.8686],[94.9123,24.8749],[94.9237,24.8713]]}},{"type":"Feature","properties":{"Road_Type":"Secondary","Route":""},"geometry":{"type":"LineString","coordinates":[[95.9879,21.815],[95.9826,21.8183]]}},{"type":"Feature","properties":{"Road_Type":"Main","Route":""},"geometry":{"type":"LineString","coordinates":[[94.5657,24.6995],[94.5669,24.6916],[94.5685,24.6898],[94.5696,24.6757],[94.5659,24.6631],[94.5703,24.6581],[94.5682,24.6404],[94.5652,24.6382],[94.561,24.6293],[94.5538,24.6263],[94.5556,24.6224],[94.5505,24.6148],[94.5542,24.6063],[94.5552,24.598],[94.5537,24.5943],[94.559,24.5923],[94.563,24.5856],[94.5501,24.5759],[94.5439,24.5664],[94.5417,24.5569],[94.5237,24.5402],[94.5239,24.5315],[94.5166,24.5113],[94.516,24.5068],[94.5176,24.5021],[94.5136,24.5006],[94.5018,24.5004],[94.4881,24.4903],[94.4885,24.4884],[94.4845,24.4812],[94.4744,24.4752],[94.4713,24.4706],[94.4592,24.4665],[94.4557,24.4638],[94.4448,24.4614],[94.4371,24.4654],[94.428,24.4668],[94.4242,24.4647],[94.4225,24.4588],[94.4272,24.4494],[94.4305,24.4377],[94.4284,24.4232],[94.4217,24.42],[94.4088,24.4098],[94.4008,24.4092],[94.3919,24.4002],[94.3886,24.3809],[94.3747,24.364],[94.3722,24.3589],[94.3718,24.3511],[94.3623,24.3425],[94.3575,24.3325],[94.35,24.325],[94.3404,24.3206],[94.3328,24.3106],[94.3353,24.3062],[94.3336,24.3024],[94.3371,24.2842],[94.3237,24.2619],[94.3232,24.257],[94.3179,24.2523],[94.3159,24.2472],[94.3138,24.2458],[94.3112,24.2464]]}},{"type":"Feature","properties":{"Road_Type":"Main","Route":""},"geometry":{"type":"LineString","coordinates":[[95.2445,21.6289],[95.233,21.6255],[95.2261,21.6328],[95.2205,21.6348],[95.215,21.6423],[95.205,21.6421]]}},{"type":"Feature","properties":{"Road_Type":"Main","Route":""},"geometry":{"type":"LineString","coordinates":[[95.2862,21.9553],[95.2722,21.9612],[95.2438,21.9971],[95.2415,22.0012],[95.2418,22.0047],[95.2335,22.0303],[95.2228,22.0427],[95.2189,22.0445],[95.2043,22.0604],[95.1692,22.0789],[95.1582,22.0875],[95.1481,22.0931],[95.1364,22.1155]]}},{"type":"Feature","properties":{"Road_Type":"Main","Route":""},"geometry":{"type":"LineString","coordinates":[[96.0057,21.8724],[96.0003,21.8669],[96.0029,21.866]]}}]}