{"type":"FeatureCollection","features":[{"type":"Feature","properties":{"Town":"Katha","Town_MMR4":"ကသာ","Township":"Katha","District":"Katha","Level":"District Capital","sev":"watch"},"geometry":{"type":"Point","coordinates":[96.3317,24.1816]}},{"type":"Feature","properties":{"Town":"Nanyun","Town_MMR4":"နန်းယွန်း","Township":"Nanyun","District":"Naga Self-Administered Zone","Level":"Main Town","sev":"none"},"geometry":{"type":"Point","coordinates":[96.1671,26.9798]}},{"type":"Feature","properties":{"Town":"Pansaung","Town_MMR4":"ပန်ဆောင်","Township":"Nanyun","District":"Naga Self-Administered Zone","Level":"Other Town","sev":"none"},"geometry":{"type":"Point","coordinates":[96.1671,27.2368]}},{"type":"Feature","properties":{"Town":"Tigyaing","Town_MMR4":"ထီးချိုင့်","Township":"Tigyaing","District":"Katha","Level":"Main Town","sev":"watch"},"geometry":{"type":"Point","coordinates":[96.1483,23.7545]}},{"type":"Feature","properties":{"Town":"Indaw","Town_MMR4":"အင်းတော်","Township":"Indaw","District":"Katha","Level":"Main Town","sev":"moderate"},"geometry":{"type":"Point","coordinates":[96.1417,24.2225]}},{"type":"Feature","properties":{"Town":"Sagaing","Town_MMR4":"စစ်ကိုင်း","Township":"Sagaing","District":"Sagaing","Level":"District Capital","sev":"moderate"},"geometry":{"type":"Point","coordinates":[95.9623,21.8801]}},{"type":"Feature","properties":{"Town":"Kyauk Myaung","Town_MMR4":"​ကျောက်မြောင်း","Township":"Shwebo","District":"Shwebo","Level":"Other Town","sev":"severe"},"geometry":{"type":"Point","coordinates":[95.945,22.5933]}},{"type":"Feature","properties":{"Town":"Banmauk","Town_MMR4":"ဗန်းမောက်","Township":"Banmauk","District":"Katha","Level":"Main Town","sev":"watch"},"geometry":{"type":"Point","coordinates":[95.8577,24.3999]}},{"type":"Feature","properties":{"Town":"Don Hee","Town_MMR4":"ဒုံဟီး","Township":"Nanyun","District":"Naga Self-Administered Zone","Level":"Other Town","sev":"none"},"geometry":{"type":"Point","coordinates":[95.7917,26.7757]}},{"type":"Feature","properties":{"Town":"Wetlet","Town_MMR4":"ဝက်လက်","Township":"Wetlet","District":"Shwebo","Level":"Main Town","sev":"severe"},"geometry":{"type":"Point","coordinates":[95.7881,22.3671]}},{"type":"Feature","properties":{"Town":"Shwebo","Town_MMR4":"ရွှေဘို","Township":"Shwebo","District":"Shwebo","Level":"District Capital","sev":"severe"},"geometry":{"type":"Point","coordinates":[95.6985,22.57]}},{"type":"Feature","properties":{"Town":"Hkamti","Town_MMR4":"ခန္တီး","Township":"Hkamti","District":"Hkamti","Level":"District Capital","sev":"none"},"geometry":{"type":"Point","coordinates":[95.6955,25.9924]}},{"type":"Feature","properties":{"Town":"Wuntho","Town_MMR4":"ဝန်းသို","Township":"Wuntho","District":"Kawlin","Level":"Main Town","sev":"watch"},"geometry":{"type":"Point","coordinates":[95.6819,23.8992]}},{"type":"Feature","properties":{"Town":"Kawlin","Town_MMR4":"ကောလင်း","Township":"Kawlin","District":"Kawlin","Level":"District Capital","sev":"critical"},"geometry":{"type":"Point","coordinates":[95.6834,23.7903]}},{"type":"Feature","properties":{"Town":"Khin-U","Town_MMR4":"ခင်ဦး","Township":"Khin-U","District":"Shwebo","Level":"Main Town","sev":"severe"},"geometry":{"type":"Point","coordinates":[95.6215,22.7702]}},{"type":"Feature","properties":{"Town":"Myinmu","Town_MMR4":"မြင်းမူ","Township":"Myinmu","District":"Sagaing","Level":"Main Town","sev":"moderate"},"geometry":{"type":"Point","coordinates":[95.5716,21.9268]}},{"type":"Feature","properties":{"Town":"Kyunhla","Town_MMR4":"ကျွန်းလှ","Township":"Kyunhla","District":"Kanbalu","Level":"Main Town","sev":"critical"},"geometry":{"type":"Point","coordinates":[95.5321,23.3196]}},{"type":"Feature","properties":{"Town":"Kanbalu","Town_MMR4":"ကန့်ဘလူ","Township":"Kanbalu","District":"Kanbalu","Level":"District Capital","sev":"critical"},"geometry":{"type":"Point","coordinates":[95.5189,23.2031]}},{"type":"Feature","properties":{"Town":"Ayadaw","Town_MMR4":"အရာတော်","Township":"Ayadaw","District":"Monywa","Level":"Main Town","sev":"moderate"},"geometry":{"type":"Point","coordinates":[95.4507,22.2853]}},{"type":"Feature","properties":{"Town":"Lahe","Town_MMR4":"လဟယ်","Township":"Lahe","District":"Naga Self-Administered Zone","Level":"Main Town","sev":"none"},"geometry":{"type":"Point","coordinates":[95.4411,26.3259]}},{"type":"Feature","properties":{"Town":"Ye-U","Town_MMR4":"ရေဦး","Township":"Ye-U","District":"Shwebo","Level":"Main Town","sev":"severe"},"geometry":{"type":"Point","coordinates":[95.4305,22.7691]}},{"type":"Feature","properties":{"Town":"Myaung","Town_MMR4":"မြောင်","Township":"Myaung","District":"Sagaing","Level":"Main Town","sev":"none"},"geometry":{"type":"Point","coordinates":[95.4242,21.8316]}},{"type":"Feature","properties":{"Town":"Taze","Town_MMR4":"တန့်ဆည်","Township":"Taze","District":"Shwebo","Level":"Main Town","sev":"critical"},"geometry":{"type":"Point","coordinates":[95.3736,22.9441]}},{"type":"Feature","properties":{"Town":"Pinlebu","Town_MMR4":"ပင်လည်ဘူး","Township":"Pinlebu","District":"Kawlin","Level":"Main Town","sev":"watch"},"geometry":{"type":"Point","coordinates":[95.3703,24.0809]}},{"type":"Feature","properties":{"Town":"Tabayin","Town_MMR4":"ဒီပဲယင်း","Township":"Tabayin","District":"Shwebo","Level":"Main Town","sev":"critical"},"geometry":{"type":"Point","coordinates":[95.3212,22.6853]}},{"type":"Feature","properties":{"Town":"Chaung-U","Town_MMR4":"ချောင်းဦး","Township":"Chaung-U","District":"Monywa","Level":"Main Town","sev":"none"},"geometry":{"type":"Point","coordinates":[95.2736,21.9569]}},{"type":"Feature","properties":{"Town":"Htan Par Kway","Town_MMR4":"ထန်ပါခွေ","Township":"Lahe","District":"Naga Self-Administered Zone","Level":"Other Town","sev":"none"},"geometry":{"type":"Point","coordinates":[95.2415,25.9659]}},{"type":"Feature","properties":{"Town":"Budalin","Town_MMR4":"ဘုတလင်","Township":"Budalin","District":"Monywa","Level":"Main Town","sev":"none"},"geometry":{"type":"Point","coordinates":[95.1486,22.3892]}},{"type":"Feature","properties":{"Town":"Monywa","Town_MMR4":"မုံရွာ","Township":"Monywa","District":"Monywa","Level":"State/Region Capital","sev":"moderate"},"geometry":{"type":"Point","coordinates":[95.1396,22.1217]}},{"type":"Feature","properties":{"Town":"Salingyi","Town_MMR4":"ဆားလင်းကြီး","Township":"Salingyi","District":"Yinmarbin","Level":"Main Town","sev":"none"},"geometry":{"type":"Point","coordinates":[95.0827,21.9736]}},{"type":"Feature","properties":{"Town":"Lay Shi","Town_MMR4":"လေရှီး","Township":"Lay Shi","District":"Naga Self-Administered Zone","Level":"Main Town","sev":"none"},"geometry":{"type":"Point","coordinates":[94.9566,25.4471]}},{"type":"Feature","properties":{"Town":"Homalin","Town_MMR4":"ဟုမ္မလင်း","Township":"Homalin","District":"Hkamti","Level":"Main Town","sev":"watch"},"geometry":{"type":"Point","coordinates":[94.9109,24.8644]}},{"type":"Feature","properties":{"Town":"Yinmarbin","Town_MMR4":"ယင်းမာပင်","Township":"Yinmarbin","District":"Yinmarbin","Level":"District Capital","sev":"none"},"geometry":{"type":"Point","coordinates":[94.9001,22.0778]}},{"type":"Feature","properties":{"Town":"Pale","Town_MMR4":"ပုလဲ","Township":"Pale","District":"Yinmarbin","Level":"Main Town","sev":"none"},"geometry":{"type":"Point","coordinates":[94.8749,21.9341]}},{"type":"Feature","properties":{"Town":"Kani","Town_MMR4":"ကနီ","Township":"Kani","District":"Yinmarbin","Level":"Main Town","sev":"none"},"geometry":{"type":"Point","coordinates":[94.8485,22.4329]}},{"type":"Feature","properties":{"Town":"Paungbyin","Town_MMR4":"ဖောင်းပြင်","Township":"Paungbyin","District":"Mawlaik","Level":"Main Town","sev":"watch"},"geometry":{"type":"Point","coordinates":[94.8169,24.2677]}},{"type":"Feature","properties":{"Town":"Mo Waing Lut","Town_MMR4":"မိုဝိုင်းလွတ်","Township":"Homalin","District":"Hkamti","Level":"Other Town","sev":"watch"},"geometry":{"type":"Point","coordinates":[94.9645,25.0834]}},{"type":"Feature","properties":{"Town":"Shwe Pyi Aye","Town_MMR4":"ရွှေပြည်အေး","Township":"Homalin","District":"Hkamti","Level":"Other Town","sev":"watch"},"geometry":{"type":"Point","coordinates":[94.7315,24.6834]}},{"type":"Feature","properties":{"Town":"Sum Ma Rar","Town_MMR4":"ဆွမ္မရာ","Township":"Lay Shi","District":"Naga Self-Administered Zone","Level":"Other Town","sev":"none"},"geometry":{"type":"Point","coordinates":[94.6873,25.3646]}},{"type":"Feature","properties":{"Town":"Myothit","Town_MMR4":"မြို့သစ်","Township":"Tamu","District":"Tamu","Level":"Other Town","sev":"none"},"geometry":{"type":"Point","coordinates":[94.5186,24.5154]}},{"type":"Feature","properties":{"Town":"Mingin","Town_MMR4":"မင်းကင်း","Township":"Mingin","District":"Kale","Level":"Main Town","sev":"watch"},"geometry":{"type":"Point","coordinates":[94.4942,22.8778]}},{"type":"Feature","properties":{"Town":"Mawlaik","Town_MMR4":"မော်လိုက်","Township":"Mawlaik","District":"Mawlaik","Level":"District Capital","sev":"watch"},"geometry":{"type":"Point","coordinates":[94.412,23.6351]}},{"type":"Feature","properties":{"Town":"Tamu","Town_MMR4":"တမူး","Township":"Tamu","District":"Tamu","Level":"District Capital","sev":"none"},"geometry":{"type":"Point","coordinates":[94.3153,24.2115]}},{"type":"Feature","properties":{"Town":"Kalewa","Town_MMR4":"ကလေးဝ","Township":"Kalewa","District":"Kale","Level":"Main Town","sev":"watch"},"geometry":{"type":"Point","coordinates":[94.3004,23.1998]}},{"type":"Feature","properties":{"Town":"Khampat","Town_MMR4":"ခါမ်းပါတ်","Township":"Tamu","District":"Tamu","Level":"Other Town","sev":"none"},"geometry":{"type":"Point","coordinates":[94.1458,23.7798]}},{"type":"Feature","properties":{"Town":"Kale","Town_MMR4":"ကလေး","Township":"Kale","District":"Kale","Level":"District Capital","sev":"none"},"geometry":{"type":"Point","coordinates":[94.0298,23.1933]}},{"type":"Feature","properties":{"Town":"Maw Lu","Town_MMR4":"မော်လူး","Township":"Indaw","District":"Katha","Level":"Other Town","sev":"moderate"},"geometry":{"type":"Point","coordinates":[96.1796,24.4649]}},{"type":"Feature","properties":{"Town":"Saing Pyin","Town_MMR4":"စိုင်ပြင်","Township":"Tabayin","District":"Shwebo","Level":"Other Town","sev":"critical"},"geometry":{"type":"Point","coordinates":[95.2366,22.5561]}},{"type":"Feature","properties":{"Town":"Sar Taung","Town_MMR4":"ဆားတောင်","Township":"Sagaing","District":"Sagaing","Level":"Other Town","sev":"moderate"},"geometry":{"type":"Point","coordinates":[95.7574,22.1639]}},{"type":"Feature","properties":{"Town":"Zee Kone","Town_MMR4":"ဇီးကုန်း","Township":"Kanbalu","District":"Kanbalu","Level":"Other Town","sev":"critical"},"geometry":{"type":"Point","coordinates":[95.5636,22.9311]}}]}